<?xml version="1.0" encoding="UTF-8" standalone="no" ?><gpx xmlns="http://www.topografix.com/GPX/1/1" xmlns:xsi="http://www.w3.org/2001/XMLSchema-instance" creator="GraphHopper" version="1.1" xmlns:gh="https://graphhopper.com/public/schema/gpx/1.1">
<metadata><copyright author="OpenStreetMap contributors"/><link href="http://graphhopper.com"><text>GraphHopper GPX</text></link><time>2026-04-19T21:54:21.220Z</time></metadata>
<trk>
<name>GraphHopper Track</name><desc></desc>
<trkseg><trkpt lat="40.512856" lon="-88.999776"><ele>240.0</ele></trkpt>
<trkpt lat="40.512788" lon="-88.999698"><ele>240.0</ele></trkpt>
<trkpt lat="40.512751" lon="-88.999680"><ele>240.0</ele></trkpt>
<trkpt lat="40.512679" lon="-88.999653"><ele>240.0</ele></trkpt>
<trkpt lat="40.512398" lon="-88.999630"><ele>240.1</ele></trkpt>
<trkpt lat="40.512314" lon="-88.999614"><ele>240.2</ele></trkpt>
<trkpt lat="40.512201" lon="-88.999568"><ele>240.3</ele></trkpt>
<trkpt lat="40.511915" lon="-88.999401"><ele>240.8</ele></trkpt>
<trkpt lat="40.511802" lon="-88.999391"><ele>240.8</ele></trkpt>
<trkpt lat="40.511716" lon="-88.999398"><ele>240.7</ele></trkpt>
<trkpt lat="40.511629" lon="-88.999423"><ele>240.6</ele></trkpt>
<trkpt lat="40.511531" lon="-88.999477"><ele>240.4</ele></trkpt>
<trkpt lat="40.511450" lon="-88.999580"><ele>240.1</ele></trkpt>
<trkpt lat="40.511382" lon="-88.999671"><ele>240.0</ele></trkpt>
<trkpt lat="40.511313" lon="-88.999737"><ele>240.0</ele></trkpt>
<trkpt lat="40.511201" lon="-88.999783"><ele>239.7</ele></trkpt>
<trkpt lat="40.511112" lon="-88.999796"><ele>239.5</ele></trkpt>
<trkpt lat="40.509860" lon="-88.999736"><ele>236.4</ele></trkpt>
<trkpt lat="40.509914" lon="-88.997533"><ele>239.6</ele></trkpt>
<trkpt lat="40.509940" lon="-88.997326"><ele>240.0</ele></trkpt>
<trkpt lat="40.509986" lon="-88.997108"><ele>240.5</ele></trkpt>
<trkpt lat="40.510038" lon="-88.996939"><ele>240.9</ele></trkpt>
<trkpt lat="40.510109" lon="-88.996765"><ele>241.2</ele></trkpt>
<trkpt lat="40.510189" lon="-88.996613"><ele>241.6</ele></trkpt>
<trkpt lat="40.510403" lon="-88.996303"><ele>241.9</ele></trkpt>
<trkpt lat="40.510519" lon="-88.996113"><ele>242.0</ele></trkpt>
<trkpt lat="40.510590" lon="-88.995958"><ele>242.0</ele></trkpt>
<trkpt lat="40.510629" lon="-88.995871"><ele>242.0</ele></trkpt>
<trkpt lat="40.510720" lon="-88.995618"><ele>242.0</ele></trkpt>
<trkpt lat="40.510804" lon="-88.995278"><ele>241.8</ele></trkpt>
<trkpt lat="40.510838" lon="-88.995096"><ele>241.4</ele></trkpt>
<trkpt lat="40.510843" lon="-88.994948"><ele>240.8</ele></trkpt>
<trkpt lat="40.511499" lon="-88.994977"><ele>242.9</ele></trkpt>
<trkpt lat="40.513837" lon="-88.995037"><ele>246.0</ele></trkpt>
<trkpt lat="40.514157" lon="-88.995025"><ele>246.0</ele></trkpt>
<trkpt lat="40.514478" lon="-88.994996"><ele>246.0</ele></trkpt>
<trkpt lat="40.514718" lon="-88.994994"><ele>246.0</ele></trkpt>
<trkpt lat="40.517011" lon="-88.994993"><ele>247.2</ele></trkpt>
<trkpt lat="40.518087" lon="-88.995014"><ele>247.6</ele></trkpt>
<trkpt lat="40.518753" lon="-88.995043"><ele>247.4</ele></trkpt>
<trkpt lat="40.519356" lon="-88.995057"><ele>247.9</ele></trkpt>
<trkpt lat="40.520204" lon="-88.995101"><ele>248.0</ele></trkpt>
<trkpt lat="40.520886" lon="-88.995160"><ele>248.0</ele></trkpt>
<trkpt lat="40.522498" lon="-88.995220"><ele>249.8</ele></trkpt>
<trkpt lat="40.522666" lon="-88.995294"><ele>249.7</ele></trkpt>
<trkpt lat="40.523848" lon="-88.995331"><ele>251.6</ele></trkpt>
<trkpt lat="40.524753" lon="-88.995345"><ele>252.1</ele></trkpt>
<trkpt lat="40.531567" lon="-88.995669"><ele>254.0</ele></trkpt>
<trkpt lat="40.531667" lon="-88.995608"><ele>254.0</ele></trkpt>
<trkpt lat="40.531962" lon="-88.995627"><ele>254.0</ele></trkpt>
<trkpt lat="40.532192" lon="-88.995643"><ele>254.0</ele></trkpt>
<trkpt lat="40.536794" lon="-88.995930"><ele>256.9</ele></trkpt>
<trkpt lat="40.544523" lon="-88.996429"><ele>266.0</ele></trkpt>
<trkpt lat="40.545018" lon="-88.996479"><ele>266.0</ele></trkpt>
<trkpt lat="40.545900" lon="-88.996550"><ele>266.9</ele></trkpt>
<trkpt lat="40.546426" lon="-88.996605"><ele>267.0</ele></trkpt>
<trkpt lat="40.547820" lon="-88.996680"><ele>266.0</ele></trkpt>
<trkpt lat="40.547995" lon="-88.996785"><ele>266.0</ele></trkpt>
<trkpt lat="40.550233" lon="-88.996919"><ele>264.0</ele></trkpt>
<trkpt lat="40.559352" lon="-88.997534"><ele>252.6</ele></trkpt>
<trkpt lat="40.559646" lon="-88.997581"><ele>252.9</ele></trkpt>
<trkpt lat="40.559840" lon="-88.997647"><ele>252.9</ele></trkpt>
<trkpt lat="40.560021" lon="-88.997730"><ele>253.0</ele></trkpt>
<trkpt lat="40.560163" lon="-88.997814"><ele>253.0</ele></trkpt>
<trkpt lat="40.560319" lon="-88.997935"><ele>253.0</ele></trkpt>
<trkpt lat="40.560479" lon="-88.997982"><ele>253.0</ele></trkpt>
<trkpt lat="40.560588" lon="-88.998083"><ele>253.0</ele></trkpt>
<trkpt lat="40.560688" lon="-88.998200"><ele>253.2</ele></trkpt>
<trkpt lat="40.560910" lon="-88.998515"><ele>253.8</ele></trkpt>
<trkpt lat="40.561012" lon="-88.998694"><ele>254.2</ele></trkpt>
<trkpt lat="40.561179" lon="-88.999073"><ele>255.0</ele></trkpt>
<trkpt lat="40.561264" lon="-88.999367"><ele>255.6</ele></trkpt>
<trkpt lat="40.561324" lon="-88.999627"><ele>256.1</ele></trkpt>
<trkpt lat="40.561357" lon="-88.999879"><ele>256.6</ele></trkpt>
<trkpt lat="40.561376" lon="-89.000145"><ele>257.1</ele></trkpt>
<trkpt lat="40.561379" lon="-89.000679"><ele>258.4</ele></trkpt>
<trkpt lat="40.561416" lon="-89.000849"><ele>258.8</ele></trkpt>
<trkpt lat="40.561508" lon="-89.001049"><ele>259.0</ele></trkpt>
<trkpt lat="40.561663" lon="-89.001129"><ele>258.0</ele></trkpt>
<trkpt lat="40.561878" lon="-89.001297"><ele>257.2</ele></trkpt>
<trkpt lat="40.562677" lon="-89.001921"><ele>253.9</ele></trkpt>
<trkpt lat="40.562886" lon="-89.002068"><ele>253.7</ele></trkpt>
<trkpt lat="40.562995" lon="-89.002125"><ele>253.6</ele></trkpt>
<trkpt lat="40.563240" lon="-89.002230"><ele>253.5</ele></trkpt>
<trkpt lat="40.563345" lon="-89.002262"><ele>253.4</ele></trkpt>
<trkpt lat="40.564311" lon="-89.002444"><ele>253.0</ele></trkpt>
<trkpt lat="40.571613" lon="-89.002622"><ele>243.3</ele></trkpt>
<trkpt lat="40.575717" lon="-89.002644"><ele>239.7</ele></trkpt>
<trkpt lat="40.580610" lon="-89.002627"><ele>243.5</ele></trkpt>
<trkpt lat="40.582114" lon="-89.002641"><ele>244.7</ele></trkpt>
<trkpt lat="40.587514" lon="-89.002642"><ele>238.9</ele></trkpt>
<trkpt lat="40.588307" lon="-89.002650"><ele>237.3</ele></trkpt>
<trkpt lat="40.589210" lon="-89.002644"><ele>235.6</ele></trkpt>
<trkpt lat="40.591227" lon="-89.002651"><ele>232.0</ele></trkpt>
<trkpt lat="40.592393" lon="-89.002635"><ele>230.1</ele></trkpt>
<trkpt lat="40.592704" lon="-89.002631"><ele>230.8</ele></trkpt>
<trkpt lat="40.593300" lon="-89.002590"><ele>231.4</ele></trkpt>
<trkpt lat="40.594550" lon="-89.002426"><ele>231.9</ele></trkpt>
<trkpt lat="40.594999" lon="-89.002342"><ele>231.5</ele></trkpt>
<trkpt lat="40.595614" lon="-89.002189"><ele>229.2</ele></trkpt>
<trkpt lat="40.596014" lon="-89.002078"><ele>232.0</ele></trkpt>
<trkpt lat="40.596288" lon="-89.002005"><ele>232.5</ele></trkpt>
<trkpt lat="40.606145" lon="-88.998964"><ele>231.3</ele></trkpt>
<trkpt lat="40.606636" lon="-88.998861"><ele>231.7</ele></trkpt>
<trkpt lat="40.607146" lon="-88.998755"><ele>231.8</ele></trkpt>
<trkpt lat="40.607750" lon="-88.998717"><ele>230.7</ele></trkpt>
<trkpt lat="40.608124" lon="-88.998732"><ele>229.9</ele></trkpt>
<trkpt lat="40.608817" lon="-88.998792"><ele>228.6</ele></trkpt>
<trkpt lat="40.609545" lon="-88.998947"><ele>227.8</ele></trkpt>
<trkpt lat="40.610077" lon="-88.999128"><ele>227.3</ele></trkpt>
<trkpt lat="40.610758" lon="-88.999429"><ele>226.7</ele></trkpt>
<trkpt lat="40.612998" lon="-89.000447"><ele>228.2</ele></trkpt>
<trkpt lat="40.615524" lon="-89.001614"><ele>230.1</ele></trkpt>
<trkpt lat="40.617626" lon="-89.002554"><ele>231.0</ele></trkpt>
<trkpt lat="40.618208" lon="-89.002777"><ele>230.8</ele></trkpt>
<trkpt lat="40.618671" lon="-89.002914"><ele>230.6</ele></trkpt>
<trkpt lat="40.619229" lon="-89.003047"><ele>229.8</ele></trkpt>
<trkpt lat="40.619484" lon="-89.003095"><ele>229.5</ele></trkpt>
<trkpt lat="40.620355" lon="-89.003191"><ele>228.4</ele></trkpt>
<trkpt lat="40.620874" lon="-89.003211"><ele>227.9</ele></trkpt>
<trkpt lat="40.626343" lon="-89.003387"><ele>227.7</ele></trkpt>
<trkpt lat="40.628266" lon="-89.003458"><ele>229.9</ele></trkpt>
<trkpt lat="40.631234" lon="-89.003551"><ele>231.2</ele></trkpt>
<trkpt lat="40.632030" lon="-89.003568"><ele>231.8</ele></trkpt>
<trkpt lat="40.632491" lon="-89.003597"><ele>232.0</ele></trkpt>
<trkpt lat="40.639704" lon="-89.003838"><ele>231.9</ele></trkpt>
<trkpt lat="40.640023" lon="-89.003854"><ele>231.8</ele></trkpt>
<trkpt lat="40.640927" lon="-89.003942"><ele>231.2</ele></trkpt>
<trkpt lat="40.642346" lon="-89.004124"><ele>230.8</ele></trkpt>
<trkpt lat="40.642914" lon="-89.004188"><ele>230.4</ele></trkpt>
<trkpt lat="40.643458" lon="-89.004217"><ele>230.1</ele></trkpt>
<trkpt lat="40.652697" lon="-89.004483"><ele>224.3</ele></trkpt>
<trkpt lat="40.653869" lon="-89.004524"><ele>223.3</ele></trkpt>
<trkpt lat="40.659485" lon="-89.004654"><ele>217.1</ele></trkpt>
<trkpt lat="40.660562" lon="-89.004705"><ele>215.8</ele></trkpt>
<trkpt lat="40.661200" lon="-89.004782"><ele>215.0</ele></trkpt>
<trkpt lat="40.661728" lon="-89.004882"><ele>214.3</ele></trkpt>
<trkpt lat="40.662227" lon="-89.004998"><ele>213.8</ele></trkpt>
<trkpt lat="40.662796" lon="-89.005189"><ele>213.6</ele></trkpt>
<trkpt lat="40.663497" lon="-89.005470"><ele>210.9</ele></trkpt>
<trkpt lat="40.663987" lon="-89.005681"><ele>209.0</ele></trkpt>
<trkpt lat="40.664380" lon="-89.005878"><ele>213.8</ele></trkpt>
<trkpt lat="40.665151" lon="-89.006346"><ele>215.5</ele></trkpt>
<trkpt lat="40.665619" lon="-89.006673"><ele>216.1</ele></trkpt>
<trkpt lat="40.666079" lon="-89.007035"><ele>216.6</ele></trkpt>
<trkpt lat="40.666878" lon="-89.007754"><ele>217.5</ele></trkpt>
<trkpt lat="40.667225" lon="-89.008115"><ele>218.0</ele></trkpt>
<trkpt lat="40.667749" lon="-89.008696"><ele>218.8</ele></trkpt>
<trkpt lat="40.668247" lon="-89.009339"><ele>219.7</ele></trkpt>
<trkpt lat="40.669183" lon="-89.010613"><ele>220.6</ele></trkpt>
<trkpt lat="40.669606" lon="-89.011244"><ele>221.0</ele></trkpt>
<trkpt lat="40.669960" lon="-89.011856"><ele>221.5</ele></trkpt>
<trkpt lat="40.670463" lon="-89.012848"><ele>222.2</ele></trkpt>
<trkpt lat="40.670970" lon="-89.013905"><ele>222.8</ele></trkpt>
<trkpt lat="40.671847" lon="-89.015785"><ele>223.9</ele></trkpt>
<trkpt lat="40.675602" lon="-89.023933"><ele>227.0</ele></trkpt>
<trkpt lat="40.676709" lon="-89.025735"><ele>227.8</ele></trkpt>
<trkpt lat="40.677604" lon="-89.026808"><ele>227.9</ele></trkpt>
<trkpt lat="40.678857" lon="-89.027731"><ele>227.8</ele></trkpt>
<trkpt lat="40.679817" lon="-89.028225"><ele>227.8</ele></trkpt>
<trkpt lat="40.680924" lon="-89.028546"><ele>228.1</ele></trkpt>
<trkpt lat="40.682095" lon="-89.028697"><ele>228.7</ele></trkpt>
<trkpt lat="40.707642" lon="-89.029235"><ele>221.3</ele></trkpt>
<trkpt lat="40.709264" lon="-89.029405"><ele>221.8</ele></trkpt>
<trkpt lat="40.710075" lon="-89.029741"><ele>221.9</ele></trkpt>
<trkpt lat="40.710725" lon="-89.030084"><ele>222.0</ele></trkpt>
<trkpt lat="40.711802" lon="-89.030757"><ele>222.0</ele></trkpt>
<trkpt lat="40.713575" lon="-89.032409"><ele>222.1</ele></trkpt>
<trkpt lat="40.714390" lon="-89.032973"><ele>222.7</ele></trkpt>
<trkpt lat="40.714796" lon="-89.033194"><ele>223.0</ele></trkpt>
<trkpt lat="40.715018" lon="-89.033303"><ele>223.1</ele></trkpt>
<trkpt lat="40.715612" lon="-89.033567"><ele>223.3</ele></trkpt>
<trkpt lat="40.716154" lon="-89.033740"><ele>223.3</ele></trkpt>
<trkpt lat="40.716383" lon="-89.033794"><ele>223.3</ele></trkpt>
<trkpt lat="40.716882" lon="-89.033878"><ele>223.2</ele></trkpt>
<trkpt lat="40.717714" lon="-89.033943"><ele>222.8</ele></trkpt>
<trkpt lat="40.717882" lon="-89.033938"><ele>222.7</ele></trkpt>
<trkpt lat="40.721658" lon="-89.033985"><ele>221.8</ele></trkpt>
<trkpt lat="40.730972" lon="-89.034169"><ele>226.5</ele></trkpt>
<trkpt lat="40.731792" lon="-89.034213"><ele>228.6</ele></trkpt>
<trkpt lat="40.736409" lon="-89.034348"><ele>238.8</ele></trkpt>
<trkpt lat="40.736619" lon="-89.034339"><ele>234.2</ele></trkpt>
<trkpt lat="40.737859" lon="-89.034386"><ele>239.2</ele></trkpt>
<trkpt lat="40.749542" lon="-89.034565"><ele>223.1</ele></trkpt>
<trkpt lat="40.756532" lon="-89.034329"><ele>219.9</ele></trkpt>
<trkpt lat="40.763895" lon="-89.034507"><ele>212.2</ele></trkpt>
<trkpt lat="40.786968" lon="-89.035102"><ele>221.3</ele></trkpt>
<trkpt lat="40.799969" lon="-89.035401"><ele>210.5</ele></trkpt>
<trkpt lat="40.810262" lon="-89.035638"><ele>217.4</ele></trkpt>
<trkpt lat="40.849178" lon="-89.036158"><ele>221.0</ele></trkpt>
<trkpt lat="40.850471" lon="-89.035836"><ele>221.2</ele></trkpt>
<trkpt lat="40.852009" lon="-89.035100"><ele>224.9</ele></trkpt>
<trkpt lat="40.852831" lon="-89.034707"><ele>226.8</ele></trkpt>
<trkpt lat="40.853065" lon="-89.034654"><ele>227.6</ele></trkpt>
<trkpt lat="40.853122" lon="-89.031155"><ele>222.0</ele></trkpt>
<trkpt lat="40.853210" lon="-89.030397"><ele>220.9</ele></trkpt>
<trkpt lat="40.853227" lon="-89.029438"><ele>221.3</ele></trkpt>
<trkpt lat="40.853132" lon="-89.029199"><ele>221.9</ele></trkpt>
<trkpt lat="40.853023" lon="-89.028995"><ele>222.5</ele></trkpt>
<trkpt lat="40.852990" lon="-89.028963"><ele>222.6</ele></trkpt>
<trkpt lat="40.852904" lon="-89.028912"><ele>222.4</ele></trkpt>
<trkpt lat="40.851764" lon="-89.028756"><ele>221.9</ele></trkpt>
<trkpt lat="40.850972" lon="-89.028622"><ele>221.7</ele></trkpt>
<trkpt lat="40.850396" lon="-89.028457"><ele>221.6</ele></trkpt>
<trkpt lat="40.846579" lon="-89.028022"><ele>220.0</ele></trkpt>
<trkpt lat="40.845621" lon="-89.027933"><ele>219.8</ele></trkpt>
<trkpt lat="40.838718" lon="-89.027193"><ele>218.9</ele></trkpt>
<trkpt lat="40.833867" lon="-89.026689"><ele>215.0</ele></trkpt>
<trkpt lat="40.832516" lon="-89.026603"><ele>215.0</ele></trkpt>
<trkpt lat="40.831114" lon="-89.026567"><ele>214.9</ele></trkpt>
<trkpt lat="40.824192" lon="-89.026440"><ele>214.0</ele></trkpt>
<trkpt lat="40.816196" lon="-89.026270"><ele>216.2</ele></trkpt>
<trkpt lat="40.809609" lon="-89.026151"><ele>215.0</ele></trkpt>
<trkpt lat="40.804390" lon="-89.026025"><ele>209.1</ele></trkpt>
<trkpt lat="40.803862" lon="-89.026013"><ele>209.9</ele></trkpt>
<trkpt lat="40.802912" lon="-89.025979"><ele>211.0</ele></trkpt>
<trkpt lat="40.786153" lon="-89.025578"><ele>223.3</ele></trkpt>
<trkpt lat="40.780613" lon="-89.025420"><ele>219.0</ele></trkpt>
<trkpt lat="40.775733" lon="-89.025255"><ele>216.0</ele></trkpt>
<trkpt lat="40.766074" lon="-89.025019"><ele>217.0</ele></trkpt>
<trkpt lat="40.758789" lon="-89.024825"><ele>214.8</ele></trkpt>
<trkpt lat="40.756032" lon="-89.024742"><ele>219.4</ele></trkpt>
<trkpt lat="40.754466" lon="-89.024711"><ele>221.4</ele></trkpt>
<trkpt lat="40.753430" lon="-89.024722"><ele>222.5</ele></trkpt>
<trkpt lat="40.751522" lon="-89.024861"><ele>223.0</ele></trkpt>
<trkpt lat="40.749867" lon="-89.025005"><ele>222.6</ele></trkpt>
<trkpt lat="40.747905" lon="-89.025023"><ele>223.6</ele></trkpt>
<trkpt lat="40.746523" lon="-89.025001"><ele>224.3</ele></trkpt>
<trkpt lat="40.743445" lon="-89.024946"><ele>226.0</ele></trkpt>
<trkpt lat="40.740859" lon="-89.024899"><ele>228.0</ele></trkpt>
<trkpt lat="40.737052" lon="-89.024829"><ele>231.2</ele></trkpt>
<trkpt lat="40.736967" lon="-89.029891"><ele>231.2</ele></trkpt>
<trkpt lat="40.737006" lon="-89.030126"><ele>231.4</ele></trkpt>
<trkpt lat="40.736998" lon="-89.030669"><ele>231.4</ele></trkpt>
<trkpt lat="40.736945" lon="-89.031164"><ele>231.2</ele></trkpt>
<trkpt lat="40.736928" lon="-89.031985"><ele>231.1</ele></trkpt>
<trkpt lat="40.736900" lon="-89.032103"><ele>231.0</ele></trkpt>
<trkpt lat="40.736943" lon="-89.032221"><ele>231.2</ele></trkpt>
<trkpt lat="40.736969" lon="-89.032386"><ele>231.3</ele></trkpt>
<trkpt lat="40.736899" lon="-89.035786"><ele>231.0</ele></trkpt>
<trkpt lat="40.736860" lon="-89.035948"><ele>231.0</ele></trkpt>
<trkpt lat="40.736839" lon="-89.036378"><ele>231.0</ele></trkpt>
<trkpt lat="40.736820" lon="-89.037183"><ele>230.9</ele></trkpt>
<trkpt lat="40.736801" lon="-89.037226"><ele>230.9</ele></trkpt>
<trkpt lat="40.736767" lon="-89.037263"><ele>230.8</ele></trkpt>
<trkpt lat="40.736672" lon="-89.037326"><ele>230.9</ele></trkpt>
<trkpt lat="40.736634" lon="-89.037341"><ele>230.9</ele></trkpt>
<trkpt lat="40.736533" lon="-89.037358"><ele>230.6</ele></trkpt>
<trkpt lat="40.734739" lon="-89.037311"><ele>229.4</ele></trkpt>
<trkpt lat="40.734457" lon="-89.037279"><ele>229.5</ele></trkpt>
<trkpt lat="40.734242" lon="-89.037197"><ele>229.4</ele></trkpt>
<trkpt lat="40.734046" lon="-89.037071"><ele>229.4</ele></trkpt>
<trkpt lat="40.733951" lon="-89.036993"><ele>229.4</ele></trkpt>
<trkpt lat="40.733852" lon="-89.036885"><ele>229.3</ele></trkpt>
<trkpt lat="40.733761" lon="-89.036771"><ele>229.3</ele></trkpt>
<trkpt lat="40.733546" lon="-89.036400"><ele>229.2</ele></trkpt>
<trkpt lat="40.733331" lon="-89.035995"><ele>229.3</ele></trkpt>
<trkpt lat="40.733080" lon="-89.035584"><ele>229.2</ele></trkpt>
<trkpt lat="40.732974" lon="-89.035449"><ele>229.2</ele></trkpt>
<trkpt lat="40.732656" lon="-89.035088"><ele>229.3</ele></trkpt>
<trkpt lat="40.732524" lon="-89.034972"><ele>229.2</ele></trkpt>
<trkpt lat="40.732236" lon="-89.034818"><ele>229.0</ele></trkpt>
<trkpt lat="40.732118" lon="-89.034772"><ele>228.9</ele></trkpt>
<trkpt lat="40.731775" lon="-89.034653"><ele>228.4</ele></trkpt>
<trkpt lat="40.731567" lon="-89.034609"><ele>228.0</ele></trkpt>
<trkpt lat="40.731353" lon="-89.034577"><ele>227.5</ele></trkpt>
<trkpt lat="40.730688" lon="-89.034551"><ele>226.2</ele></trkpt>
<trkpt lat="40.730017" lon="-89.034441"><ele>225.1</ele></trkpt>
<trkpt lat="40.728292" lon="-89.034404"><ele>223.7</ele></trkpt>
<trkpt lat="40.721645" lon="-89.034294"><ele>222.0</ele></trkpt>
<trkpt lat="40.717507" lon="-89.034196"><ele>223.1</ele></trkpt>
<trkpt lat="40.716874" lon="-89.034156"><ele>223.6</ele></trkpt>
<trkpt lat="40.716534" lon="-89.034102"><ele>223.8</ele></trkpt>
<trkpt lat="40.716311" lon="-89.034054"><ele>223.9</ele></trkpt>
<trkpt lat="40.715734" lon="-89.033900"><ele>223.9</ele></trkpt>
<trkpt lat="40.715396" lon="-89.033783"><ele>223.8</ele></trkpt>
<trkpt lat="40.715048" lon="-89.033633"><ele>223.6</ele></trkpt>
<trkpt lat="40.714621" lon="-89.033417"><ele>223.2</ele></trkpt>
<trkpt lat="40.714250" lon="-89.033185"><ele>222.9</ele></trkpt>
<trkpt lat="40.713842" lon="-89.032911"><ele>222.6</ele></trkpt>
<trkpt lat="40.713119" lon="-89.032323"><ele>222.1</ele></trkpt>
<trkpt lat="40.711867" lon="-89.031164"><ele>221.4</ele></trkpt>
<trkpt lat="40.710677" lon="-89.030374"><ele>221.6</ele></trkpt>
<trkpt lat="40.709945" lon="-89.030030"><ele>221.6</ele></trkpt>
<trkpt lat="40.709508" lon="-89.029855"><ele>221.5</ele></trkpt>
<trkpt lat="40.708370" lon="-89.029619"><ele>221.2</ele></trkpt>
<trkpt lat="40.707069" lon="-89.029555"><ele>221.3</ele></trkpt>
<trkpt lat="40.692737" lon="-89.029212"><ele>224.7</ele></trkpt>
<trkpt lat="40.682356" lon="-89.028976"><ele>228.8</ele></trkpt>
<trkpt lat="40.681135" lon="-89.028911"><ele>228.7</ele></trkpt>
<trkpt lat="40.680126" lon="-89.028675"><ele>228.1</ele></trkpt>
<trkpt lat="40.679134" lon="-89.028246"><ele>228.3</ele></trkpt>
<trkpt lat="40.678174" lon="-89.027602"><ele>227.7</ele></trkpt>
<trkpt lat="40.677262" lon="-89.026744"><ele>227.7</ele></trkpt>
<trkpt lat="40.676237" lon="-89.025478"><ele>227.8</ele></trkpt>
<trkpt lat="40.675423" lon="-89.024040"><ele>226.8</ele></trkpt>
<trkpt lat="40.673340" lon="-89.019577"><ele>225.8</ele></trkpt>
<trkpt lat="40.671617" lon="-89.015924"><ele>223.2</ele></trkpt>
<trkpt lat="40.670359" lon="-89.013165"><ele>222.3</ele></trkpt>
<trkpt lat="40.669908" lon="-89.012196"><ele>221.3</ele></trkpt>
<trkpt lat="40.669592" lon="-89.011584"><ele>220.9</ele></trkpt>
<trkpt lat="40.669362" lon="-89.011183"><ele>220.9</ele></trkpt>
<trkpt lat="40.668941" lon="-89.010522"><ele>220.8</ele></trkpt>
<trkpt lat="40.668268" lon="-89.009584"><ele>219.3</ele></trkpt>
<trkpt lat="40.667574" lon="-89.008705"><ele>218.3</ele></trkpt>
<trkpt lat="40.666876" lon="-89.007964"><ele>217.6</ele></trkpt>
<trkpt lat="40.666418" lon="-89.007538"><ele>217.0</ele></trkpt>
<trkpt lat="40.665967" lon="-89.007148"><ele>216.5</ele></trkpt>
<trkpt lat="40.665493" lon="-89.006773"><ele>215.9</ele></trkpt>
<trkpt lat="40.664996" lon="-89.006435"><ele>215.4</ele></trkpt>
<trkpt lat="40.664515" lon="-89.006133"><ele>214.3</ele></trkpt>
<trkpt lat="40.664183" lon="-89.005958"><ele>212.8</ele></trkpt>
<trkpt lat="40.663531" lon="-89.005649"><ele>211.9</ele></trkpt>
<trkpt lat="40.662762" lon="-89.005336"><ele>210.8</ele></trkpt>
<trkpt lat="40.662125" lon="-89.005113"><ele>212.6</ele></trkpt>
<trkpt lat="40.661374" lon="-89.004974"><ele>213.5</ele></trkpt>
<trkpt lat="40.660840" lon="-89.004897"><ele>214.3</ele></trkpt>
<trkpt lat="40.659573" lon="-89.004825"><ele>216.8</ele></trkpt>
<trkpt lat="40.655202" lon="-89.004719"><ele>222.0</ele></trkpt>
<trkpt lat="40.652724" lon="-89.004670"><ele>223.9</ele></trkpt>
<trkpt lat="40.649238" lon="-89.004635"><ele>227.2</ele></trkpt>
<trkpt lat="40.646320" lon="-89.004572"><ele>229.0</ele></trkpt>
<trkpt lat="40.643273" lon="-89.004494"><ele>230.0</ele></trkpt>
<trkpt lat="40.642460" lon="-89.004425"><ele>230.2</ele></trkpt>
<trkpt lat="40.640895" lon="-89.004221"><ele>231.0</ele></trkpt>
<trkpt lat="40.640346" lon="-89.004160"><ele>231.2</ele></trkpt>
<trkpt lat="40.639676" lon="-89.004115"><ele>231.7</ele></trkpt>
<trkpt lat="40.625643" lon="-89.003644"><ele>227.0</ele></trkpt>
<trkpt lat="40.624662" lon="-89.003622"><ele>226.1</ele></trkpt>
<trkpt lat="40.620007" lon="-89.003448"><ele>228.9</ele></trkpt>
<trkpt lat="40.619618" lon="-89.003401"><ele>229.5</ele></trkpt>
<trkpt lat="40.619338" lon="-89.003354"><ele>229.9</ele></trkpt>
<trkpt lat="40.618670" lon="-89.003204"><ele>230.7</ele></trkpt>
<trkpt lat="40.618304" lon="-89.003098"><ele>231.1</ele></trkpt>
<trkpt lat="40.617892" lon="-89.002957"><ele>231.2</ele></trkpt>
<trkpt lat="40.617536" lon="-89.002819"><ele>231.2</ele></trkpt>
<trkpt lat="40.616671" lon="-89.002432"><ele>230.9</ele></trkpt>
<trkpt lat="40.615868" lon="-89.002056"><ele>230.2</ele></trkpt>
<trkpt lat="40.613491" lon="-89.000974"><ele>228.1</ele></trkpt>
<trkpt lat="40.612003" lon="-89.000307"><ele>227.0</ele></trkpt>
<trkpt lat="40.610610" lon="-88.999653"><ele>226.8</ele></trkpt>
<trkpt lat="40.610272" lon="-88.999504"><ele>226.9</ele></trkpt>
<trkpt lat="40.609690" lon="-88.999299"><ele>227.1</ele></trkpt>
<trkpt lat="40.609103" lon="-88.999128"><ele>227.6</ele></trkpt>
<trkpt lat="40.608455" lon="-88.999042"><ele>228.7</ele></trkpt>
<trkpt lat="40.607970" lon="-88.998992"><ele>229.6</ele></trkpt>
<trkpt lat="40.607318" lon="-88.999022"><ele>230.5</ele></trkpt>
<trkpt lat="40.606802" lon="-88.999094"><ele>230.4</ele></trkpt>
<trkpt lat="40.606612" lon="-88.999136"><ele>229.4</ele></trkpt>
<trkpt lat="40.606152" lon="-88.999277"><ele>229.7</ele></trkpt>
<trkpt lat="40.605505" lon="-88.999443"><ele>231.9</ele></trkpt>
<trkpt lat="40.601607" lon="-89.000655"><ele>234.1</ele></trkpt>
<trkpt lat="40.600481" lon="-89.000993"><ele>233.8</ele></trkpt>
<trkpt lat="40.596150" lon="-89.002349"><ele>229.8</ele></trkpt>
<trkpt lat="40.595666" lon="-89.002484"><ele>228.9</ele></trkpt>
<trkpt lat="40.595035" lon="-89.002618"><ele>230.4</ele></trkpt>
<trkpt lat="40.594571" lon="-89.002703"><ele>231.1</ele></trkpt>
<trkpt lat="40.593317" lon="-89.002869"><ele>231.3</ele></trkpt>
<trkpt lat="40.592565" lon="-89.002925"><ele>230.4</ele></trkpt>
<trkpt lat="40.592278" lon="-89.002933"><ele>229.7</ele></trkpt>
<trkpt lat="40.589226" lon="-89.002921"><ele>234.8</ele></trkpt>
<trkpt lat="40.588306" lon="-89.002930"><ele>236.7</ele></trkpt>
<trkpt lat="40.587598" lon="-89.002920"><ele>238.4</ele></trkpt>
<trkpt lat="40.582112" lon="-89.002921"><ele>244.0</ele></trkpt>
<trkpt lat="40.580608" lon="-89.002907"><ele>243.5</ele></trkpt>
<trkpt lat="40.578319" lon="-89.002907"><ele>241.1</ele></trkpt>
<trkpt lat="40.575180" lon="-89.002925"><ele>239.4</ele></trkpt>
<trkpt lat="40.573756" lon="-89.002906"><ele>240.2</ele></trkpt>
<trkpt lat="40.571593" lon="-89.002898"><ele>243.7</ele></trkpt>
<trkpt lat="40.566193" lon="-89.002773"><ele>251.0</ele></trkpt>
<trkpt lat="40.565930" lon="-89.002837"><ele>251.2</ele></trkpt>
<trkpt lat="40.564405" lon="-89.002893"><ele>253.0</ele></trkpt>
<trkpt lat="40.564073" lon="-89.002933"><ele>253.0</ele></trkpt>
<trkpt lat="40.563848" lon="-89.002997"><ele>253.1</ele></trkpt>
<trkpt lat="40.563593" lon="-89.003100"><ele>253.3</ele></trkpt>
<trkpt lat="40.563372" lon="-89.003226"><ele>253.6</ele></trkpt>
<trkpt lat="40.562787" lon="-89.003667"><ele>255.1</ele></trkpt>
<trkpt lat="40.562579" lon="-89.003808"><ele>255.7</ele></trkpt>
<trkpt lat="40.562406" lon="-89.003889"><ele>256.2</ele></trkpt>
<trkpt lat="40.562227" lon="-89.003939"><ele>256.7</ele></trkpt>
<trkpt lat="40.561603" lon="-89.003970"><ele>258.5</ele></trkpt>
<trkpt lat="40.561339" lon="-89.003937"><ele>259.0</ele></trkpt>
<trkpt lat="40.561273" lon="-89.003845"><ele>259.0</ele></trkpt>
<trkpt lat="40.561232" lon="-89.003680"><ele>258.9</ele></trkpt>
<trkpt lat="40.561247" lon="-89.002917"><ele>257.4</ele></trkpt>
<trkpt lat="40.561260" lon="-89.002015"><ele>257.3</ele></trkpt>
<trkpt lat="40.561271" lon="-89.001129"><ele>259.0</ele></trkpt>
<trkpt lat="40.561262" lon="-89.000093"><ele>256.6</ele></trkpt>
<trkpt lat="40.561248" lon="-88.999871"><ele>256.2</ele></trkpt>
<trkpt lat="40.561177" lon="-88.999475"><ele>255.4</ele></trkpt>
<trkpt lat="40.561114" lon="-88.999251"><ele>255.0</ele></trkpt>
<trkpt lat="40.560998" lon="-88.998932"><ele>254.2</ele></trkpt>
<trkpt lat="40.560851" lon="-88.998661"><ele>253.5</ele></trkpt>
<trkpt lat="40.560714" lon="-88.998446"><ele>253.1</ele></trkpt>
<trkpt lat="40.560593" lon="-88.998290"><ele>253.1</ele></trkpt>
<trkpt lat="40.560430" lon="-88.998109"><ele>253.0</ele></trkpt>
<trkpt lat="40.560319" lon="-88.997935"><ele>253.0</ele></trkpt>
<trkpt lat="40.560163" lon="-88.997814"><ele>253.0</ele></trkpt>
<trkpt lat="40.560021" lon="-88.997730"><ele>253.0</ele></trkpt>
<trkpt lat="40.559840" lon="-88.997647"><ele>252.9</ele></trkpt>
<trkpt lat="40.559646" lon="-88.997581"><ele>252.9</ele></trkpt>
<trkpt lat="40.559352" lon="-88.997534"><ele>252.6</ele></trkpt>
<trkpt lat="40.549600" lon="-88.996879"><ele>264.6</ele></trkpt>
<trkpt lat="40.547995" lon="-88.996785"><ele>266.0</ele></trkpt>
<trkpt lat="40.547826" lon="-88.996849"><ele>266.0</ele></trkpt>
<trkpt lat="40.546434" lon="-88.996752"><ele>267.0</ele></trkpt>
<trkpt lat="40.544268" lon="-88.996551"><ele>265.7</ele></trkpt>
<trkpt lat="40.543714" lon="-88.996516"><ele>265.3</ele></trkpt>
<trkpt lat="40.536884" lon="-88.996073"><ele>256.9</ele></trkpt>
<trkpt lat="40.533628" lon="-88.995873"><ele>255.0</ele></trkpt>
<trkpt lat="40.532188" lon="-88.995777"><ele>254.0</ele></trkpt>
<trkpt lat="40.531662" lon="-88.995752"><ele>254.0</ele></trkpt>
<trkpt lat="40.531567" lon="-88.995669"><ele>254.0</ele></trkpt>
<trkpt lat="40.524753" lon="-88.995345"><ele>252.1</ele></trkpt>
<trkpt lat="40.523848" lon="-88.995331"><ele>251.6</ele></trkpt>
<trkpt lat="40.522666" lon="-88.995294"><ele>249.7</ele></trkpt>
<trkpt lat="40.522494" lon="-88.995378"><ele>249.4</ele></trkpt>
<trkpt lat="40.520885" lon="-88.995310"><ele>247.8</ele></trkpt>
<trkpt lat="40.519373" lon="-88.995204"><ele>247.8</ele></trkpt>
<trkpt lat="40.516873" lon="-88.995145"><ele>247.0</ele></trkpt>
<trkpt lat="40.516319" lon="-88.995146"><ele>247.0</ele></trkpt>
<trkpt lat="40.516217" lon="-88.995247"><ele>246.6</ele></trkpt>
<trkpt lat="40.516166" lon="-88.995420"><ele>245.9</ele></trkpt>
<trkpt lat="40.516225" lon="-88.995757"><ele>244.5</ele></trkpt>
<trkpt lat="40.516249" lon="-88.995964"><ele>243.4</ele></trkpt>
<trkpt lat="40.516257" lon="-88.996155"><ele>242.5</ele></trkpt>
<trkpt lat="40.516176" lon="-88.999918"><ele>245.7</ele></trkpt>
<trkpt lat="40.516183" lon="-89.000036"><ele>245.9</ele></trkpt>
<trkpt lat="40.516205" lon="-89.000175"><ele>246.0</ele></trkpt>
<trkpt lat="40.516252" lon="-89.000319"><ele>246.0</ele></trkpt>
<trkpt lat="40.516303" lon="-89.000440"><ele>246.3</ele></trkpt>
<trkpt lat="40.516352" lon="-89.000532"><ele>246.5</ele></trkpt>
<trkpt lat="40.516485" lon="-89.000688"><ele>246.7</ele></trkpt>
<trkpt lat="40.516938" lon="-89.001172"><ele>247.0</ele></trkpt>
<trkpt lat="40.517028" lon="-89.001300"><ele>247.0</ele></trkpt>
<trkpt lat="40.517113" lon="-89.001489"><ele>247.1</ele></trkpt>
<trkpt lat="40.517135" lon="-89.001702"><ele>247.2</ele></trkpt>
<trkpt lat="40.514648" lon="-89.001636"><ele>239.7</ele></trkpt>
<trkpt lat="40.513770" lon="-89.001607"><ele>239.0</ele></trkpt>
<trkpt lat="40.512905" lon="-89.001585"><ele>237.1</ele></trkpt>
<trkpt lat="40.512925" lon="-89.000687"><ele>239.0</ele></trkpt>
<trkpt lat="40.512931" lon="-89.000687"><ele>239.0</ele></trkpt>
</trkseg></trk>
</gpx>