<?xml version="1.0" encoding="UTF-8" standalone="no" ?><gpx xmlns="http://www.topografix.com/GPX/1/1" xmlns:xsi="http://www.w3.org/2001/XMLSchema-instance" creator="GraphHopper" version="1.1" xmlns:gh="https://graphhopper.com/public/schema/gpx/1.1">
<metadata><copyright author="OpenStreetMap contributors"/><link href="http://graphhopper.com"><text>GraphHopper GPX</text></link><time>2026-05-27T15:39:11.405Z</time></metadata>
<trk>
<name>GraphHopper Track</name><desc></desc>
<trkseg><trkpt lat="37.950446" lon="-91.778264"><ele>332.9</ele></trkpt>
<trkpt lat="37.950453" lon="-91.778085"><ele>332.8</ele></trkpt>
<trkpt lat="37.950591" lon="-91.777767"><ele>333.0</ele></trkpt>
<trkpt lat="37.950631" lon="-91.777292"><ele>333.1</ele></trkpt>
<trkpt lat="37.950631" lon="-91.777176"><ele>333.1</ele></trkpt>
<trkpt lat="37.949996" lon="-91.777205"><ele>332.3</ele></trkpt>
<trkpt lat="37.948469" lon="-91.777310"><ele>330.7</ele></trkpt>
<trkpt lat="37.948360" lon="-91.777397"><ele>330.6</ele></trkpt>
<trkpt lat="37.947478" lon="-91.777454"><ele>329.6</ele></trkpt>
<trkpt lat="37.947055" lon="-91.777471"><ele>329.1</ele></trkpt>
<trkpt lat="37.946800" lon="-91.777479"><ele>328.3</ele></trkpt>
<trkpt lat="37.945598" lon="-91.777452"><ele>326.6</ele></trkpt>
<trkpt lat="37.945529" lon="-91.777378"><ele>326.2</ele></trkpt>
<trkpt lat="37.944506" lon="-91.777363"><ele>328.6</ele></trkpt>
<trkpt lat="37.944202" lon="-91.777360"><ele>329.5</ele></trkpt>
<trkpt lat="37.942804" lon="-91.777282"><ele>337.5</ele></trkpt>
<trkpt lat="37.942406" lon="-91.777281"><ele>337.0</ele></trkpt>
<trkpt lat="37.942113" lon="-91.777295"><ele>336.9</ele></trkpt>
<trkpt lat="37.941545" lon="-91.777299"><ele>335.0</ele></trkpt>
<trkpt lat="37.940482" lon="-91.777298"><ele>331.2</ele></trkpt>
<trkpt lat="37.938551" lon="-91.777332"><ele>340.8</ele></trkpt>
<trkpt lat="37.936902" lon="-91.777406"><ele>348.1</ele></trkpt>
<trkpt lat="37.935021" lon="-91.777746"><ele>355.9</ele></trkpt>
<trkpt lat="37.932502" lon="-91.778289"><ele>358.4</ele></trkpt>
<trkpt lat="37.930560" lon="-91.778747"><ele>347.1</ele></trkpt>
<trkpt lat="37.928008" lon="-91.779304"><ele>337.4</ele></trkpt>
<trkpt lat="37.927720" lon="-91.779359"><ele>336.6</ele></trkpt>
<trkpt lat="37.926058" lon="-91.779727"><ele>337.4</ele></trkpt>
<trkpt lat="37.923485" lon="-91.780262"><ele>335.3</ele></trkpt>
<trkpt lat="37.923053" lon="-91.780307"><ele>335.1</ele></trkpt>
<trkpt lat="37.922597" lon="-91.780299"><ele>335.0</ele></trkpt>
<trkpt lat="37.922388" lon="-91.780280"><ele>335.0</ele></trkpt>
<trkpt lat="37.921814" lon="-91.780260"><ele>336.6</ele></trkpt>
<trkpt lat="37.921189" lon="-91.780163"><ele>339.4</ele></trkpt>
<trkpt lat="37.920714" lon="-91.780041"><ele>340.6</ele></trkpt>
<trkpt lat="37.920276" lon="-91.779916"><ele>340.8</ele></trkpt>
<trkpt lat="37.919736" lon="-91.779710"><ele>341.7</ele></trkpt>
<trkpt lat="37.919447" lon="-91.779579"><ele>341.9</ele></trkpt>
<trkpt lat="37.918838" lon="-91.779275"><ele>341.4</ele></trkpt>
<trkpt lat="37.918287" lon="-91.778942"><ele>340.7</ele></trkpt>
<trkpt lat="37.917748" lon="-91.778581"><ele>340.4</ele></trkpt>
<trkpt lat="37.916222" lon="-91.777553"><ele>337.3</ele></trkpt>
<trkpt lat="37.915643" lon="-91.777185"><ele>335.4</ele></trkpt>
<trkpt lat="37.915544" lon="-91.777123"><ele>334.9</ele></trkpt>
<trkpt lat="37.915175" lon="-91.776937"><ele>333.6</ele></trkpt>
<trkpt lat="37.910864" lon="-91.775473"><ele>335.2</ele></trkpt>
<trkpt lat="37.909736" lon="-91.775096"><ele>337.1</ele></trkpt>
<trkpt lat="37.908332" lon="-91.774648"><ele>339.0</ele></trkpt>
<trkpt lat="37.908084" lon="-91.774601"><ele>339.2</ele></trkpt>
<trkpt lat="37.907186" lon="-91.774552"><ele>339.3</ele></trkpt>
<trkpt lat="37.906981" lon="-91.774592"><ele>338.4</ele></trkpt>
<trkpt lat="37.906512" lon="-91.774762"><ele>336.5</ele></trkpt>
<trkpt lat="37.906296" lon="-91.774880"><ele>335.8</ele></trkpt>
<trkpt lat="37.905772" lon="-91.775168"><ele>331.6</ele></trkpt>
<trkpt lat="37.905174" lon="-91.775610"><ele>327.2</ele></trkpt>
<trkpt lat="37.903829" lon="-91.777712"><ele>330.6</ele></trkpt>
<trkpt lat="37.903280" lon="-91.778759"><ele>328.5</ele></trkpt>
<trkpt lat="37.902562" lon="-91.780010"><ele>328.1</ele></trkpt>
<trkpt lat="37.901175" lon="-91.782354"><ele>321.8</ele></trkpt>
<trkpt lat="37.900927" lon="-91.782727"><ele>322.9</ele></trkpt>
<trkpt lat="37.900474" lon="-91.783261"><ele>323.7</ele></trkpt>
<trkpt lat="37.899949" lon="-91.783731"><ele>325.4</ele></trkpt>
<trkpt lat="37.899413" lon="-91.784087"><ele>327.4</ele></trkpt>
<trkpt lat="37.898625" lon="-91.784355"><ele>329.3</ele></trkpt>
<trkpt lat="37.897923" lon="-91.784404"><ele>330.9</ele></trkpt>
<trkpt lat="37.897142" lon="-91.784279"><ele>329.9</ele></trkpt>
<trkpt lat="37.895047" lon="-91.783578"><ele>317.4</ele></trkpt>
<trkpt lat="37.892714" lon="-91.782734"><ele>303.8</ele></trkpt>
<trkpt lat="37.892318" lon="-91.782682"><ele>300.7</ele></trkpt>
<trkpt lat="37.891920" lon="-91.782660"><ele>297.5</ele></trkpt>
<trkpt lat="37.891446" lon="-91.782709"><ele>294.7</ele></trkpt>
<trkpt lat="37.890997" lon="-91.782810"><ele>293.1</ele></trkpt>
<trkpt lat="37.890461" lon="-91.783018"><ele>292.4</ele></trkpt>
<trkpt lat="37.889912" lon="-91.783375"><ele>291.4</ele></trkpt>
<trkpt lat="37.889572" lon="-91.783695"><ele>290.1</ele></trkpt>
<trkpt lat="37.889154" lon="-91.784183"><ele>289.5</ele></trkpt>
<trkpt lat="37.887648" lon="-91.786001"><ele>285.9</ele></trkpt>
<trkpt lat="37.887271" lon="-91.786467"><ele>284.2</ele></trkpt>
<trkpt lat="37.886938" lon="-91.786950"><ele>282.4</ele></trkpt>
<trkpt lat="37.886656" lon="-91.787462"><ele>280.9</ele></trkpt>
<trkpt lat="37.885762" lon="-91.789233"><ele>276.5</ele></trkpt>
<trkpt lat="37.885583" lon="-91.789500"><ele>275.3</ele></trkpt>
<trkpt lat="37.885286" lon="-91.789972"><ele>273.4</ele></trkpt>
<trkpt lat="37.884888" lon="-91.790428"><ele>271.3</ele></trkpt>
<trkpt lat="37.883933" lon="-91.791414"><ele>266.3</ele></trkpt>
<trkpt lat="37.881246" lon="-91.794088"><ele>251.6</ele></trkpt>
<trkpt lat="37.880930" lon="-91.794350"><ele>250.8</ele></trkpt>
<trkpt lat="37.880625" lon="-91.794569"><ele>250.4</ele></trkpt>
<trkpt lat="37.880316" lon="-91.794725"><ele>250.4</ele></trkpt>
<trkpt lat="37.879930" lon="-91.794897"><ele>250.0</ele></trkpt>
<trkpt lat="37.879544" lon="-91.795026"><ele>250.3</ele></trkpt>
<trkpt lat="37.878889" lon="-91.795206"><ele>248.6</ele></trkpt>
<trkpt lat="37.878309" lon="-91.795331"><ele>250.6</ele></trkpt>
<trkpt lat="37.877623" lon="-91.795390"><ele>252.7</ele></trkpt>
<trkpt lat="37.877195" lon="-91.795342"><ele>254.1</ele></trkpt>
<trkpt lat="37.876737" lon="-91.795262"><ele>255.8</ele></trkpt>
<trkpt lat="37.876040" lon="-91.795017"><ele>257.8</ele></trkpt>
<trkpt lat="37.874440" lon="-91.794266"><ele>258.8</ele></trkpt>
<trkpt lat="37.873866" lon="-91.794049"><ele>260.1</ele></trkpt>
<trkpt lat="37.873191" lon="-91.793973"><ele>262.5</ele></trkpt>
<trkpt lat="37.872800" lon="-91.793990"><ele>263.7</ele></trkpt>
<trkpt lat="37.869676" lon="-91.794203"><ele>271.7</ele></trkpt>
<trkpt lat="37.866973" lon="-91.794451"><ele>281.4</ele></trkpt>
<trkpt lat="37.865961" lon="-91.794628"><ele>289.1</ele></trkpt>
<trkpt lat="37.865482" lon="-91.794768"><ele>293.1</ele></trkpt>
<trkpt lat="37.864187" lon="-91.795279"><ele>303.8</ele></trkpt>
<trkpt lat="37.863708" lon="-91.795524"><ele>308.5</ele></trkpt>
<trkpt lat="37.862691" lon="-91.796168"><ele>317.4</ele></trkpt>
<trkpt lat="37.861527" lon="-91.796941"><ele>319.9</ele></trkpt>
<trkpt lat="37.861201" lon="-91.797117"><ele>320.1</ele></trkpt>
<trkpt lat="37.860620" lon="-91.797327"><ele>320.9</ele></trkpt>
<trkpt lat="37.859004" lon="-91.797735"><ele>327.2</ele></trkpt>
<trkpt lat="37.856999" lon="-91.798212"><ele>319.1</ele></trkpt>
<trkpt lat="37.856375" lon="-91.798347"><ele>318.3</ele></trkpt>
<trkpt lat="37.855680" lon="-91.798411"><ele>317.9</ele></trkpt>
<trkpt lat="37.854914" lon="-91.798398"><ele>317.8</ele></trkpt>
<trkpt lat="37.851076" lon="-91.797773"><ele>320.7</ele></trkpt>
<trkpt lat="37.850180" lon="-91.797711"><ele>324.0</ele></trkpt>
<trkpt lat="37.849782" lon="-91.797722"><ele>325.4</ele></trkpt>
<trkpt lat="37.848941" lon="-91.797800"><ele>325.5</ele></trkpt>
<trkpt lat="37.848392" lon="-91.797906"><ele>325.3</ele></trkpt>
<trkpt lat="37.847841" lon="-91.798067"><ele>325.3</ele></trkpt>
<trkpt lat="37.846435" lon="-91.798630"><ele>326.5</ele></trkpt>
<trkpt lat="37.845656" lon="-91.798861"><ele>329.5</ele></trkpt>
<trkpt lat="37.845168" lon="-91.798963"><ele>331.0</ele></trkpt>
<trkpt lat="37.844669" lon="-91.798987"><ele>332.0</ele></trkpt>
<trkpt lat="37.843863" lon="-91.798910"><ele>333.8</ele></trkpt>
<trkpt lat="37.843319" lon="-91.798783"><ele>334.4</ele></trkpt>
<trkpt lat="37.842938" lon="-91.798635"><ele>334.8</ele></trkpt>
<trkpt lat="37.842448" lon="-91.798445"><ele>332.7</ele></trkpt>
<trkpt lat="37.840034" lon="-91.797366"><ele>318.0</ele></trkpt>
<trkpt lat="37.839601" lon="-91.797215"><ele>316.1</ele></trkpt>
<trkpt lat="37.839226" lon="-91.797114"><ele>315.4</ele></trkpt>
<trkpt lat="37.838623" lon="-91.796989"><ele>315.8</ele></trkpt>
<trkpt lat="37.838132" lon="-91.796935"><ele>316.2</ele></trkpt>
<trkpt lat="37.836933" lon="-91.796946"><ele>314.5</ele></trkpt>
<trkpt lat="37.835813" lon="-91.796969"><ele>314.0</ele></trkpt>
<trkpt lat="37.835732" lon="-91.796971"><ele>314.2</ele></trkpt>
<trkpt lat="37.834449" lon="-91.797007"><ele>321.6</ele></trkpt>
<trkpt lat="37.833988" lon="-91.797010"><ele>324.1</ele></trkpt>
<trkpt lat="37.833586" lon="-91.797064"><ele>326.0</ele></trkpt>
<trkpt lat="37.832211" lon="-91.797410"><ele>325.9</ele></trkpt>
<trkpt lat="37.831662" lon="-91.797482"><ele>323.1</ele></trkpt>
<trkpt lat="37.830251" lon="-91.797464"><ele>318.2</ele></trkpt>
<trkpt lat="37.829523" lon="-91.797525"><ele>317.8</ele></trkpt>
<trkpt lat="37.828897" lon="-91.797618"><ele>316.2</ele></trkpt>
<trkpt lat="37.825655" lon="-91.798439"><ele>308.2</ele></trkpt>
<trkpt lat="37.825082" lon="-91.798561"><ele>311.8</ele></trkpt>
<trkpt lat="37.824222" lon="-91.798668"><ele>317.9</ele></trkpt>
<trkpt lat="37.822208" lon="-91.798861"><ele>327.0</ele></trkpt>
<trkpt lat="37.818708" lon="-91.799156"><ele>350.4</ele></trkpt>
<trkpt lat="37.816224" lon="-91.799534"><ele>352.7</ele></trkpt>
<trkpt lat="37.813005" lon="-91.800175"><ele>341.2</ele></trkpt>
<trkpt lat="37.812229" lon="-91.800368"><ele>338.6</ele></trkpt>
<trkpt lat="37.811755" lon="-91.800567"><ele>336.5</ele></trkpt>
<trkpt lat="37.811255" lon="-91.800867"><ele>333.6</ele></trkpt>
<trkpt lat="37.810755" lon="-91.801329"><ele>330.3</ele></trkpt>
<trkpt lat="37.808386" lon="-91.804191"><ele>320.9</ele></trkpt>
<trkpt lat="37.806017" lon="-91.807054"><ele>331.6</ele></trkpt>
<trkpt lat="37.800547" lon="-91.813642"><ele>327.3</ele></trkpt>
<trkpt lat="37.799018" lon="-91.815512"><ele>325.4</ele></trkpt>
<trkpt lat="37.794182" lon="-91.821359"><ele>288.5</ele></trkpt>
<trkpt lat="37.793364" lon="-91.822373"><ele>278.3</ele></trkpt>
<trkpt lat="37.792356" lon="-91.823551"><ele>269.4</ele></trkpt>
<trkpt lat="37.791799" lon="-91.824471"><ele>264.9</ele></trkpt>
<trkpt lat="37.791600" lon="-91.824889"><ele>263.1</ele></trkpt>
<trkpt lat="37.791358" lon="-91.825565"><ele>260.7</ele></trkpt>
<trkpt lat="37.791189" lon="-91.826166"><ele>258.7</ele></trkpt>
<trkpt lat="37.791045" lon="-91.826820"><ele>255.8</ele></trkpt>
<trkpt lat="37.790895" lon="-91.827936"><ele>254.1</ele></trkpt>
<trkpt lat="37.790709" lon="-91.829171"><ele>254.8</ele></trkpt>
<trkpt lat="37.790404" lon="-91.831128"><ele>259.8</ele></trkpt>
<trkpt lat="37.789962" lon="-91.833899"><ele>269.6</ele></trkpt>
<trkpt lat="37.789938" lon="-91.834057"><ele>270.6</ele></trkpt>
<trkpt lat="37.789781" lon="-91.835092"><ele>278.2</ele></trkpt>
<trkpt lat="37.789519" lon="-91.836702"><ele>289.6</ele></trkpt>
<trkpt lat="37.789134" lon="-91.839159"><ele>303.2</ele></trkpt>
<trkpt lat="37.789040" lon="-91.839641"><ele>304.8</ele></trkpt>
<trkpt lat="37.788874" lon="-91.840247"><ele>307.2</ele></trkpt>
<trkpt lat="37.788607" lon="-91.840879"><ele>310.4</ele></trkpt>
<trkpt lat="37.788404" lon="-91.841294"><ele>311.8</ele></trkpt>
<trkpt lat="37.788121" lon="-91.841789"><ele>312.3</ele></trkpt>
<trkpt lat="37.787759" lon="-91.842275"><ele>312.8</ele></trkpt>
<trkpt lat="37.787369" lon="-91.842742"><ele>313.7</ele></trkpt>
<trkpt lat="37.786941" lon="-91.843166"><ele>314.3</ele></trkpt>
<trkpt lat="37.784865" lon="-91.844998"><ele>318.1</ele></trkpt>
<trkpt lat="37.782612" lon="-91.846926"><ele>320.7</ele></trkpt>
<trkpt lat="37.780425" lon="-91.848911"><ele>315.8</ele></trkpt>
<trkpt lat="37.778066" lon="-91.850931"><ele>315.0</ele></trkpt>
<trkpt lat="37.773653" lon="-91.854871"><ele>332.1</ele></trkpt>
<trkpt lat="37.771643" lon="-91.856620"><ele>341.5</ele></trkpt>
<trkpt lat="37.771105" lon="-91.857129"><ele>342.8</ele></trkpt>
<trkpt lat="37.770559" lon="-91.857507"><ele>344.7</ele></trkpt>
<trkpt lat="37.770142" lon="-91.857741"><ele>345.4</ele></trkpt>
<trkpt lat="37.769501" lon="-91.858039"><ele>345.6</ele></trkpt>
<trkpt lat="37.769057" lon="-91.858143"><ele>344.6</ele></trkpt>
<trkpt lat="37.768522" lon="-91.858229"><ele>342.6</ele></trkpt>
<trkpt lat="37.767763" lon="-91.858256"><ele>340.1</ele></trkpt>
<trkpt lat="37.762594" lon="-91.858288"><ele>335.5</ele></trkpt>
<trkpt lat="37.759235" lon="-91.858329"><ele>340.9</ele></trkpt>
<trkpt lat="37.751868" lon="-91.858471"><ele>345.6</ele></trkpt>
<trkpt lat="37.749914" lon="-91.858464"><ele>344.4</ele></trkpt>
<trkpt lat="37.748696" lon="-91.858433"><ele>343.3</ele></trkpt>
<trkpt lat="37.740843" lon="-91.858587"><ele>347.3</ele></trkpt>
<trkpt lat="37.736797" lon="-91.858613"><ele>350.7</ele></trkpt>
<trkpt lat="37.732186" lon="-91.858711"><ele>353.6</ele></trkpt>
<trkpt lat="37.729088" lon="-91.858750"><ele>357.3</ele></trkpt>
<trkpt lat="37.728503" lon="-91.858852"><ele>358.0</ele></trkpt>
<trkpt lat="37.727493" lon="-91.859209"><ele>358.7</ele></trkpt>
<trkpt lat="37.726114" lon="-91.859945"><ele>360.2</ele></trkpt>
<trkpt lat="37.724903" lon="-91.860838"><ele>360.7</ele></trkpt>
<trkpt lat="37.722488" lon="-91.862676"><ele>361.6</ele></trkpt>
<trkpt lat="37.718537" lon="-91.865642"><ele>364.5</ele></trkpt>
<trkpt lat="37.717308" lon="-91.866585"><ele>363.8</ele></trkpt>
<trkpt lat="37.716080" lon="-91.867527"><ele>362.6</ele></trkpt>
<trkpt lat="37.715357" lon="-91.868067"><ele>362.6</ele></trkpt>
<trkpt lat="37.714453" lon="-91.868502"><ele>363.4</ele></trkpt>
<trkpt lat="37.713639" lon="-91.868826"><ele>364.3</ele></trkpt>
<trkpt lat="37.712783" lon="-91.869043"><ele>364.0</ele></trkpt>
<trkpt lat="37.711745" lon="-91.869113"><ele>364.8</ele></trkpt>
<trkpt lat="37.709404" lon="-91.868995"><ele>366.1</ele></trkpt>
<trkpt lat="37.708313" lon="-91.868912"><ele>367.0</ele></trkpt>
<trkpt lat="37.702834" lon="-91.868661"><ele>364.8</ele></trkpt>
<trkpt lat="37.700689" lon="-91.868542"><ele>365.5</ele></trkpt>
<trkpt lat="37.696654" lon="-91.868391"><ele>364.2</ele></trkpt>
<trkpt lat="37.696313" lon="-91.868379"><ele>364.1</ele></trkpt>
<trkpt lat="37.696289" lon="-91.867799"><ele>365.0</ele></trkpt>
<trkpt lat="37.696311" lon="-91.867597"><ele>365.4</ele></trkpt>
<trkpt lat="37.696349" lon="-91.867431"><ele>365.8</ele></trkpt>
<trkpt lat="37.696412" lon="-91.867289"><ele>366.2</ele></trkpt>
<trkpt lat="37.696498" lon="-91.867122"><ele>366.8</ele></trkpt>
<trkpt lat="37.696581" lon="-91.867010"><ele>367.1</ele></trkpt>
<trkpt lat="37.696668" lon="-91.866934"><ele>367.4</ele></trkpt>
<trkpt lat="37.696890" lon="-91.866830"><ele>367.8</ele></trkpt>
<trkpt lat="37.697416" lon="-91.866714"><ele>368.5</ele></trkpt>
<trkpt lat="37.697604" lon="-91.866705"><ele>369.0</ele></trkpt>
<trkpt lat="37.697779" lon="-91.866678"><ele>369.5</ele></trkpt>
<trkpt lat="37.700028" lon="-91.866608"><ele>370.7</ele></trkpt>
<trkpt lat="37.700171" lon="-91.866605"><ele>370.6</ele></trkpt>
<trkpt lat="37.700783" lon="-91.866604"><ele>370.1</ele></trkpt>
<trkpt lat="37.701201" lon="-91.866586"><ele>369.6</ele></trkpt>
<trkpt lat="37.701410" lon="-91.866589"><ele>369.1</ele></trkpt>
<trkpt lat="37.702194" lon="-91.866567"><ele>368.9</ele></trkpt>
<trkpt lat="37.703342" lon="-91.866579"><ele>367.6</ele></trkpt>
<trkpt lat="37.703788" lon="-91.866562"><ele>366.3</ele></trkpt>
<trkpt lat="37.704646" lon="-91.866595"><ele>365.5</ele></trkpt>
<trkpt lat="37.704776" lon="-91.866615"><ele>365.9</ele></trkpt>
<trkpt lat="37.705201" lon="-91.866721"><ele>367.2</ele></trkpt>
<trkpt lat="37.705698" lon="-91.866916"><ele>369.6</ele></trkpt>
<trkpt lat="37.706674" lon="-91.867323"><ele>370.4</ele></trkpt>
<trkpt lat="37.707682" lon="-91.867690"><ele>368.7</ele></trkpt>
<trkpt lat="37.707892" lon="-91.867818"><ele>368.2</ele></trkpt>
<trkpt lat="37.708055" lon="-91.868006"><ele>367.7</ele></trkpt>
<trkpt lat="37.708175" lon="-91.868214"><ele>367.2</ele></trkpt>
<trkpt lat="37.708225" lon="-91.868420"><ele>367.1</ele></trkpt>
<trkpt lat="37.708313" lon="-91.868912"><ele>367.0</ele></trkpt>
<trkpt lat="37.709404" lon="-91.868995"><ele>366.1</ele></trkpt>
<trkpt lat="37.711745" lon="-91.869113"><ele>364.8</ele></trkpt>
<trkpt lat="37.712783" lon="-91.869043"><ele>364.0</ele></trkpt>
<trkpt lat="37.713639" lon="-91.868826"><ele>364.3</ele></trkpt>
<trkpt lat="37.714453" lon="-91.868502"><ele>363.4</ele></trkpt>
<trkpt lat="37.715357" lon="-91.868067"><ele>362.6</ele></trkpt>
<trkpt lat="37.716080" lon="-91.867527"><ele>362.6</ele></trkpt>
<trkpt lat="37.717308" lon="-91.866585"><ele>363.8</ele></trkpt>
<trkpt lat="37.718537" lon="-91.865642"><ele>364.5</ele></trkpt>
<trkpt lat="37.722488" lon="-91.862676"><ele>361.6</ele></trkpt>
<trkpt lat="37.724903" lon="-91.860838"><ele>360.7</ele></trkpt>
<trkpt lat="37.726114" lon="-91.859945"><ele>360.2</ele></trkpt>
<trkpt lat="37.727493" lon="-91.859209"><ele>358.7</ele></trkpt>
<trkpt lat="37.728503" lon="-91.858852"><ele>358.0</ele></trkpt>
<trkpt lat="37.729088" lon="-91.858750"><ele>357.3</ele></trkpt>
<trkpt lat="37.732186" lon="-91.858711"><ele>353.6</ele></trkpt>
<trkpt lat="37.736797" lon="-91.858613"><ele>350.7</ele></trkpt>
<trkpt lat="37.740843" lon="-91.858587"><ele>347.3</ele></trkpt>
<trkpt lat="37.748696" lon="-91.858433"><ele>343.3</ele></trkpt>
<trkpt lat="37.749914" lon="-91.858464"><ele>344.4</ele></trkpt>
<trkpt lat="37.751868" lon="-91.858471"><ele>345.6</ele></trkpt>
<trkpt lat="37.759235" lon="-91.858329"><ele>340.9</ele></trkpt>
<trkpt lat="37.762594" lon="-91.858288"><ele>335.5</ele></trkpt>
<trkpt lat="37.767763" lon="-91.858256"><ele>340.1</ele></trkpt>
<trkpt lat="37.768522" lon="-91.858229"><ele>342.6</ele></trkpt>
<trkpt lat="37.769057" lon="-91.858143"><ele>344.6</ele></trkpt>
<trkpt lat="37.769501" lon="-91.858039"><ele>345.6</ele></trkpt>
<trkpt lat="37.770142" lon="-91.857741"><ele>345.4</ele></trkpt>
<trkpt lat="37.770559" lon="-91.857507"><ele>344.7</ele></trkpt>
<trkpt lat="37.771105" lon="-91.857129"><ele>342.8</ele></trkpt>
<trkpt lat="37.771643" lon="-91.856620"><ele>341.5</ele></trkpt>
<trkpt lat="37.773653" lon="-91.854871"><ele>332.1</ele></trkpt>
<trkpt lat="37.778066" lon="-91.850931"><ele>315.0</ele></trkpt>
<trkpt lat="37.780425" lon="-91.848911"><ele>315.8</ele></trkpt>
<trkpt lat="37.782612" lon="-91.846926"><ele>320.7</ele></trkpt>
<trkpt lat="37.784865" lon="-91.844998"><ele>318.1</ele></trkpt>
<trkpt lat="37.786941" lon="-91.843166"><ele>314.3</ele></trkpt>
<trkpt lat="37.787369" lon="-91.842742"><ele>313.7</ele></trkpt>
<trkpt lat="37.787759" lon="-91.842275"><ele>312.8</ele></trkpt>
<trkpt lat="37.788121" lon="-91.841789"><ele>312.3</ele></trkpt>
<trkpt lat="37.788404" lon="-91.841294"><ele>311.8</ele></trkpt>
<trkpt lat="37.788607" lon="-91.840879"><ele>310.4</ele></trkpt>
<trkpt lat="37.788874" lon="-91.840247"><ele>307.2</ele></trkpt>
<trkpt lat="37.789040" lon="-91.839641"><ele>304.8</ele></trkpt>
<trkpt lat="37.789134" lon="-91.839159"><ele>303.2</ele></trkpt>
<trkpt lat="37.789519" lon="-91.836702"><ele>289.6</ele></trkpt>
<trkpt lat="37.789781" lon="-91.835092"><ele>278.2</ele></trkpt>
<trkpt lat="37.789938" lon="-91.834057"><ele>270.6</ele></trkpt>
<trkpt lat="37.789962" lon="-91.833899"><ele>269.6</ele></trkpt>
<trkpt lat="37.790404" lon="-91.831128"><ele>259.8</ele></trkpt>
<trkpt lat="37.790709" lon="-91.829171"><ele>254.8</ele></trkpt>
<trkpt lat="37.790895" lon="-91.827936"><ele>254.1</ele></trkpt>
<trkpt lat="37.791045" lon="-91.826820"><ele>255.8</ele></trkpt>
<trkpt lat="37.791189" lon="-91.826166"><ele>258.7</ele></trkpt>
<trkpt lat="37.791358" lon="-91.825565"><ele>260.7</ele></trkpt>
<trkpt lat="37.791600" lon="-91.824889"><ele>263.1</ele></trkpt>
<trkpt lat="37.791799" lon="-91.824471"><ele>264.9</ele></trkpt>
<trkpt lat="37.792356" lon="-91.823551"><ele>269.4</ele></trkpt>
<trkpt lat="37.793364" lon="-91.822373"><ele>278.3</ele></trkpt>
<trkpt lat="37.794182" lon="-91.821359"><ele>288.5</ele></trkpt>
<trkpt lat="37.799018" lon="-91.815512"><ele>325.4</ele></trkpt>
<trkpt lat="37.800547" lon="-91.813642"><ele>327.3</ele></trkpt>
<trkpt lat="37.806017" lon="-91.807054"><ele>331.6</ele></trkpt>
<trkpt lat="37.808386" lon="-91.804191"><ele>320.9</ele></trkpt>
<trkpt lat="37.810755" lon="-91.801329"><ele>330.3</ele></trkpt>
<trkpt lat="37.811255" lon="-91.800867"><ele>333.6</ele></trkpt>
<trkpt lat="37.811755" lon="-91.800567"><ele>336.5</ele></trkpt>
<trkpt lat="37.812229" lon="-91.800368"><ele>338.6</ele></trkpt>
<trkpt lat="37.813005" lon="-91.800175"><ele>341.2</ele></trkpt>
<trkpt lat="37.816224" lon="-91.799534"><ele>352.7</ele></trkpt>
<trkpt lat="37.818708" lon="-91.799156"><ele>350.4</ele></trkpt>
<trkpt lat="37.822208" lon="-91.798861"><ele>327.0</ele></trkpt>
<trkpt lat="37.824222" lon="-91.798668"><ele>317.9</ele></trkpt>
<trkpt lat="37.825082" lon="-91.798561"><ele>311.8</ele></trkpt>
<trkpt lat="37.825655" lon="-91.798439"><ele>308.2</ele></trkpt>
<trkpt lat="37.828897" lon="-91.797618"><ele>316.2</ele></trkpt>
<trkpt lat="37.829523" lon="-91.797525"><ele>317.8</ele></trkpt>
<trkpt lat="37.830251" lon="-91.797464"><ele>318.2</ele></trkpt>
<trkpt lat="37.831662" lon="-91.797482"><ele>323.1</ele></trkpt>
<trkpt lat="37.832211" lon="-91.797410"><ele>325.9</ele></trkpt>
<trkpt lat="37.833586" lon="-91.797064"><ele>326.0</ele></trkpt>
<trkpt lat="37.833988" lon="-91.797010"><ele>324.1</ele></trkpt>
<trkpt lat="37.834449" lon="-91.797007"><ele>321.6</ele></trkpt>
<trkpt lat="37.835732" lon="-91.796971"><ele>314.2</ele></trkpt>
<trkpt lat="37.835813" lon="-91.796969"><ele>314.0</ele></trkpt>
<trkpt lat="37.836933" lon="-91.796946"><ele>314.5</ele></trkpt>
<trkpt lat="37.838132" lon="-91.796935"><ele>316.2</ele></trkpt>
<trkpt lat="37.838623" lon="-91.796989"><ele>315.8</ele></trkpt>
<trkpt lat="37.839226" lon="-91.797114"><ele>315.4</ele></trkpt>
<trkpt lat="37.839601" lon="-91.797215"><ele>316.1</ele></trkpt>
<trkpt lat="37.840034" lon="-91.797366"><ele>318.0</ele></trkpt>
<trkpt lat="37.842448" lon="-91.798445"><ele>332.7</ele></trkpt>
<trkpt lat="37.842938" lon="-91.798635"><ele>334.8</ele></trkpt>
<trkpt lat="37.843319" lon="-91.798783"><ele>334.4</ele></trkpt>
<trkpt lat="37.843863" lon="-91.798910"><ele>333.8</ele></trkpt>
<trkpt lat="37.844669" lon="-91.798987"><ele>332.0</ele></trkpt>
<trkpt lat="37.845168" lon="-91.798963"><ele>331.0</ele></trkpt>
<trkpt lat="37.845656" lon="-91.798861"><ele>329.5</ele></trkpt>
<trkpt lat="37.846435" lon="-91.798630"><ele>326.5</ele></trkpt>
<trkpt lat="37.847841" lon="-91.798067"><ele>325.3</ele></trkpt>
<trkpt lat="37.848392" lon="-91.797906"><ele>325.3</ele></trkpt>
<trkpt lat="37.848941" lon="-91.797800"><ele>325.5</ele></trkpt>
<trkpt lat="37.849782" lon="-91.797722"><ele>325.4</ele></trkpt>
<trkpt lat="37.850180" lon="-91.797711"><ele>324.0</ele></trkpt>
<trkpt lat="37.851076" lon="-91.797773"><ele>320.7</ele></trkpt>
<trkpt lat="37.854914" lon="-91.798398"><ele>317.8</ele></trkpt>
<trkpt lat="37.855680" lon="-91.798411"><ele>317.9</ele></trkpt>
<trkpt lat="37.856375" lon="-91.798347"><ele>318.3</ele></trkpt>
<trkpt lat="37.856999" lon="-91.798212"><ele>319.1</ele></trkpt>
<trkpt lat="37.859004" lon="-91.797735"><ele>327.2</ele></trkpt>
<trkpt lat="37.860620" lon="-91.797327"><ele>320.9</ele></trkpt>
<trkpt lat="37.861201" lon="-91.797117"><ele>320.1</ele></trkpt>
<trkpt lat="37.861527" lon="-91.796941"><ele>319.9</ele></trkpt>
<trkpt lat="37.862691" lon="-91.796168"><ele>317.4</ele></trkpt>
<trkpt lat="37.863708" lon="-91.795524"><ele>308.5</ele></trkpt>
<trkpt lat="37.864187" lon="-91.795279"><ele>303.8</ele></trkpt>
<trkpt lat="37.865482" lon="-91.794768"><ele>293.1</ele></trkpt>
<trkpt lat="37.865961" lon="-91.794628"><ele>289.1</ele></trkpt>
<trkpt lat="37.866973" lon="-91.794451"><ele>281.4</ele></trkpt>
<trkpt lat="37.869676" lon="-91.794203"><ele>271.7</ele></trkpt>
<trkpt lat="37.872800" lon="-91.793990"><ele>263.7</ele></trkpt>
<trkpt lat="37.873191" lon="-91.793973"><ele>262.5</ele></trkpt>
<trkpt lat="37.873866" lon="-91.794049"><ele>260.1</ele></trkpt>
<trkpt lat="37.874440" lon="-91.794266"><ele>258.8</ele></trkpt>
<trkpt lat="37.876040" lon="-91.795017"><ele>257.8</ele></trkpt>
<trkpt lat="37.876737" lon="-91.795262"><ele>255.8</ele></trkpt>
<trkpt lat="37.877195" lon="-91.795342"><ele>254.1</ele></trkpt>
<trkpt lat="37.877623" lon="-91.795390"><ele>252.7</ele></trkpt>
<trkpt lat="37.878309" lon="-91.795331"><ele>250.6</ele></trkpt>
<trkpt lat="37.878889" lon="-91.795206"><ele>248.6</ele></trkpt>
<trkpt lat="37.879544" lon="-91.795026"><ele>250.3</ele></trkpt>
<trkpt lat="37.879930" lon="-91.794897"><ele>250.0</ele></trkpt>
<trkpt lat="37.880316" lon="-91.794725"><ele>250.4</ele></trkpt>
<trkpt lat="37.880625" lon="-91.794569"><ele>250.4</ele></trkpt>
<trkpt lat="37.880930" lon="-91.794350"><ele>250.8</ele></trkpt>
<trkpt lat="37.881246" lon="-91.794088"><ele>251.6</ele></trkpt>
<trkpt lat="37.883933" lon="-91.791414"><ele>266.3</ele></trkpt>
<trkpt lat="37.884888" lon="-91.790428"><ele>271.3</ele></trkpt>
<trkpt lat="37.885286" lon="-91.789972"><ele>273.4</ele></trkpt>
<trkpt lat="37.885583" lon="-91.789500"><ele>275.3</ele></trkpt>
<trkpt lat="37.885762" lon="-91.789233"><ele>276.5</ele></trkpt>
<trkpt lat="37.886656" lon="-91.787462"><ele>280.9</ele></trkpt>
<trkpt lat="37.886938" lon="-91.786950"><ele>282.4</ele></trkpt>
<trkpt lat="37.887271" lon="-91.786467"><ele>284.2</ele></trkpt>
<trkpt lat="37.887648" lon="-91.786001"><ele>285.9</ele></trkpt>
<trkpt lat="37.889154" lon="-91.784183"><ele>289.5</ele></trkpt>
<trkpt lat="37.889572" lon="-91.783695"><ele>290.1</ele></trkpt>
<trkpt lat="37.889912" lon="-91.783375"><ele>291.4</ele></trkpt>
<trkpt lat="37.890461" lon="-91.783018"><ele>292.4</ele></trkpt>
<trkpt lat="37.890997" lon="-91.782810"><ele>293.1</ele></trkpt>
<trkpt lat="37.891446" lon="-91.782709"><ele>294.7</ele></trkpt>
<trkpt lat="37.891920" lon="-91.782660"><ele>297.5</ele></trkpt>
<trkpt lat="37.892318" lon="-91.782682"><ele>300.7</ele></trkpt>
<trkpt lat="37.892714" lon="-91.782734"><ele>303.8</ele></trkpt>
<trkpt lat="37.895047" lon="-91.783578"><ele>317.4</ele></trkpt>
<trkpt lat="37.897142" lon="-91.784279"><ele>329.9</ele></trkpt>
<trkpt lat="37.897923" lon="-91.784404"><ele>330.9</ele></trkpt>
<trkpt lat="37.898625" lon="-91.784355"><ele>329.3</ele></trkpt>
<trkpt lat="37.899413" lon="-91.784087"><ele>327.4</ele></trkpt>
<trkpt lat="37.899949" lon="-91.783731"><ele>325.4</ele></trkpt>
<trkpt lat="37.900474" lon="-91.783261"><ele>323.7</ele></trkpt>
<trkpt lat="37.900927" lon="-91.782727"><ele>322.9</ele></trkpt>
<trkpt lat="37.901175" lon="-91.782354"><ele>321.8</ele></trkpt>
<trkpt lat="37.902562" lon="-91.780010"><ele>328.1</ele></trkpt>
<trkpt lat="37.903280" lon="-91.778759"><ele>328.5</ele></trkpt>
<trkpt lat="37.903829" lon="-91.777712"><ele>330.6</ele></trkpt>
<trkpt lat="37.905174" lon="-91.775610"><ele>327.2</ele></trkpt>
<trkpt lat="37.905772" lon="-91.775168"><ele>331.6</ele></trkpt>
<trkpt lat="37.906296" lon="-91.774880"><ele>335.8</ele></trkpt>
<trkpt lat="37.906512" lon="-91.774762"><ele>336.5</ele></trkpt>
<trkpt lat="37.906981" lon="-91.774592"><ele>338.4</ele></trkpt>
<trkpt lat="37.907186" lon="-91.774552"><ele>339.3</ele></trkpt>
<trkpt lat="37.908084" lon="-91.774601"><ele>339.2</ele></trkpt>
<trkpt lat="37.908332" lon="-91.774648"><ele>339.0</ele></trkpt>
<trkpt lat="37.909736" lon="-91.775096"><ele>337.1</ele></trkpt>
<trkpt lat="37.910864" lon="-91.775473"><ele>335.2</ele></trkpt>
<trkpt lat="37.915175" lon="-91.776937"><ele>333.6</ele></trkpt>
<trkpt lat="37.915544" lon="-91.777123"><ele>334.9</ele></trkpt>
<trkpt lat="37.915643" lon="-91.777185"><ele>335.4</ele></trkpt>
<trkpt lat="37.916222" lon="-91.777553"><ele>337.3</ele></trkpt>
<trkpt lat="37.917748" lon="-91.778581"><ele>340.4</ele></trkpt>
<trkpt lat="37.918287" lon="-91.778942"><ele>340.7</ele></trkpt>
<trkpt lat="37.918838" lon="-91.779275"><ele>341.4</ele></trkpt>
<trkpt lat="37.919447" lon="-91.779579"><ele>341.9</ele></trkpt>
<trkpt lat="37.919736" lon="-91.779710"><ele>341.7</ele></trkpt>
<trkpt lat="37.920276" lon="-91.779916"><ele>340.8</ele></trkpt>
<trkpt lat="37.920714" lon="-91.780041"><ele>340.6</ele></trkpt>
<trkpt lat="37.921189" lon="-91.780163"><ele>339.4</ele></trkpt>
<trkpt lat="37.921814" lon="-91.780260"><ele>336.6</ele></trkpt>
<trkpt lat="37.922388" lon="-91.780280"><ele>335.0</ele></trkpt>
<trkpt lat="37.922597" lon="-91.780299"><ele>335.0</ele></trkpt>
<trkpt lat="37.923053" lon="-91.780307"><ele>335.1</ele></trkpt>
<trkpt lat="37.923485" lon="-91.780262"><ele>335.3</ele></trkpt>
<trkpt lat="37.926058" lon="-91.779727"><ele>337.4</ele></trkpt>
<trkpt lat="37.927720" lon="-91.779359"><ele>336.6</ele></trkpt>
<trkpt lat="37.928008" lon="-91.779304"><ele>337.4</ele></trkpt>
<trkpt lat="37.930560" lon="-91.778747"><ele>347.1</ele></trkpt>
<trkpt lat="37.932502" lon="-91.778289"><ele>358.4</ele></trkpt>
<trkpt lat="37.935021" lon="-91.777746"><ele>355.9</ele></trkpt>
<trkpt lat="37.936902" lon="-91.777406"><ele>348.1</ele></trkpt>
<trkpt lat="37.938551" lon="-91.777332"><ele>340.8</ele></trkpt>
<trkpt lat="37.940482" lon="-91.777298"><ele>331.2</ele></trkpt>
<trkpt lat="37.941545" lon="-91.777299"><ele>335.0</ele></trkpt>
<trkpt lat="37.942113" lon="-91.777295"><ele>336.9</ele></trkpt>
<trkpt lat="37.942406" lon="-91.777281"><ele>337.0</ele></trkpt>
<trkpt lat="37.942421" lon="-91.778018"><ele>340.5</ele></trkpt>
<trkpt lat="37.942418" lon="-91.778186"><ele>341.2</ele></trkpt>
<trkpt lat="37.942367" lon="-91.778497"><ele>342.4</ele></trkpt>
<trkpt lat="37.942172" lon="-91.779109"><ele>344.8</ele></trkpt>
<trkpt lat="37.942121" lon="-91.779538"><ele>345.6</ele></trkpt>
<trkpt lat="37.942129" lon="-91.780935"><ele>346.6</ele></trkpt>
<trkpt lat="37.942148" lon="-91.784272"><ele>328.9</ele></trkpt>
<trkpt lat="37.942169" lon="-91.784861"><ele>324.1</ele></trkpt>
<trkpt lat="37.942194" lon="-91.785143"><ele>322.1</ele></trkpt>
<trkpt lat="37.942261" lon="-91.785647"><ele>327.3</ele></trkpt>
<trkpt lat="37.942310" lon="-91.785925"><ele>330.2</ele></trkpt>
<trkpt lat="37.942397" lon="-91.786325"><ele>333.1</ele></trkpt>
<trkpt lat="37.942494" lon="-91.786710"><ele>333.6</ele></trkpt>
<trkpt lat="37.942553" lon="-91.786903"><ele>334.5</ele></trkpt>
<trkpt lat="37.942694" lon="-91.787329"><ele>335.9</ele></trkpt>
<trkpt lat="37.943057" lon="-91.788286"><ele>340.2</ele></trkpt>
<trkpt lat="37.943411" lon="-91.788131"><ele>341.8</ele></trkpt>
<trkpt lat="37.943471" lon="-91.788094"><ele>341.8</ele></trkpt>
<trkpt lat="37.943565" lon="-91.788007"><ele>341.9</ele></trkpt>
<trkpt lat="37.943661" lon="-91.787859"><ele>342.1</ele></trkpt>
<trkpt lat="37.943709" lon="-91.787724"><ele>342.0</ele></trkpt>
<trkpt lat="37.944232" lon="-91.785763"><ele>339.3</ele></trkpt>
<trkpt lat="37.944829" lon="-91.785792"><ele>337.9</ele></trkpt>
<trkpt lat="37.946320" lon="-91.785811"><ele>341.6</ele></trkpt>
<trkpt lat="37.946470" lon="-91.785842"><ele>342.1</ele></trkpt>
<trkpt lat="37.946637" lon="-91.785902"><ele>342.7</ele></trkpt>
<trkpt lat="37.946805" lon="-91.786035"><ele>343.2</ele></trkpt>
<trkpt lat="37.947390" lon="-91.786769"><ele>344.0</ele></trkpt>
<trkpt lat="37.947633" lon="-91.787057"><ele>344.1</ele></trkpt>
<trkpt lat="37.947807" lon="-91.787224"><ele>344.9</ele></trkpt>
<trkpt lat="37.948019" lon="-91.787302"><ele>344.8</ele></trkpt>
<trkpt lat="37.950072" lon="-91.787239"><ele>345.0</ele></trkpt>
<trkpt lat="37.951225" lon="-91.787221"><ele>348.6</ele></trkpt>
<trkpt lat="37.951309" lon="-91.787203"><ele>348.8</ele></trkpt>
<trkpt lat="37.951395" lon="-91.787122"><ele>348.9</ele></trkpt>
<trkpt lat="37.951457" lon="-91.787031"><ele>349.3</ele></trkpt>
<trkpt lat="37.951465" lon="-91.786936"><ele>349.6</ele></trkpt>
<trkpt lat="37.951461" lon="-91.786081"><ele>351.9</ele></trkpt>
<trkpt lat="37.951463" lon="-91.783519"><ele>344.1</ele></trkpt>
<trkpt lat="37.951467" lon="-91.781255"><ele>336.1</ele></trkpt>
<trkpt lat="37.951484" lon="-91.779647"><ele>333.0</ele></trkpt>
<trkpt lat="37.951511" lon="-91.778684"><ele>334.3</ele></trkpt>
<trkpt lat="37.951521" lon="-91.777148"><ele>334.5</ele></trkpt>
<trkpt lat="37.950631" lon="-91.777176"><ele>333.1</ele></trkpt>
<trkpt lat="37.950631" lon="-91.777292"><ele>333.1</ele></trkpt>
<trkpt lat="37.950591" lon="-91.777767"><ele>333.0</ele></trkpt>
<trkpt lat="37.950453" lon="-91.778085"><ele>332.8</ele></trkpt>
<trkpt lat="37.950448" lon="-91.778226"><ele>332.9</ele></trkpt>
</trkseg></trk>
</gpx>