<?xml version="1.0" encoding="UTF-8" standalone="no" ?><gpx xmlns="http://www.topografix.com/GPX/1/1" xmlns:xsi="http://www.w3.org/2001/XMLSchema-instance" creator="GraphHopper" version="1.1" xmlns:gh="https://graphhopper.com/public/schema/gpx/1.1">
<metadata><copyright author="OpenStreetMap contributors"/><link href="http://graphhopper.com"><text>GraphHopper GPX</text></link><time>2026-05-31T04:58:56.140Z</time></metadata>
<trk>
<name>GraphHopper Track</name><desc></desc>
<trkseg><trkpt lat="37.175715" lon="-94.314153"><ele>300.9</ele></trkpt>
<trkpt lat="37.175713" lon="-94.314038"><ele>300.8</ele></trkpt>
<trkpt lat="37.175049" lon="-94.314062"><ele>302.3</ele></trkpt>
<trkpt lat="37.175081" lon="-94.315523"><ele>304.7</ele></trkpt>
<trkpt lat="37.175086" lon="-94.315752"><ele>305.1</ele></trkpt>
<trkpt lat="37.176435" lon="-94.315708"><ele>299.0</ele></trkpt>
<trkpt lat="37.176472" lon="-94.318324"><ele>301.0</ele></trkpt>
<trkpt lat="37.176481" lon="-94.318698"><ele>302.1</ele></trkpt>
<trkpt lat="37.176492" lon="-94.319283"><ele>304.2</ele></trkpt>
<trkpt lat="37.176528" lon="-94.325225"><ele>298.8</ele></trkpt>
<trkpt lat="37.176533" lon="-94.327504"><ele>292.9</ele></trkpt>
<trkpt lat="37.176525" lon="-94.327827"><ele>292.1</ele></trkpt>
<trkpt lat="37.176520" lon="-94.330732"><ele>295.8</ele></trkpt>
<trkpt lat="37.176510" lon="-94.332009"><ele>298.3</ele></trkpt>
<trkpt lat="37.176512" lon="-94.332912"><ele>299.9</ele></trkpt>
<trkpt lat="37.176519" lon="-94.334187"><ele>299.3</ele></trkpt>
<trkpt lat="37.176521" lon="-94.335670"><ele>302.8</ele></trkpt>
<trkpt lat="37.176519" lon="-94.338045"><ele>305.1</ele></trkpt>
<trkpt lat="37.176514" lon="-94.338856"><ele>303.0</ele></trkpt>
<trkpt lat="37.176528" lon="-94.339026"><ele>302.8</ele></trkpt>
<trkpt lat="37.176536" lon="-94.339376"><ele>302.1</ele></trkpt>
<trkpt lat="37.176559" lon="-94.339640"><ele>301.4</ele></trkpt>
<trkpt lat="37.176613" lon="-94.342806"><ele>296.3</ele></trkpt>
<trkpt lat="37.176606" lon="-94.342924"><ele>295.9</ele></trkpt>
<trkpt lat="37.176581" lon="-94.343043"><ele>295.4</ele></trkpt>
<trkpt lat="37.176531" lon="-94.343189"><ele>294.6</ele></trkpt>
<trkpt lat="37.176523" lon="-94.343910"><ele>291.9</ele></trkpt>
<trkpt lat="37.176536" lon="-94.344524"><ele>291.7</ele></trkpt>
<trkpt lat="37.176542" lon="-94.345855"><ele>297.3</ele></trkpt>
<trkpt lat="37.176525" lon="-94.346512"><ele>301.5</ele></trkpt>
<trkpt lat="37.176571" lon="-94.348316"><ele>300.6</ele></trkpt>
<trkpt lat="37.176605" lon="-94.350119"><ele>300.9</ele></trkpt>
<trkpt lat="37.176692" lon="-94.353927"><ele>309.0</ele></trkpt>
<trkpt lat="37.176689" lon="-94.354629"><ele>308.3</ele></trkpt>
<trkpt lat="37.176691" lon="-94.354696"><ele>308.1</ele></trkpt>
<trkpt lat="37.176732" lon="-94.355993"><ele>303.5</ele></trkpt>
<trkpt lat="37.176791" lon="-94.357847"><ele>299.1</ele></trkpt>
<trkpt lat="37.176869" lon="-94.358304"><ele>298.5</ele></trkpt>
<trkpt lat="37.176936" lon="-94.358572"><ele>298.2</ele></trkpt>
<trkpt lat="37.177109" lon="-94.359158"><ele>297.9</ele></trkpt>
<trkpt lat="37.177203" lon="-94.359413"><ele>298.3</ele></trkpt>
<trkpt lat="37.177405" lon="-94.359816"><ele>298.1</ele></trkpt>
<trkpt lat="37.177627" lon="-94.360213"><ele>298.0</ele></trkpt>
<trkpt lat="37.177823" lon="-94.360522"><ele>297.9</ele></trkpt>
<trkpt lat="37.178019" lon="-94.360729"><ele>297.8</ele></trkpt>
<trkpt lat="37.179280" lon="-94.361809"><ele>301.1</ele></trkpt>
<trkpt lat="37.180065" lon="-94.362383"><ele>297.0</ele></trkpt>
<trkpt lat="37.180824" lon="-94.362942"><ele>297.7</ele></trkpt>
<trkpt lat="37.181611" lon="-94.363530"><ele>299.1</ele></trkpt>
<trkpt lat="37.182467" lon="-94.364219"><ele>296.2</ele></trkpt>
<trkpt lat="37.183296" lon="-94.365097"><ele>295.1</ele></trkpt>
<trkpt lat="37.183788" lon="-94.365737"><ele>296.3</ele></trkpt>
<trkpt lat="37.184193" lon="-94.366470"><ele>296.9</ele></trkpt>
<trkpt lat="37.184925" lon="-94.368035"><ele>295.9</ele></trkpt>
<trkpt lat="37.185701" lon="-94.369755"><ele>298.0</ele></trkpt>
<trkpt lat="37.186458" lon="-94.371358"><ele>297.2</ele></trkpt>
<trkpt lat="37.186763" lon="-94.372048"><ele>295.9</ele></trkpt>
<trkpt lat="37.187586" lon="-94.373850"><ele>298.9</ele></trkpt>
<trkpt lat="37.187731" lon="-94.374175"><ele>299.8</ele></trkpt>
<trkpt lat="37.188737" lon="-94.376400"><ele>300.7</ele></trkpt>
<trkpt lat="37.189233" lon="-94.377432"><ele>299.9</ele></trkpt>
<trkpt lat="37.189434" lon="-94.377796"><ele>301.1</ele></trkpt>
<trkpt lat="37.189789" lon="-94.378364"><ele>301.5</ele></trkpt>
<trkpt lat="37.190166" lon="-94.378849"><ele>301.4</ele></trkpt>
<trkpt lat="37.190646" lon="-94.379362"><ele>300.2</ele></trkpt>
<trkpt lat="37.191071" lon="-94.379749"><ele>299.2</ele></trkpt>
<trkpt lat="37.191481" lon="-94.380041"><ele>298.4</ele></trkpt>
<trkpt lat="37.191838" lon="-94.380279"><ele>297.6</ele></trkpt>
<trkpt lat="37.192231" lon="-94.380492"><ele>296.7</ele></trkpt>
<trkpt lat="37.193461" lon="-94.381019"><ele>293.4</ele></trkpt>
<trkpt lat="37.194728" lon="-94.381538"><ele>291.8</ele></trkpt>
<trkpt lat="37.196241" lon="-94.382182"><ele>289.2</ele></trkpt>
<trkpt lat="37.196499" lon="-94.382311"><ele>288.8</ele></trkpt>
<trkpt lat="37.196864" lon="-94.382550"><ele>288.3</ele></trkpt>
<trkpt lat="37.197136" lon="-94.382797"><ele>288.0</ele></trkpt>
<trkpt lat="37.197426" lon="-94.383093"><ele>287.4</ele></trkpt>
<trkpt lat="37.197740" lon="-94.383536"><ele>285.9</ele></trkpt>
<trkpt lat="37.197982" lon="-94.384002"><ele>284.8</ele></trkpt>
<trkpt lat="37.198126" lon="-94.384400"><ele>283.9</ele></trkpt>
<trkpt lat="37.198238" lon="-94.384763"><ele>283.4</ele></trkpt>
<trkpt lat="37.198301" lon="-94.385061"><ele>283.2</ele></trkpt>
<trkpt lat="37.198358" lon="-94.385514"><ele>283.3</ele></trkpt>
<trkpt lat="37.198380" lon="-94.385967"><ele>283.8</ele></trkpt>
<trkpt lat="37.198401" lon="-94.389033"><ele>288.1</ele></trkpt>
<trkpt lat="37.198420" lon="-94.390422"><ele>290.9</ele></trkpt>
<trkpt lat="37.198459" lon="-94.395036"><ele>298.8</ele></trkpt>
<trkpt lat="37.198464" lon="-94.396222"><ele>298.2</ele></trkpt>
<trkpt lat="37.198523" lon="-94.400796"><ele>288.4</ele></trkpt>
<trkpt lat="37.198576" lon="-94.405534"><ele>299.6</ele></trkpt>
<trkpt lat="37.198662" lon="-94.414140"><ele>301.6</ele></trkpt>
<trkpt lat="37.198730" lon="-94.418865"><ele>300.0</ele></trkpt>
<trkpt lat="37.198835" lon="-94.429019"><ele>299.7</ele></trkpt>
<trkpt lat="37.198887" lon="-94.433137"><ele>300.0</ele></trkpt>
<trkpt lat="37.199024" lon="-94.442553"><ele>296.0</ele></trkpt>
<trkpt lat="37.199055" lon="-94.444406"><ele>295.4</ele></trkpt>
<trkpt lat="37.199069" lon="-94.446049"><ele>294.5</ele></trkpt>
<trkpt lat="37.199117" lon="-94.448661"><ele>292.9</ele></trkpt>
<trkpt lat="37.199197" lon="-94.454253"><ele>290.9</ele></trkpt>
<trkpt lat="37.199209" lon="-94.455096"><ele>292.1</ele></trkpt>
<trkpt lat="37.199245" lon="-94.458046"><ele>291.4</ele></trkpt>
<trkpt lat="37.199308" lon="-94.461474"><ele>284.6</ele></trkpt>
<trkpt lat="37.199407" lon="-94.466455"><ele>283.0</ele></trkpt>
<trkpt lat="37.199494" lon="-94.471517"><ele>288.9</ele></trkpt>
<trkpt lat="37.199468" lon="-94.472582"><ele>291.9</ele></trkpt>
<trkpt lat="37.199446" lon="-94.473093"><ele>291.1</ele></trkpt>
<trkpt lat="37.199437" lon="-94.473565"><ele>289.9</ele></trkpt>
<trkpt lat="37.199584" lon="-94.478223"><ele>288.8</ele></trkpt>
<trkpt lat="37.199826" lon="-94.486386"><ele>296.0</ele></trkpt>
<trkpt lat="37.199950" lon="-94.490637"><ele>292.2</ele></trkpt>
<trkpt lat="37.200007" lon="-94.493077"><ele>289.1</ele></trkpt>
<trkpt lat="37.200222" lon="-94.500340"><ele>289.0</ele></trkpt>
<trkpt lat="37.200337" lon="-94.504539"><ele>288.0</ele></trkpt>
<trkpt lat="37.200433" lon="-94.507600"><ele>292.4</ele></trkpt>
<trkpt lat="37.200463" lon="-94.507670"><ele>292.4</ele></trkpt>
<trkpt lat="37.200470" lon="-94.508282"><ele>291.5</ele></trkpt>
<trkpt lat="37.200487" lon="-94.508370"><ele>291.1</ele></trkpt>
<trkpt lat="37.200517" lon="-94.508455"><ele>290.9</ele></trkpt>
<trkpt lat="37.200582" lon="-94.508503"><ele>290.7</ele></trkpt>
<trkpt lat="37.200612" lon="-94.508550"><ele>290.5</ele></trkpt>
<trkpt lat="37.200632" lon="-94.508643"><ele>290.3</ele></trkpt>
<trkpt lat="37.200627" lon="-94.508742"><ele>290.0</ele></trkpt>
<trkpt lat="37.200591" lon="-94.508814"><ele>289.8</ele></trkpt>
<trkpt lat="37.200567" lon="-94.508845"><ele>289.8</ele></trkpt>
<trkpt lat="37.200532" lon="-94.509040"><ele>289.3</ele></trkpt>
<trkpt lat="37.200510" lon="-94.509283"><ele>288.3</ele></trkpt>
<trkpt lat="37.200506" lon="-94.509482"><ele>287.6</ele></trkpt>
<trkpt lat="37.200485" lon="-94.509559"><ele>287.7</ele></trkpt>
<trkpt lat="37.200502" lon="-94.510595"><ele>287.6</ele></trkpt>
<trkpt lat="37.200630" lon="-94.514499"><ele>284.3</ele></trkpt>
<trkpt lat="37.200699" lon="-94.517813"><ele>283.4</ele></trkpt>
<trkpt lat="37.201033" lon="-94.526830"><ele>292.8</ele></trkpt>
<trkpt lat="37.201163" lon="-94.531422"><ele>287.0</ele></trkpt>
<trkpt lat="37.201262" lon="-94.534627"><ele>286.4</ele></trkpt>
<trkpt lat="37.201370" lon="-94.537980"><ele>284.8</ele></trkpt>
<trkpt lat="37.201609" lon="-94.544931"><ele>284.2</ele></trkpt>
<trkpt lat="37.201729" lon="-94.549433"><ele>279.1</ele></trkpt>
<trkpt lat="37.201798" lon="-94.551618"><ele>278.0</ele></trkpt>
<trkpt lat="37.201950" lon="-94.556925"><ele>279.0</ele></trkpt>
<trkpt lat="37.201974" lon="-94.556987"><ele>279.0</ele></trkpt>
<trkpt lat="37.202008" lon="-94.557338"><ele>278.5</ele></trkpt>
<trkpt lat="37.202024" lon="-94.557703"><ele>278.1</ele></trkpt>
<trkpt lat="37.202022" lon="-94.557914"><ele>278.0</ele></trkpt>
<trkpt lat="37.202053" lon="-94.558020"><ele>278.0</ele></trkpt>
<trkpt lat="37.202080" lon="-94.558260"><ele>277.8</ele></trkpt>
<trkpt lat="37.202102" lon="-94.558349"><ele>277.6</ele></trkpt>
<trkpt lat="37.202136" lon="-94.558432"><ele>277.4</ele></trkpt>
<trkpt lat="37.202243" lon="-94.558602"><ele>277.0</ele></trkpt>
<trkpt lat="37.202293" lon="-94.558681"><ele>276.8</ele></trkpt>
<trkpt lat="37.202348" lon="-94.558793"><ele>276.5</ele></trkpt>
<trkpt lat="37.202453" lon="-94.559030"><ele>275.8</ele></trkpt>
<trkpt lat="37.202475" lon="-94.559119"><ele>275.5</ele></trkpt>
<trkpt lat="37.202766" lon="-94.559492"><ele>275.2</ele></trkpt>
<trkpt lat="37.203028" lon="-94.559744"><ele>274.8</ele></trkpt>
<trkpt lat="37.203042" lon="-94.559788"><ele>274.6</ele></trkpt>
<trkpt lat="37.203165" lon="-94.559888"><ele>274.4</ele></trkpt>
<trkpt lat="37.212885" lon="-94.565388"><ele>270.3</ele></trkpt>
<trkpt lat="37.215843" lon="-94.567077"><ele>266.2</ele></trkpt>
<trkpt lat="37.230943" lon="-94.575609"><ele>263.2</ele></trkpt>
<trkpt lat="37.231427" lon="-94.575902"><ele>259.7</ele></trkpt>
<trkpt lat="37.233558" lon="-94.577099"><ele>261.1</ele></trkpt>
<trkpt lat="37.235772" lon="-94.578329"><ele>261.4</ele></trkpt>
<trkpt lat="37.239060" lon="-94.580195"><ele>261.4</ele></trkpt>
<trkpt lat="37.257226" lon="-94.590438"><ele>276.8</ele></trkpt>
<trkpt lat="37.257775" lon="-94.590775"><ele>277.4</ele></trkpt>
<trkpt lat="37.261231" lon="-94.593173"><ele>277.0</ele></trkpt>
<trkpt lat="37.264346" lon="-94.595352"><ele>273.9</ele></trkpt>
<trkpt lat="37.271193" lon="-94.600112"><ele>272.0</ele></trkpt>
<trkpt lat="37.272524" lon="-94.601034"><ele>272.0</ele></trkpt>
<trkpt lat="37.272711" lon="-94.601116"><ele>272.2</ele></trkpt>
<trkpt lat="37.272894" lon="-94.601165"><ele>272.6</ele></trkpt>
<trkpt lat="37.273272" lon="-94.601173"><ele>273.0</ele></trkpt>
<trkpt lat="37.274394" lon="-94.601138"><ele>273.7</ele></trkpt>
<trkpt lat="37.276864" lon="-94.601046"><ele>273.8</ele></trkpt>
<trkpt lat="37.279643" lon="-94.600983"><ele>272.6</ele></trkpt>
<trkpt lat="37.279940" lon="-94.601024"><ele>272.4</ele></trkpt>
<trkpt lat="37.280289" lon="-94.601123"><ele>272.3</ele></trkpt>
<trkpt lat="37.280595" lon="-94.601258"><ele>272.3</ele></trkpt>
<trkpt lat="37.280922" lon="-94.601465"><ele>272.4</ele></trkpt>
<trkpt lat="37.281223" lon="-94.601737"><ele>272.7</ele></trkpt>
<trkpt lat="37.281525" lon="-94.602067"><ele>273.1</ele></trkpt>
<trkpt lat="37.284366" lon="-94.606024"><ele>274.0</ele></trkpt>
<trkpt lat="37.284689" lon="-94.606384"><ele>274.0</ele></trkpt>
<trkpt lat="37.285046" lon="-94.606717"><ele>274.0</ele></trkpt>
<trkpt lat="37.285384" lon="-94.606965"><ele>273.9</ele></trkpt>
<trkpt lat="37.285706" lon="-94.607165"><ele>273.7</ele></trkpt>
<trkpt lat="37.286053" lon="-94.607339"><ele>273.6</ele></trkpt>
<trkpt lat="37.286466" lon="-94.607502"><ele>273.3</ele></trkpt>
<trkpt lat="37.297884" lon="-94.609832"><ele>274.3</ele></trkpt>
<trkpt lat="37.320537" lon="-94.614416"><ele>278.0</ele></trkpt>
<trkpt lat="37.326201" lon="-94.615574"><ele>280.4</ele></trkpt>
<trkpt lat="37.330502" lon="-94.616453"><ele>278.0</ele></trkpt>
<trkpt lat="37.330516" lon="-94.616456"><ele>278.0</ele></trkpt>
<trkpt lat="37.332457" lon="-94.616842"><ele>278.0</ele></trkpt>
<trkpt lat="37.333819" lon="-94.617128"><ele>277.9</ele></trkpt>
<trkpt lat="37.334487" lon="-94.617256"><ele>277.7</ele></trkpt>
<trkpt lat="37.335128" lon="-94.617464"><ele>278.0</ele></trkpt>
<trkpt lat="37.335066" lon="-94.613230"><ele>279.8</ele></trkpt>
<trkpt lat="37.334878" lon="-94.603204"><ele>277.7</ele></trkpt>
<trkpt lat="37.334707" lon="-94.594495"><ele>280.9</ele></trkpt>
<trkpt lat="37.333844" lon="-94.569211"><ele>274.8</ele></trkpt>
<trkpt lat="37.333452" lon="-94.557839"><ele>285.1</ele></trkpt>
<trkpt lat="37.332806" lon="-94.539632"><ele>286.7</ele></trkpt>
<trkpt lat="37.332658" lon="-94.533767"><ele>283.5</ele></trkpt>
<trkpt lat="37.332582" lon="-94.531597"><ele>269.9</ele></trkpt>
<trkpt lat="37.332505" lon="-94.529428"><ele>268.7</ele></trkpt>
<trkpt lat="37.332422" lon="-94.525929"><ele>267.7</ele></trkpt>
<trkpt lat="37.332305" lon="-94.523474"><ele>267.5</ele></trkpt>
<trkpt lat="37.332269" lon="-94.522731"><ele>267.3</ele></trkpt>
<trkpt lat="37.332203" lon="-94.521459"><ele>268.3</ele></trkpt>
<trkpt lat="37.331772" lon="-94.510464"><ele>278.0</ele></trkpt>
<trkpt lat="37.331714" lon="-94.508766"><ele>288.8</ele></trkpt>
<trkpt lat="37.331615" lon="-94.505782"><ele>293.0</ele></trkpt>
<trkpt lat="37.331523" lon="-94.503009"><ele>287.4</ele></trkpt>
<trkpt lat="37.331246" lon="-94.495897"><ele>285.5</ele></trkpt>
<trkpt lat="37.330740" lon="-94.484826"><ele>294.0</ele></trkpt>
<trkpt lat="37.341624" lon="-94.484295"><ele>284.9</ele></trkpt>
<trkpt lat="37.345272" lon="-94.484164"><ele>287.7</ele></trkpt>
<trkpt lat="37.348240" lon="-94.483997"><ele>290.9</ele></trkpt>
<trkpt lat="37.352345" lon="-94.483824"><ele>283.6</ele></trkpt>
<trkpt lat="37.355021" lon="-94.483733"><ele>282.7</ele></trkpt>
<trkpt lat="37.358367" lon="-94.483745"><ele>278.1</ele></trkpt>
<trkpt lat="37.359417" lon="-94.483733"><ele>278.7</ele></trkpt>
<trkpt lat="37.360126" lon="-94.483740"><ele>278.8</ele></trkpt>
<trkpt lat="37.361908" lon="-94.483706"><ele>278.1</ele></trkpt>
<trkpt lat="37.362455" lon="-94.483671"><ele>278.6</ele></trkpt>
<trkpt lat="37.363242" lon="-94.483606"><ele>278.8</ele></trkpt>
<trkpt lat="37.364239" lon="-94.483513"><ele>278.7</ele></trkpt>
<trkpt lat="37.365328" lon="-94.483394"><ele>278.9</ele></trkpt>
<trkpt lat="37.366471" lon="-94.483287"><ele>280.1</ele></trkpt>
<trkpt lat="37.372062" lon="-94.482705"><ele>289.3</ele></trkpt>
<trkpt lat="37.372749" lon="-94.482665"><ele>290.1</ele></trkpt>
<trkpt lat="37.373965" lon="-94.482617"><ele>292.0</ele></trkpt>
<trkpt lat="37.375636" lon="-94.482558"><ele>292.0</ele></trkpt>
<trkpt lat="37.377546" lon="-94.482505"><ele>291.0</ele></trkpt>
<trkpt lat="37.379634" lon="-94.482463"><ele>290.8</ele></trkpt>
<trkpt lat="37.382396" lon="-94.482383"><ele>293.2</ele></trkpt>
<trkpt lat="37.383111" lon="-94.482378"><ele>293.8</ele></trkpt>
<trkpt lat="37.383925" lon="-94.482385"><ele>294.2</ele></trkpt>
<trkpt lat="37.384550" lon="-94.482416"><ele>294.5</ele></trkpt>
<trkpt lat="37.385205" lon="-94.482461"><ele>295.1</ele></trkpt>
<trkpt lat="37.390404" lon="-94.482897"><ele>292.5</ele></trkpt>
<trkpt lat="37.392539" lon="-94.482944"><ele>290.2</ele></trkpt>
<trkpt lat="37.394690" lon="-94.482917"><ele>288.1</ele></trkpt>
<trkpt lat="37.396840" lon="-94.482908"><ele>285.6</ele></trkpt>
<trkpt lat="37.403489" lon="-94.482836"><ele>285.0</ele></trkpt>
<trkpt lat="37.403482" lon="-94.482645"><ele>285.3</ele></trkpt>
<trkpt lat="37.403444" lon="-94.481470"><ele>287.0</ele></trkpt>
<trkpt lat="37.403259" lon="-94.474408"><ele>287.0</ele></trkpt>
<trkpt lat="37.403216" lon="-94.472552"><ele>288.5</ele></trkpt>
<trkpt lat="37.403178" lon="-94.471329"><ele>290.0</ele></trkpt>
<trkpt lat="37.403010" lon="-94.464398"><ele>293.0</ele></trkpt>
<trkpt lat="37.402648" lon="-94.452334"><ele>292.3</ele></trkpt>
<trkpt lat="37.402580" lon="-94.450346"><ele>293.1</ele></trkpt>
<trkpt lat="37.402506" lon="-94.447662"><ele>299.6</ele></trkpt>
<trkpt lat="37.402421" lon="-94.444245"><ele>296.4</ele></trkpt>
<trkpt lat="37.402372" lon="-94.442861"><ele>296.1</ele></trkpt>
<trkpt lat="37.402280" lon="-94.439167"><ele>296.1</ele></trkpt>
<trkpt lat="37.402166" lon="-94.435224"><ele>297.4</ele></trkpt>
<trkpt lat="37.402056" lon="-94.431978"><ele>298.0</ele></trkpt>
<trkpt lat="37.401891" lon="-94.427669"><ele>299.0</ele></trkpt>
<trkpt lat="37.401826" lon="-94.425618"><ele>298.1</ele></trkpt>
<trkpt lat="37.401780" lon="-94.423896"><ele>301.3</ele></trkpt>
<trkpt lat="37.401746" lon="-94.423043"><ele>306.1</ele></trkpt>
<trkpt lat="37.401641" lon="-94.419417"><ele>304.1</ele></trkpt>
<trkpt lat="37.401489" lon="-94.414534"><ele>298.8</ele></trkpt>
<trkpt lat="37.401357" lon="-94.409743"><ele>294.7</ele></trkpt>
<trkpt lat="37.401323" lon="-94.408837"><ele>295.7</ele></trkpt>
<trkpt lat="37.401278" lon="-94.406738"><ele>297.9</ele></trkpt>
<trkpt lat="37.401242" lon="-94.405710"><ele>298.8</ele></trkpt>
<trkpt lat="37.401148" lon="-94.401965"><ele>303.5</ele></trkpt>
<trkpt lat="37.401004" lon="-94.397022"><ele>307.0</ele></trkpt>
<trkpt lat="37.401003" lon="-94.396994"><ele>307.0</ele></trkpt>
<trkpt lat="37.400894" lon="-94.393102"><ele>297.7</ele></trkpt>
<trkpt lat="37.400865" lon="-94.392545"><ele>297.4</ele></trkpt>
<trkpt lat="37.400837" lon="-94.392234"><ele>297.2</ele></trkpt>
<trkpt lat="37.400793" lon="-94.391904"><ele>297.0</ele></trkpt>
<trkpt lat="37.400700" lon="-94.391342"><ele>297.0</ele></trkpt>
<trkpt lat="37.400642" lon="-94.391071"><ele>297.2</ele></trkpt>
<trkpt lat="37.400546" lon="-94.390429"><ele>298.1</ele></trkpt>
<trkpt lat="37.400512" lon="-94.389955"><ele>298.8</ele></trkpt>
<trkpt lat="37.400501" lon="-94.388373"><ele>302.1</ele></trkpt>
<trkpt lat="37.400506" lon="-94.387675"><ele>302.8</ele></trkpt>
<trkpt lat="37.400494" lon="-94.386791"><ele>301.7</ele></trkpt>
<trkpt lat="37.400477" lon="-94.380163"><ele>300.1</ele></trkpt>
<trkpt lat="37.400490" lon="-94.378924"><ele>300.6</ele></trkpt>
<trkpt lat="37.400483" lon="-94.374907"><ele>298.8</ele></trkpt>
<trkpt lat="37.400451" lon="-94.372489"><ele>298.1</ele></trkpt>
<trkpt lat="37.400383" lon="-94.369858"><ele>298.9</ele></trkpt>
<trkpt lat="37.400338" lon="-94.368957"><ele>298.8</ele></trkpt>
<trkpt lat="37.400302" lon="-94.367947"><ele>297.0</ele></trkpt>
<trkpt lat="37.400279" lon="-94.366879"><ele>293.2</ele></trkpt>
<trkpt lat="37.400184" lon="-94.363676"><ele>290.7</ele></trkpt>
<trkpt lat="37.399951" lon="-94.355835"><ele>301.5</ele></trkpt>
<trkpt lat="37.399796" lon="-94.349474"><ele>295.3</ele></trkpt>
<trkpt lat="37.399747" lon="-94.347910"><ele>293.2</ele></trkpt>
<trkpt lat="37.399695" lon="-94.345546"><ele>295.8</ele></trkpt>
<trkpt lat="37.399651" lon="-94.344229"><ele>297.3</ele></trkpt>
<trkpt lat="37.399616" lon="-94.342474"><ele>295.4</ele></trkpt>
<trkpt lat="37.399559" lon="-94.340544"><ele>295.7</ele></trkpt>
<trkpt lat="37.399530" lon="-94.338892"><ele>297.1</ele></trkpt>
<trkpt lat="37.399486" lon="-94.337180"><ele>296.4</ele></trkpt>
<trkpt lat="37.399475" lon="-94.336418"><ele>294.8</ele></trkpt>
<trkpt lat="37.399321" lon="-94.332135"><ele>299.2</ele></trkpt>
<trkpt lat="37.399241" lon="-94.329969"><ele>289.3</ele></trkpt>
<trkpt lat="37.399156" lon="-94.328220"><ele>285.0</ele></trkpt>
<trkpt lat="37.399016" lon="-94.324197"><ele>292.6</ele></trkpt>
<trkpt lat="37.398874" lon="-94.320564"><ele>283.2</ele></trkpt>
<trkpt lat="37.398766" lon="-94.318003"><ele>279.6</ele></trkpt>
<trkpt lat="37.398755" lon="-94.317113"><ele>278.9</ele></trkpt>
<trkpt lat="37.398731" lon="-94.316179"><ele>278.3</ele></trkpt>
<trkpt lat="37.398723" lon="-94.315006"><ele>278.0</ele></trkpt>
<trkpt lat="37.398696" lon="-94.313988"><ele>278.0</ele></trkpt>
<trkpt lat="37.398660" lon="-94.311138"><ele>278.5</ele></trkpt>
<trkpt lat="37.398645" lon="-94.310334"><ele>278.6</ele></trkpt>
<trkpt lat="37.398637" lon="-94.309811"><ele>279.0</ele></trkpt>
<trkpt lat="37.398618" lon="-94.309194"><ele>278.6</ele></trkpt>
<trkpt lat="37.398569" lon="-94.306256"><ele>277.9</ele></trkpt>
<trkpt lat="37.398536" lon="-94.304992"><ele>277.7</ele></trkpt>
<trkpt lat="37.398494" lon="-94.300793"><ele>285.8</ele></trkpt>
<trkpt lat="37.398263" lon="-94.300776"><ele>284.2</ele></trkpt>
<trkpt lat="37.398021" lon="-94.300719"><ele>283.3</ele></trkpt>
<trkpt lat="37.396460" lon="-94.300243"><ele>280.2</ele></trkpt>
<trkpt lat="37.396065" lon="-94.300158"><ele>280.2</ele></trkpt>
<trkpt lat="37.395682" lon="-94.300100"><ele>280.3</ele></trkpt>
<trkpt lat="37.394956" lon="-94.300041"><ele>280.7</ele></trkpt>
<trkpt lat="37.392282" lon="-94.300038"><ele>280.6</ele></trkpt>
<trkpt lat="37.389701" lon="-94.300071"><ele>281.3</ele></trkpt>
<trkpt lat="37.388890" lon="-94.300071"><ele>282.6</ele></trkpt>
<trkpt lat="37.386476" lon="-94.300098"><ele>286.4</ele></trkpt>
<trkpt lat="37.385101" lon="-94.300098"><ele>287.3</ele></trkpt>
<trkpt lat="37.382803" lon="-94.300126"><ele>288.0</ele></trkpt>
<trkpt lat="37.381636" lon="-94.300169"><ele>287.4</ele></trkpt>
<trkpt lat="37.378338" lon="-94.300263"><ele>286.1</ele></trkpt>
<trkpt lat="37.374994" lon="-94.300372"><ele>282.1</ele></trkpt>
<trkpt lat="37.373490" lon="-94.300406"><ele>282.9</ele></trkpt>
<trkpt lat="37.371706" lon="-94.300463"><ele>284.8</ele></trkpt>
<trkpt lat="37.369889" lon="-94.300539"><ele>286.0</ele></trkpt>
<trkpt lat="37.365690" lon="-94.300841"><ele>284.5</ele></trkpt>
<trkpt lat="37.364498" lon="-94.300889"><ele>283.0</ele></trkpt>
<trkpt lat="37.363470" lon="-94.300944"><ele>281.1</ele></trkpt>
<trkpt lat="37.360882" lon="-94.301048"><ele>281.0</ele></trkpt>
<trkpt lat="37.357275" lon="-94.301230"><ele>281.5</ele></trkpt>
<trkpt lat="37.356909" lon="-94.301239"><ele>281.7</ele></trkpt>
<trkpt lat="37.356504" lon="-94.301221"><ele>281.8</ele></trkpt>
<trkpt lat="37.356346" lon="-94.301203"><ele>281.9</ele></trkpt>
<trkpt lat="37.355881" lon="-94.301114"><ele>282.2</ele></trkpt>
<trkpt lat="37.355613" lon="-94.301030"><ele>282.5</ele></trkpt>
<trkpt lat="37.355225" lon="-94.300882"><ele>283.3</ele></trkpt>
<trkpt lat="37.354991" lon="-94.300771"><ele>283.9</ele></trkpt>
<trkpt lat="37.354737" lon="-94.300636"><ele>284.8</ele></trkpt>
<trkpt lat="37.353562" lon="-94.299914"><ele>287.1</ele></trkpt>
<trkpt lat="37.353102" lon="-94.299592"><ele>282.9</ele></trkpt>
<trkpt lat="37.351882" lon="-94.298852"><ele>282.3</ele></trkpt>
<trkpt lat="37.351138" lon="-94.298364"><ele>280.1</ele></trkpt>
<trkpt lat="37.349434" lon="-94.297247"><ele>279.7</ele></trkpt>
<trkpt lat="37.346687" lon="-94.295482"><ele>283.1</ele></trkpt>
<trkpt lat="37.344520" lon="-94.294112"><ele>287.0</ele></trkpt>
<trkpt lat="37.342791" lon="-94.292989"><ele>288.1</ele></trkpt>
<trkpt lat="37.342086" lon="-94.292681"><ele>288.2</ele></trkpt>
<trkpt lat="37.341142" lon="-94.292446"><ele>289.0</ele></trkpt>
<trkpt lat="37.340805" lon="-94.292404"><ele>289.3</ele></trkpt>
<trkpt lat="37.340355" lon="-94.292398"><ele>289.8</ele></trkpt>
<trkpt lat="37.334657" lon="-94.292567"><ele>290.6</ele></trkpt>
<trkpt lat="37.334344" lon="-94.292616"><ele>290.3</ele></trkpt>
<trkpt lat="37.333685" lon="-94.292809"><ele>289.9</ele></trkpt>
<trkpt lat="37.332918" lon="-94.293211"><ele>289.7</ele></trkpt>
<trkpt lat="37.332639" lon="-94.293429"><ele>289.8</ele></trkpt>
<trkpt lat="37.332337" lon="-94.293701"><ele>289.8</ele></trkpt>
<trkpt lat="37.332063" lon="-94.293979"><ele>289.9</ele></trkpt>
<trkpt lat="37.331397" lon="-94.294850"><ele>290.3</ele></trkpt>
<trkpt lat="37.331038" lon="-94.295398"><ele>290.5</ele></trkpt>
<trkpt lat="37.329358" lon="-94.298015"><ele>291.0</ele></trkpt>
<trkpt lat="37.328289" lon="-94.299547"><ele>289.8</ele></trkpt>
<trkpt lat="37.327562" lon="-94.300332"><ele>288.7</ele></trkpt>
<trkpt lat="37.326615" lon="-94.301115"><ele>287.3</ele></trkpt>
<trkpt lat="37.325706" lon="-94.301633"><ele>286.1</ele></trkpt>
<trkpt lat="37.325185" lon="-94.301859"><ele>285.5</ele></trkpt>
<trkpt lat="37.324739" lon="-94.302017"><ele>285.1</ele></trkpt>
<trkpt lat="37.324057" lon="-94.302210"><ele>284.7</ele></trkpt>
<trkpt lat="37.323246" lon="-94.302318"><ele>284.8</ele></trkpt>
<trkpt lat="37.322419" lon="-94.302360"><ele>283.9</ele></trkpt>
<trkpt lat="37.322086" lon="-94.302382"><ele>283.5</ele></trkpt>
<trkpt lat="37.304472" lon="-94.303140"><ele>303.0</ele></trkpt>
<trkpt lat="37.293128" lon="-94.303633"><ele>301.0</ele></trkpt>
<trkpt lat="37.290771" lon="-94.303760"><ele>300.8</ele></trkpt>
<trkpt lat="37.289758" lon="-94.303977"><ele>299.6</ele></trkpt>
<trkpt lat="37.288826" lon="-94.304294"><ele>298.1</ele></trkpt>
<trkpt lat="37.287128" lon="-94.305126"><ele>294.9</ele></trkpt>
<trkpt lat="37.286190" lon="-94.305544"><ele>293.0</ele></trkpt>
<trkpt lat="37.285366" lon="-94.305772"><ele>291.5</ele></trkpt>
<trkpt lat="37.284396" lon="-94.305916"><ele>290.3</ele></trkpt>
<trkpt lat="37.277284" lon="-94.306134"><ele>295.0</ele></trkpt>
<trkpt lat="37.270610" lon="-94.306305"><ele>278.8</ele></trkpt>
<trkpt lat="37.270082" lon="-94.306319"><ele>280.9</ele></trkpt>
<trkpt lat="37.264176" lon="-94.306473"><ele>283.0</ele></trkpt>
<trkpt lat="37.263624" lon="-94.306449"><ele>283.0</ele></trkpt>
<trkpt lat="37.263011" lon="-94.306368"><ele>282.9</ele></trkpt>
<trkpt lat="37.262315" lon="-94.306191"><ele>282.9</ele></trkpt>
<trkpt lat="37.262006" lon="-94.306093"><ele>282.9</ele></trkpt>
<trkpt lat="37.261160" lon="-94.305744"><ele>283.0</ele></trkpt>
<trkpt lat="37.260707" lon="-94.305474"><ele>283.2</ele></trkpt>
<trkpt lat="37.259206" lon="-94.304473"><ele>283.5</ele></trkpt>
<trkpt lat="37.258567" lon="-94.304151"><ele>283.4</ele></trkpt>
<trkpt lat="37.257394" lon="-94.303760"><ele>284.1</ele></trkpt>
<trkpt lat="37.255524" lon="-94.303509"><ele>286.8</ele></trkpt>
<trkpt lat="37.246676" lon="-94.302647"><ele>294.0</ele></trkpt>
<trkpt lat="37.242384" lon="-94.302420"><ele>295.5</ele></trkpt>
<trkpt lat="37.231321" lon="-94.302412"><ele>293.7</ele></trkpt>
<trkpt lat="37.230834" lon="-94.302411"><ele>294.2</ele></trkpt>
<trkpt lat="37.223403" lon="-94.302446"><ele>301.8</ele></trkpt>
<trkpt lat="37.211854" lon="-94.303283"><ele>312.0</ele></trkpt>
<trkpt lat="37.209944" lon="-94.303427"><ele>310.4</ele></trkpt>
<trkpt lat="37.209509" lon="-94.303485"><ele>309.9</ele></trkpt>
<trkpt lat="37.209129" lon="-94.303579"><ele>309.5</ele></trkpt>
<trkpt lat="37.208802" lon="-94.303692"><ele>309.2</ele></trkpt>
<trkpt lat="37.208409" lon="-94.303876"><ele>308.9</ele></trkpt>
<trkpt lat="37.208108" lon="-94.304058"><ele>308.7</ele></trkpt>
<trkpt lat="37.207880" lon="-94.304219"><ele>308.5</ele></trkpt>
<trkpt lat="37.207569" lon="-94.304465"><ele>308.3</ele></trkpt>
<trkpt lat="37.207353" lon="-94.304680"><ele>308.3</ele></trkpt>
<trkpt lat="37.207163" lon="-94.304889"><ele>308.5</ele></trkpt>
<trkpt lat="37.206928" lon="-94.305178"><ele>308.8</ele></trkpt>
<trkpt lat="37.206708" lon="-94.305501"><ele>309.2</ele></trkpt>
<trkpt lat="37.206492" lon="-94.305868"><ele>309.6</ele></trkpt>
<trkpt lat="37.206303" lon="-94.306259"><ele>309.8</ele></trkpt>
<trkpt lat="37.206113" lon="-94.306742"><ele>309.4</ele></trkpt>
<trkpt lat="37.206002" lon="-94.307110"><ele>310.3</ele></trkpt>
<trkpt lat="37.205906" lon="-94.307514"><ele>311.4</ele></trkpt>
<trkpt lat="37.205828" lon="-94.307960"><ele>312.5</ele></trkpt>
<trkpt lat="37.205776" lon="-94.308455"><ele>313.7</ele></trkpt>
<trkpt lat="37.205756" lon="-94.309055"><ele>313.9</ele></trkpt>
<trkpt lat="37.205768" lon="-94.316591"><ele>311.6</ele></trkpt>
<trkpt lat="37.205755" lon="-94.317066"><ele>311.2</ele></trkpt>
<trkpt lat="37.205725" lon="-94.317618"><ele>310.8</ele></trkpt>
<trkpt lat="37.205682" lon="-94.318183"><ele>310.3</ele></trkpt>
<trkpt lat="37.205519" lon="-94.319647"><ele>309.1</ele></trkpt>
<trkpt lat="37.204665" lon="-94.326489"><ele>312.7</ele></trkpt>
<trkpt lat="37.204576" lon="-94.327176"><ele>312.7</ele></trkpt>
<trkpt lat="37.204187" lon="-94.330229"><ele>312.0</ele></trkpt>
<trkpt lat="37.204081" lon="-94.330943"><ele>311.5</ele></trkpt>
<trkpt lat="37.203950" lon="-94.331461"><ele>311.1</ele></trkpt>
<trkpt lat="37.203818" lon="-94.331873"><ele>310.6</ele></trkpt>
<trkpt lat="37.203686" lon="-94.332253"><ele>310.1</ele></trkpt>
<trkpt lat="37.203445" lon="-94.332775"><ele>309.2</ele></trkpt>
<trkpt lat="37.203191" lon="-94.333183"><ele>308.2</ele></trkpt>
<trkpt lat="37.202890" lon="-94.333622"><ele>307.2</ele></trkpt>
<trkpt lat="37.202640" lon="-94.333928"><ele>306.5</ele></trkpt>
<trkpt lat="37.202370" lon="-94.334200"><ele>305.9</ele></trkpt>
<trkpt lat="37.202065" lon="-94.334452"><ele>305.4</ele></trkpt>
<trkpt lat="37.201852" lon="-94.334614"><ele>305.0</ele></trkpt>
<trkpt lat="37.201544" lon="-94.334805"><ele>304.5</ele></trkpt>
<trkpt lat="37.201248" lon="-94.334966"><ele>304.0</ele></trkpt>
<trkpt lat="37.200951" lon="-94.335097"><ele>303.5</ele></trkpt>
<trkpt lat="37.200716" lon="-94.335185"><ele>303.2</ele></trkpt>
<trkpt lat="37.200450" lon="-94.335261"><ele>302.8</ele></trkpt>
<trkpt lat="37.200213" lon="-94.335309"><ele>302.5</ele></trkpt>
<trkpt lat="37.199917" lon="-94.335338"><ele>302.1</ele></trkpt>
<trkpt lat="37.199611" lon="-94.335356"><ele>301.6</ele></trkpt>
<trkpt lat="37.199317" lon="-94.335338"><ele>301.1</ele></trkpt>
<trkpt lat="37.195034" lon="-94.334987"><ele>294.0</ele></trkpt>
<trkpt lat="37.194599" lon="-94.334945"><ele>292.9</ele></trkpt>
<trkpt lat="37.185158" lon="-94.334146"><ele>286.3</ele></trkpt>
<trkpt lat="37.181462" lon="-94.333860"><ele>285.7</ele></trkpt>
<trkpt lat="37.181204" lon="-94.333856"><ele>291.9</ele></trkpt>
<trkpt lat="37.180966" lon="-94.333922"><ele>293.6</ele></trkpt>
<trkpt lat="37.180799" lon="-94.333954"><ele>294.0</ele></trkpt>
<trkpt lat="37.180489" lon="-94.333996"><ele>294.0</ele></trkpt>
<trkpt lat="37.179656" lon="-94.334158"><ele>292.9</ele></trkpt>
<trkpt lat="37.179289" lon="-94.334230"><ele>292.4</ele></trkpt>
<trkpt lat="37.178807" lon="-94.334254"><ele>292.9</ele></trkpt>
<trkpt lat="37.178802" lon="-94.332703"><ele>291.3</ele></trkpt>
<trkpt lat="37.178804" lon="-94.331130"><ele>289.5</ele></trkpt>
<trkpt lat="37.178842" lon="-94.329876"><ele>288.5</ele></trkpt>
<trkpt lat="37.178883" lon="-94.329535"><ele>289.0</ele></trkpt>
<trkpt lat="37.178879" lon="-94.327402"><ele>297.0</ele></trkpt>
<trkpt lat="37.178871" lon="-94.327098"><ele>297.0</ele></trkpt>
<trkpt lat="37.178874" lon="-94.325919"><ele>298.5</ele></trkpt>
<trkpt lat="37.178857" lon="-94.323843"><ele>300.0</ele></trkpt>
<trkpt lat="37.178766" lon="-94.318521"><ele>292.9</ele></trkpt>
<trkpt lat="37.178683" lon="-94.313932"><ele>301.0</ele></trkpt>
<trkpt lat="37.177111" lon="-94.313983"><ele>299.2</ele></trkpt>
<trkpt lat="37.175906" lon="-94.314031"><ele>300.1</ele></trkpt>
<trkpt lat="37.175908" lon="-94.314135"><ele>300.4</ele></trkpt>
<trkpt lat="37.175908" lon="-94.314136"><ele>300.4</ele></trkpt>
</trkseg></trk>
</gpx>