<?xml version="1.0" encoding="UTF-8" standalone="no" ?><gpx xmlns="http://www.topografix.com/GPX/1/1" xmlns:xsi="http://www.w3.org/2001/XMLSchema-instance" creator="GraphHopper" version="1.1" xmlns:gh="https://graphhopper.com/public/schema/gpx/1.1">
<metadata><copyright author="OpenStreetMap contributors"/><link href="http://graphhopper.com"><text>GraphHopper GPX</text></link><time>2026-04-19T19:12:24.970Z</time></metadata>
<trk>
<name>GraphHopper Track</name><desc></desc>
<trkseg><trkpt lat="43.852018" lon="-91.266630"><ele>206.5</ele></trkpt>
<trkpt lat="43.851798" lon="-91.266564"><ele>206.0</ele></trkpt>
<trkpt lat="43.851608" lon="-91.267557"><ele>201.6</ele></trkpt>
<trkpt lat="43.851573" lon="-91.267827"><ele>198.6</ele></trkpt>
<trkpt lat="43.854223" lon="-91.268642"><ele>206.2</ele></trkpt>
<trkpt lat="43.854393" lon="-91.268717"><ele>206.1</ele></trkpt>
<trkpt lat="43.855672" lon="-91.269541"><ele>204.2</ele></trkpt>
<trkpt lat="43.855862" lon="-91.269645"><ele>205.4</ele></trkpt>
<trkpt lat="43.856032" lon="-91.269719"><ele>205.3</ele></trkpt>
<trkpt lat="43.856168" lon="-91.269744"><ele>205.2</ele></trkpt>
<trkpt lat="43.857737" lon="-91.269742"><ele>200.9</ele></trkpt>
<trkpt lat="43.859939" lon="-91.269781"><ele>202.2</ele></trkpt>
<trkpt lat="43.860601" lon="-91.269791"><ele>203.2</ele></trkpt>
<trkpt lat="43.864287" lon="-91.269820"><ele>201.8</ele></trkpt>
<trkpt lat="43.865220" lon="-91.269845"><ele>202.7</ele></trkpt>
<trkpt lat="43.865315" lon="-91.268463"><ele>202.1</ele></trkpt>
<trkpt lat="43.865330" lon="-91.268142"><ele>201.5</ele></trkpt>
<trkpt lat="43.865389" lon="-91.267111"><ele>201.0</ele></trkpt>
<trkpt lat="43.865555" lon="-91.263935"><ele>202.0</ele></trkpt>
<trkpt lat="43.865868" lon="-91.257560"><ele>196.9</ele></trkpt>
<trkpt lat="43.865931" lon="-91.256323"><ele>196.3</ele></trkpt>
<trkpt lat="43.865980" lon="-91.255144"><ele>197.0</ele></trkpt>
<trkpt lat="43.865236" lon="-91.255190"><ele>197.0</ele></trkpt>
<trkpt lat="43.864992" lon="-91.255244"><ele>197.1</ele></trkpt>
<trkpt lat="43.864331" lon="-91.255297"><ele>198.5</ele></trkpt>
<trkpt lat="43.863926" lon="-91.255349"><ele>198.9</ele></trkpt>
<trkpt lat="43.863175" lon="-91.255403"><ele>201.8</ele></trkpt>
<trkpt lat="43.863162" lon="-91.255737"><ele>201.0</ele></trkpt>
<trkpt lat="43.863116" lon="-91.256344"><ele>200.2</ele></trkpt>
<trkpt lat="43.863058" lon="-91.256593"><ele>200.0</ele></trkpt>
<trkpt lat="43.862977" lon="-91.256799"><ele>199.8</ele></trkpt>
<trkpt lat="43.862914" lon="-91.256900"><ele>199.6</ele></trkpt>
<trkpt lat="43.862789" lon="-91.257038"><ele>199.4</ele></trkpt>
<trkpt lat="43.862680" lon="-91.257122"><ele>199.3</ele></trkpt>
<trkpt lat="43.862146" lon="-91.257486"><ele>198.6</ele></trkpt>
<trkpt lat="43.862033" lon="-91.257603"><ele>198.5</ele></trkpt>
<trkpt lat="43.861920" lon="-91.257739"><ele>198.3</ele></trkpt>
<trkpt lat="43.861817" lon="-91.257884"><ele>198.2</ele></trkpt>
<trkpt lat="43.861716" lon="-91.258067"><ele>198.2</ele></trkpt>
<trkpt lat="43.861623" lon="-91.258294"><ele>198.3</ele></trkpt>
<trkpt lat="43.861540" lon="-91.258550"><ele>198.5</ele></trkpt>
<trkpt lat="43.861470" lon="-91.258816"><ele>198.7</ele></trkpt>
<trkpt lat="43.861420" lon="-91.259087"><ele>199.0</ele></trkpt>
<trkpt lat="43.861356" lon="-91.259605"><ele>199.4</ele></trkpt>
<trkpt lat="43.861236" lon="-91.260717"><ele>199.7</ele></trkpt>
<trkpt lat="43.861116" lon="-91.261584"><ele>200.3</ele></trkpt>
<trkpt lat="43.861050" lon="-91.262455"><ele>200.3</ele></trkpt>
<trkpt lat="43.860217" lon="-91.272445"><ele>194.5</ele></trkpt>
<trkpt lat="43.860173" lon="-91.272962"><ele>195.9</ele></trkpt>
<trkpt lat="43.859361" lon="-91.282620"><ele>194.8</ele></trkpt>
<trkpt lat="43.859181" lon="-91.284728"><ele>195.7</ele></trkpt>
<trkpt lat="43.859056" lon="-91.286334"><ele>196.2</ele></trkpt>
<trkpt lat="43.859009" lon="-91.287298"><ele>196.0</ele></trkpt>
<trkpt lat="43.858866" lon="-91.290952"><ele>199.6</ele></trkpt>
<trkpt lat="43.858772" lon="-91.292481"><ele>199.3</ele></trkpt>
<trkpt lat="43.858076" lon="-91.301127"><ele>208.8</ele></trkpt>
<trkpt lat="43.858080" lon="-91.302227"><ele>208.7</ele></trkpt>
<trkpt lat="43.858082" lon="-91.302744"><ele>213.4</ele></trkpt>
<trkpt lat="43.858125" lon="-91.303370"><ele>212.9</ele></trkpt>
<trkpt lat="43.858172" lon="-91.303673"><ele>212.6</ele></trkpt>
<trkpt lat="43.858234" lon="-91.303991"><ele>211.2</ele></trkpt>
<trkpt lat="43.858295" lon="-91.304222"><ele>210.5</ele></trkpt>
<trkpt lat="43.858390" lon="-91.304476"><ele>210.8</ele></trkpt>
<trkpt lat="43.858421" lon="-91.304604"><ele>210.8</ele></trkpt>
<trkpt lat="43.858528" lon="-91.304897"><ele>210.1</ele></trkpt>
<trkpt lat="43.858852" lon="-91.305708"><ele>209.8</ele></trkpt>
<trkpt lat="43.858893" lon="-91.305833"><ele>209.7</ele></trkpt>
<trkpt lat="43.858921" lon="-91.305965"><ele>209.6</ele></trkpt>
<trkpt lat="43.858936" lon="-91.306098"><ele>209.5</ele></trkpt>
<trkpt lat="43.858936" lon="-91.306266"><ele>209.4</ele></trkpt>
<trkpt lat="43.858912" lon="-91.306430"><ele>209.3</ele></trkpt>
<trkpt lat="43.858879" lon="-91.306567"><ele>209.2</ele></trkpt>
<trkpt lat="43.858827" lon="-91.306699"><ele>209.1</ele></trkpt>
<trkpt lat="43.858768" lon="-91.306829"><ele>209.0</ele></trkpt>
<trkpt lat="43.858697" lon="-91.306939"><ele>208.9</ele></trkpt>
<trkpt lat="43.858633" lon="-91.307011"><ele>208.9</ele></trkpt>
<trkpt lat="43.858489" lon="-91.307124"><ele>208.8</ele></trkpt>
<trkpt lat="43.858311" lon="-91.307195"><ele>208.7</ele></trkpt>
<trkpt lat="43.858122" lon="-91.307206"><ele>208.6</ele></trkpt>
<trkpt lat="43.857992" lon="-91.307185"><ele>208.5</ele></trkpt>
<trkpt lat="43.857878" lon="-91.307138"><ele>208.4</ele></trkpt>
<trkpt lat="43.857800" lon="-91.307085"><ele>208.3</ele></trkpt>
<trkpt lat="43.857739" lon="-91.307034"><ele>209.3</ele></trkpt>
<trkpt lat="43.857688" lon="-91.306977"><ele>209.9</ele></trkpt>
<trkpt lat="43.857587" lon="-91.306835"><ele>210.5</ele></trkpt>
<trkpt lat="43.857104" lon="-91.306021"><ele>210.3</ele></trkpt>
<trkpt lat="43.856910" lon="-91.305731"><ele>210.0</ele></trkpt>
<trkpt lat="43.856624" lon="-91.305355"><ele>209.8</ele></trkpt>
<trkpt lat="43.856420" lon="-91.305115"><ele>210.3</ele></trkpt>
<trkpt lat="43.855842" lon="-91.304489"><ele>211.4</ele></trkpt>
<trkpt lat="43.855672" lon="-91.304284"><ele>211.8</ele></trkpt>
<trkpt lat="43.854898" lon="-91.303285"><ele>213.7</ele></trkpt>
<trkpt lat="43.854335" lon="-91.302615"><ele>214.5</ele></trkpt>
<trkpt lat="43.854148" lon="-91.302366"><ele>213.9</ele></trkpt>
<trkpt lat="43.853933" lon="-91.302120"><ele>213.9</ele></trkpt>
<trkpt lat="43.853462" lon="-91.301591"><ele>212.5</ele></trkpt>
<trkpt lat="43.853012" lon="-91.301115"><ele>212.0</ele></trkpt>
<trkpt lat="43.852849" lon="-91.300960"><ele>211.8</ele></trkpt>
<trkpt lat="43.852507" lon="-91.300647"><ele>211.2</ele></trkpt>
<trkpt lat="43.852010" lon="-91.300237"><ele>210.9</ele></trkpt>
<trkpt lat="43.851186" lon="-91.299668"><ele>210.4</ele></trkpt>
<trkpt lat="43.850780" lon="-91.299432"><ele>209.9</ele></trkpt>
<trkpt lat="43.850270" lon="-91.299177"><ele>209.3</ele></trkpt>
<trkpt lat="43.849910" lon="-91.299015"><ele>208.9</ele></trkpt>
<trkpt lat="43.849603" lon="-91.298900"><ele>208.8</ele></trkpt>
<trkpt lat="43.849207" lon="-91.298768"><ele>208.6</ele></trkpt>
<trkpt lat="43.848797" lon="-91.298650"><ele>208.3</ele></trkpt>
<trkpt lat="43.847755" lon="-91.298386"><ele>208.9</ele></trkpt>
<trkpt lat="43.847328" lon="-91.298293"><ele>209.2</ele></trkpt>
<trkpt lat="43.846802" lon="-91.298194"><ele>209.4</ele></trkpt>
<trkpt lat="43.846378" lon="-91.298126"><ele>210.0</ele></trkpt>
<trkpt lat="43.845954" lon="-91.298076"><ele>211.5</ele></trkpt>
<trkpt lat="43.845214" lon="-91.298017"><ele>213.2</ele></trkpt>
<trkpt lat="43.844755" lon="-91.297993"><ele>213.2</ele></trkpt>
<trkpt lat="43.843874" lon="-91.297999"><ele>212.3</ele></trkpt>
<trkpt lat="43.843320" lon="-91.298020"><ele>212.1</ele></trkpt>
<trkpt lat="43.842353" lon="-91.298120"><ele>210.3</ele></trkpt>
<trkpt lat="43.838050" lon="-91.298757"><ele>206.2</ele></trkpt>
<trkpt lat="43.837447" lon="-91.298870"><ele>204.8</ele></trkpt>
<trkpt lat="43.837087" lon="-91.298978"><ele>204.7</ele></trkpt>
<trkpt lat="43.836662" lon="-91.299143"><ele>205.1</ele></trkpt>
<trkpt lat="43.836235" lon="-91.299345"><ele>205.0</ele></trkpt>
<trkpt lat="43.835843" lon="-91.299589"><ele>203.3</ele></trkpt>
<trkpt lat="43.835408" lon="-91.299906"><ele>202.5</ele></trkpt>
<trkpt lat="43.835025" lon="-91.300228"><ele>201.8</ele></trkpt>
<trkpt lat="43.834754" lon="-91.300454"><ele>201.9</ele></trkpt>
<trkpt lat="43.834451" lon="-91.300723"><ele>202.6</ele></trkpt>
<trkpt lat="43.833641" lon="-91.301398"><ele>205.0</ele></trkpt>
<trkpt lat="43.833422" lon="-91.301561"><ele>205.6</ele></trkpt>
<trkpt lat="43.833153" lon="-91.301746"><ele>206.2</ele></trkpt>
<trkpt lat="43.832541" lon="-91.302038"><ele>206.9</ele></trkpt>
<trkpt lat="43.832300" lon="-91.302108"><ele>207.1</ele></trkpt>
<trkpt lat="43.832098" lon="-91.302148"><ele>207.5</ele></trkpt>
<trkpt lat="43.831765" lon="-91.302174"><ele>207.9</ele></trkpt>
<trkpt lat="43.831048" lon="-91.302148"><ele>208.0</ele></trkpt>
<trkpt lat="43.829907" lon="-91.302149"><ele>205.1</ele></trkpt>
<trkpt lat="43.829737" lon="-91.302158"><ele>204.7</ele></trkpt>
<trkpt lat="43.829448" lon="-91.302203"><ele>203.9</ele></trkpt>
<trkpt lat="43.829204" lon="-91.302269"><ele>203.3</ele></trkpt>
<trkpt lat="43.828621" lon="-91.302502"><ele>203.2</ele></trkpt>
<trkpt lat="43.828396" lon="-91.302619"><ele>203.6</ele></trkpt>
<trkpt lat="43.826934" lon="-91.303307"><ele>207.7</ele></trkpt>
<trkpt lat="43.826009" lon="-91.303785"><ele>209.0</ele></trkpt>
<trkpt lat="43.825761" lon="-91.303896"><ele>208.8</ele></trkpt>
<trkpt lat="43.824847" lon="-91.304347"><ele>207.0</ele></trkpt>
<trkpt lat="43.823677" lon="-91.304802"><ele>204.7</ele></trkpt>
<trkpt lat="43.823095" lon="-91.304959"><ele>203.6</ele></trkpt>
<trkpt lat="43.822522" lon="-91.305098"><ele>202.2</ele></trkpt>
<trkpt lat="43.821471" lon="-91.305284"><ele>200.2</ele></trkpt>
<trkpt lat="43.818741" lon="-91.305590"><ele>198.4</ele></trkpt>
<trkpt lat="43.816907" lon="-91.305725"><ele>198.5</ele></trkpt>
<trkpt lat="43.816027" lon="-91.305768"><ele>198.1</ele></trkpt>
<trkpt lat="43.815523" lon="-91.305744"><ele>198.0</ele></trkpt>
<trkpt lat="43.814805" lon="-91.305616"><ele>197.5</ele></trkpt>
<trkpt lat="43.813674" lon="-91.305380"><ele>196.8</ele></trkpt>
<trkpt lat="43.813028" lon="-91.305378"><ele>196.1</ele></trkpt>
<trkpt lat="43.811906" lon="-91.305418"><ele>195.8</ele></trkpt>
<trkpt lat="43.811262" lon="-91.305390"><ele>197.1</ele></trkpt>
<trkpt lat="43.810823" lon="-91.305299"><ele>197.7</ele></trkpt>
<trkpt lat="43.810369" lon="-91.305145"><ele>198.2</ele></trkpt>
<trkpt lat="43.808740" lon="-91.304391"><ele>200.2</ele></trkpt>
<trkpt lat="43.805542" lon="-91.302857"><ele>202.4</ele></trkpt>
<trkpt lat="43.804414" lon="-91.302342"><ele>205.1</ele></trkpt>
<trkpt lat="43.803834" lon="-91.302108"><ele>205.7</ele></trkpt>
<trkpt lat="43.802839" lon="-91.301781"><ele>204.9</ele></trkpt>
<trkpt lat="43.801739" lon="-91.301484"><ele>202.5</ele></trkpt>
<trkpt lat="43.800929" lon="-91.301311"><ele>200.9</ele></trkpt>
<trkpt lat="43.800393" lon="-91.301214"><ele>200.3</ele></trkpt>
<trkpt lat="43.799484" lon="-91.301096"><ele>200.6</ele></trkpt>
<trkpt lat="43.796504" lon="-91.300564"><ele>200.3</ele></trkpt>
<trkpt lat="43.796169" lon="-91.300493"><ele>200.5</ele></trkpt>
<trkpt lat="43.795879" lon="-91.300457"><ele>200.6</ele></trkpt>
<trkpt lat="43.795555" lon="-91.300441"><ele>200.5</ele></trkpt>
<trkpt lat="43.795266" lon="-91.300440"><ele>200.3</ele></trkpt>
<trkpt lat="43.794952" lon="-91.300475"><ele>200.1</ele></trkpt>
<trkpt lat="43.794639" lon="-91.300539"><ele>200.0</ele></trkpt>
<trkpt lat="43.794314" lon="-91.300642"><ele>199.9</ele></trkpt>
<trkpt lat="43.794025" lon="-91.300770"><ele>199.9</ele></trkpt>
<trkpt lat="43.793699" lon="-91.300949"><ele>199.9</ele></trkpt>
<trkpt lat="43.793371" lon="-91.301150"><ele>199.8</ele></trkpt>
<trkpt lat="43.793078" lon="-91.301386"><ele>199.5</ele></trkpt>
<trkpt lat="43.792738" lon="-91.301690"><ele>199.2</ele></trkpt>
<trkpt lat="43.792446" lon="-91.302018"><ele>198.7</ele></trkpt>
<trkpt lat="43.792266" lon="-91.302238"><ele>198.6</ele></trkpt>
<trkpt lat="43.792067" lon="-91.302512"><ele>198.4</ele></trkpt>
<trkpt lat="43.791911" lon="-91.302759"><ele>198.3</ele></trkpt>
<trkpt lat="43.791752" lon="-91.303042"><ele>198.1</ele></trkpt>
<trkpt lat="43.791597" lon="-91.303348"><ele>198.0</ele></trkpt>
<trkpt lat="43.791135" lon="-91.304490"><ele>197.6</ele></trkpt>
<trkpt lat="43.790841" lon="-91.305777"><ele>196.8</ele></trkpt>
<trkpt lat="43.789493" lon="-91.312451"><ele>197.4</ele></trkpt>
<trkpt lat="43.789300" lon="-91.313502"><ele>197.7</ele></trkpt>
<trkpt lat="43.789168" lon="-91.314693"><ele>198.0</ele></trkpt>
<trkpt lat="43.789083" lon="-91.315948"><ele>197.8</ele></trkpt>
<trkpt lat="43.789009" lon="-91.318186"><ele>197.6</ele></trkpt>
<trkpt lat="43.788964" lon="-91.318741"><ele>197.6</ele></trkpt>
<trkpt lat="43.788906" lon="-91.319265"><ele>198.0</ele></trkpt>
<trkpt lat="43.788827" lon="-91.319821"><ele>198.4</ele></trkpt>
<trkpt lat="43.788707" lon="-91.320419"><ele>198.6</ele></trkpt>
<trkpt lat="43.788578" lon="-91.321020"><ele>198.9</ele></trkpt>
<trkpt lat="43.785961" lon="-91.329016"><ele>197.6</ele></trkpt>
<trkpt lat="43.785512" lon="-91.330346"><ele>197.7</ele></trkpt>
<trkpt lat="43.784993" lon="-91.331580"><ele>198.4</ele></trkpt>
<trkpt lat="43.784544" lon="-91.332492"><ele>198.8</ele></trkpt>
<trkpt lat="43.784102" lon="-91.333243"><ele>199.4</ele></trkpt>
<trkpt lat="43.783529" lon="-91.334123"><ele>199.4</ele></trkpt>
<trkpt lat="43.782894" lon="-91.334960"><ele>199.4</ele></trkpt>
<trkpt lat="43.782151" lon="-91.335786"><ele>199.8</ele></trkpt>
<trkpt lat="43.781546" lon="-91.336398"><ele>198.8</ele></trkpt>
<trkpt lat="43.781074" lon="-91.336784"><ele>197.9</ele></trkpt>
<trkpt lat="43.780508" lon="-91.337202"><ele>197.4</ele></trkpt>
<trkpt lat="43.779920" lon="-91.337578"><ele>196.9</ele></trkpt>
<trkpt lat="43.777518" lon="-91.338985"><ele>198.1</ele></trkpt>
<trkpt lat="43.776039" lon="-91.339852"><ele>198.4</ele></trkpt>
<trkpt lat="43.774915" lon="-91.340507"><ele>198.7</ele></trkpt>
<trkpt lat="43.772483" lon="-91.341955"><ele>197.9</ele></trkpt>
<trkpt lat="43.771871" lon="-91.342309"><ele>197.4</ele></trkpt>
<trkpt lat="43.771011" lon="-91.342824"><ele>197.8</ele></trkpt>
<trkpt lat="43.770104" lon="-91.343350"><ele>198.3</ele></trkpt>
<trkpt lat="43.769206" lon="-91.343897"><ele>198.8</ele></trkpt>
<trkpt lat="43.768539" lon="-91.344272"><ele>199.1</ele></trkpt>
<trkpt lat="43.767950" lon="-91.344541"><ele>199.2</ele></trkpt>
<trkpt lat="43.767183" lon="-91.344777"><ele>199.8</ele></trkpt>
<trkpt lat="43.766463" lon="-91.344927"><ele>200.6</ele></trkpt>
<trkpt lat="43.765835" lon="-91.345024"><ele>200.3</ele></trkpt>
<trkpt lat="43.765185" lon="-91.345090"><ele>200.1</ele></trkpt>
<trkpt lat="43.765022" lon="-91.345099"><ele>200.7</ele></trkpt>
<trkpt lat="43.765092" lon="-91.344702"><ele>199.5</ele></trkpt>
<trkpt lat="43.765178" lon="-91.344466"><ele>199.0</ele></trkpt>
<trkpt lat="43.765295" lon="-91.344200"><ele>198.3</ele></trkpt>
<trkpt lat="43.765396" lon="-91.344000"><ele>197.6</ele></trkpt>
<trkpt lat="43.765700" lon="-91.343520"><ele>198.2</ele></trkpt>
<trkpt lat="43.765848" lon="-91.343291"><ele>200.0</ele></trkpt>
<trkpt lat="43.766229" lon="-91.342635"><ele>201.1</ele></trkpt>
<trkpt lat="43.766466" lon="-91.342161"><ele>201.7</ele></trkpt>
<trkpt lat="43.767007" lon="-91.340994"><ele>202.2</ele></trkpt>
<trkpt lat="43.767242" lon="-91.340454"><ele>202.2</ele></trkpt>
<trkpt lat="43.767433" lon="-91.339954"><ele>202.1</ele></trkpt>
<trkpt lat="43.767608" lon="-91.339433"><ele>201.8</ele></trkpt>
<trkpt lat="43.768841" lon="-91.335486"><ele>200.7</ele></trkpt>
<trkpt lat="43.769017" lon="-91.335035"><ele>201.5</ele></trkpt>
<trkpt lat="43.769172" lon="-91.334722"><ele>201.9</ele></trkpt>
<trkpt lat="43.769276" lon="-91.334541"><ele>202.1</ele></trkpt>
<trkpt lat="43.769439" lon="-91.334292"><ele>202.3</ele></trkpt>
<trkpt lat="43.769579" lon="-91.334108"><ele>202.4</ele></trkpt>
<trkpt lat="43.771187" lon="-91.332133"><ele>198.4</ele></trkpt>
<trkpt lat="43.771424" lon="-91.331754"><ele>198.0</ele></trkpt>
<trkpt lat="43.771559" lon="-91.331467"><ele>198.0</ele></trkpt>
<trkpt lat="43.771619" lon="-91.331314"><ele>197.9</ele></trkpt>
<trkpt lat="43.771731" lon="-91.330962"><ele>197.7</ele></trkpt>
<trkpt lat="43.771802" lon="-91.330646"><ele>197.6</ele></trkpt>
<trkpt lat="43.771854" lon="-91.330278"><ele>197.4</ele></trkpt>
<trkpt lat="43.771874" lon="-91.329938"><ele>197.3</ele></trkpt>
<trkpt lat="43.771872" lon="-91.329707"><ele>197.3</ele></trkpt>
<trkpt lat="43.771859" lon="-91.329479"><ele>197.4</ele></trkpt>
<trkpt lat="43.771789" lon="-91.328673"><ele>197.7</ele></trkpt>
<trkpt lat="43.771714" lon="-91.328032"><ele>197.7</ele></trkpt>
<trkpt lat="43.771629" lon="-91.327548"><ele>197.5</ele></trkpt>
<trkpt lat="43.771136" lon="-91.325165"><ele>197.3</ele></trkpt>
<trkpt lat="43.771071" lon="-91.324631"><ele>197.3</ele></trkpt>
<trkpt lat="43.771059" lon="-91.324329"><ele>197.3</ele></trkpt>
<trkpt lat="43.771067" lon="-91.324034"><ele>197.3</ele></trkpt>
<trkpt lat="43.771096" lon="-91.323713"><ele>197.3</ele></trkpt>
<trkpt lat="43.771239" lon="-91.322524"><ele>197.1</ele></trkpt>
<trkpt lat="43.771266" lon="-91.322190"><ele>196.9</ele></trkpt>
<trkpt lat="43.771275" lon="-91.321870"><ele>196.8</ele></trkpt>
<trkpt lat="43.771286" lon="-91.320059"><ele>197.3</ele></trkpt>
<trkpt lat="43.771347" lon="-91.319356"><ele>197.5</ele></trkpt>
<trkpt lat="43.771443" lon="-91.318740"><ele>197.7</ele></trkpt>
<trkpt lat="43.771743" lon="-91.317316"><ele>198.7</ele></trkpt>
<trkpt lat="43.771854" lon="-91.316848"><ele>198.1</ele></trkpt>
<trkpt lat="43.772042" lon="-91.316174"><ele>197.7</ele></trkpt>
<trkpt lat="43.772236" lon="-91.315606"><ele>197.6</ele></trkpt>
<trkpt lat="43.772484" lon="-91.315069"><ele>197.8</ele></trkpt>
<trkpt lat="43.773465" lon="-91.313241"><ele>197.5</ele></trkpt>
<trkpt lat="43.773621" lon="-91.312923"><ele>197.7</ele></trkpt>
<trkpt lat="43.773738" lon="-91.312646"><ele>197.8</ele></trkpt>
<trkpt lat="43.773840" lon="-91.312358"><ele>198.1</ele></trkpt>
<trkpt lat="43.773919" lon="-91.312093"><ele>198.3</ele></trkpt>
<trkpt lat="43.774028" lon="-91.311618"><ele>199.2</ele></trkpt>
<trkpt lat="43.774096" lon="-91.311160"><ele>200.4</ele></trkpt>
<trkpt lat="43.774128" lon="-91.310747"><ele>201.4</ele></trkpt>
<trkpt lat="43.774132" lon="-91.310265"><ele>202.6</ele></trkpt>
<trkpt lat="43.774103" lon="-91.309601"><ele>203.2</ele></trkpt>
<trkpt lat="43.774076" lon="-91.309191"><ele>203.3</ele></trkpt>
<trkpt lat="43.774010" lon="-91.308436"><ele>203.7</ele></trkpt>
<trkpt lat="43.773896" lon="-91.307485"><ele>203.3</ele></trkpt>
<trkpt lat="43.773297" lon="-91.303633"><ele>197.1</ele></trkpt>
<trkpt lat="43.773121" lon="-91.303056"><ele>196.5</ele></trkpt>
<trkpt lat="43.772456" lon="-91.301151"><ele>196.0</ele></trkpt>
<trkpt lat="43.772114" lon="-91.300173"><ele>195.7</ele></trkpt>
<trkpt lat="43.771981" lon="-91.299764"><ele>195.7</ele></trkpt>
<trkpt lat="43.771886" lon="-91.299417"><ele>195.8</ele></trkpt>
<trkpt lat="43.771666" lon="-91.298434"><ele>196.1</ele></trkpt>
<trkpt lat="43.771422" lon="-91.296963"><ele>196.3</ele></trkpt>
<trkpt lat="43.771345" lon="-91.296272"><ele>196.5</ele></trkpt>
<trkpt lat="43.771325" lon="-91.295677"><ele>196.8</ele></trkpt>
<trkpt lat="43.771616" lon="-91.295836"><ele>195.8</ele></trkpt>
<trkpt lat="43.771947" lon="-91.295989"><ele>195.4</ele></trkpt>
<trkpt lat="43.772262" lon="-91.296120"><ele>195.1</ele></trkpt>
<trkpt lat="43.776374" lon="-91.297665"><ele>196.0</ele></trkpt>
<trkpt lat="43.777179" lon="-91.297973"><ele>196.0</ele></trkpt>
<trkpt lat="43.777654" lon="-91.298121"><ele>197.9</ele></trkpt>
<trkpt lat="43.789343" lon="-91.302511"><ele>195.0</ele></trkpt>
<trkpt lat="43.790537" lon="-91.302940"><ele>195.8</ele></trkpt>
<trkpt lat="43.791597" lon="-91.303348"><ele>198.0</ele></trkpt>
<trkpt lat="43.791752" lon="-91.303042"><ele>198.1</ele></trkpt>
<trkpt lat="43.791911" lon="-91.302759"><ele>198.3</ele></trkpt>
<trkpt lat="43.792067" lon="-91.302512"><ele>198.4</ele></trkpt>
<trkpt lat="43.792266" lon="-91.302238"><ele>198.6</ele></trkpt>
<trkpt lat="43.792446" lon="-91.302018"><ele>198.7</ele></trkpt>
<trkpt lat="43.792738" lon="-91.301690"><ele>199.2</ele></trkpt>
<trkpt lat="43.793078" lon="-91.301386"><ele>199.5</ele></trkpt>
<trkpt lat="43.793371" lon="-91.301150"><ele>199.8</ele></trkpt>
<trkpt lat="43.793699" lon="-91.300949"><ele>199.9</ele></trkpt>
<trkpt lat="43.794025" lon="-91.300770"><ele>199.9</ele></trkpt>
<trkpt lat="43.794314" lon="-91.300642"><ele>199.9</ele></trkpt>
<trkpt lat="43.794639" lon="-91.300539"><ele>200.0</ele></trkpt>
<trkpt lat="43.794952" lon="-91.300475"><ele>200.1</ele></trkpt>
<trkpt lat="43.795266" lon="-91.300440"><ele>200.3</ele></trkpt>
<trkpt lat="43.795555" lon="-91.300441"><ele>200.5</ele></trkpt>
<trkpt lat="43.795879" lon="-91.300457"><ele>200.6</ele></trkpt>
<trkpt lat="43.796169" lon="-91.300493"><ele>200.5</ele></trkpt>
<trkpt lat="43.796504" lon="-91.300564"><ele>200.3</ele></trkpt>
<trkpt lat="43.799484" lon="-91.301096"><ele>200.6</ele></trkpt>
<trkpt lat="43.800393" lon="-91.301214"><ele>200.3</ele></trkpt>
<trkpt lat="43.800929" lon="-91.301311"><ele>200.9</ele></trkpt>
<trkpt lat="43.801739" lon="-91.301484"><ele>202.5</ele></trkpt>
<trkpt lat="43.802839" lon="-91.301781"><ele>204.9</ele></trkpt>
<trkpt lat="43.803834" lon="-91.302108"><ele>205.7</ele></trkpt>
<trkpt lat="43.804414" lon="-91.302342"><ele>205.1</ele></trkpt>
<trkpt lat="43.805542" lon="-91.302857"><ele>202.4</ele></trkpt>
<trkpt lat="43.808740" lon="-91.304391"><ele>200.2</ele></trkpt>
<trkpt lat="43.810369" lon="-91.305145"><ele>198.2</ele></trkpt>
<trkpt lat="43.810823" lon="-91.305299"><ele>197.7</ele></trkpt>
<trkpt lat="43.811262" lon="-91.305390"><ele>197.1</ele></trkpt>
<trkpt lat="43.811906" lon="-91.305418"><ele>195.8</ele></trkpt>
<trkpt lat="43.813028" lon="-91.305378"><ele>196.1</ele></trkpt>
<trkpt lat="43.813674" lon="-91.305380"><ele>196.8</ele></trkpt>
<trkpt lat="43.813894" lon="-91.305325"><ele>196.9</ele></trkpt>
<trkpt lat="43.815511" lon="-91.305262"><ele>197.4</ele></trkpt>
<trkpt lat="43.815966" lon="-91.305224"><ele>197.7</ele></trkpt>
<trkpt lat="43.820783" lon="-91.304951"><ele>197.8</ele></trkpt>
<trkpt lat="43.822264" lon="-91.304844"><ele>201.6</ele></trkpt>
<trkpt lat="43.822655" lon="-91.304769"><ele>202.2</ele></trkpt>
<trkpt lat="43.823777" lon="-91.304512"><ele>204.3</ele></trkpt>
<trkpt lat="43.824273" lon="-91.304340"><ele>205.2</ele></trkpt>
<trkpt lat="43.825120" lon="-91.303986"><ele>207.5</ele></trkpt>
<trkpt lat="43.825952" lon="-91.303583"><ele>209.0</ele></trkpt>
<trkpt lat="43.826059" lon="-91.303521"><ele>209.0</ele></trkpt>
<trkpt lat="43.828599" lon="-91.302295"><ele>202.5</ele></trkpt>
<trkpt lat="43.828849" lon="-91.302200"><ele>202.1</ele></trkpt>
<trkpt lat="43.829315" lon="-91.302058"><ele>203.1</ele></trkpt>
<trkpt lat="43.829521" lon="-91.302012"><ele>203.4</ele></trkpt>
<trkpt lat="43.829878" lon="-91.301959"><ele>204.2</ele></trkpt>
<trkpt lat="43.830077" lon="-91.301944"><ele>204.7</ele></trkpt>
<trkpt lat="43.831137" lon="-91.301935"><ele>207.1</ele></trkpt>
<trkpt lat="43.831871" lon="-91.301948"><ele>207.1</ele></trkpt>
<trkpt lat="43.832077" lon="-91.301927"><ele>207.0</ele></trkpt>
<trkpt lat="43.832257" lon="-91.301889"><ele>206.8</ele></trkpt>
<trkpt lat="43.832526" lon="-91.301810"><ele>206.4</ele></trkpt>
<trkpt lat="43.832819" lon="-91.301686"><ele>206.0</ele></trkpt>
<trkpt lat="43.832964" lon="-91.301613"><ele>205.7</ele></trkpt>
<trkpt lat="43.833345" lon="-91.301383"><ele>204.8</ele></trkpt>
<trkpt lat="43.833758" lon="-91.301081"><ele>203.6</ele></trkpt>
<trkpt lat="43.834557" lon="-91.300416"><ele>201.8</ele></trkpt>
<trkpt lat="43.834684" lon="-91.300320"><ele>201.4</ele></trkpt>
<trkpt lat="43.834858" lon="-91.300172"><ele>201.2</ele></trkpt>
<trkpt lat="43.835540" lon="-91.299634"><ele>201.2</ele></trkpt>
<trkpt lat="43.835789" lon="-91.299456"><ele>201.4</ele></trkpt>
<trkpt lat="43.836270" lon="-91.299173"><ele>201.7</ele></trkpt>
<trkpt lat="43.836586" lon="-91.299031"><ele>201.8</ele></trkpt>
<trkpt lat="43.837033" lon="-91.298863"><ele>202.1</ele></trkpt>
<trkpt lat="43.837413" lon="-91.298750"><ele>202.4</ele></trkpt>
<trkpt lat="43.837741" lon="-91.298686"><ele>203.6</ele></trkpt>
<trkpt lat="43.839459" lon="-91.298423"><ele>206.6</ele></trkpt>
<trkpt lat="43.842027" lon="-91.298042"><ele>207.6</ele></trkpt>
<trkpt lat="43.842829" lon="-91.297938"><ele>208.8</ele></trkpt>
<trkpt lat="43.843716" lon="-91.297873"><ele>209.0</ele></trkpt>
<trkpt lat="43.844542" lon="-91.297857"><ele>209.3</ele></trkpt>
<trkpt lat="43.845253" lon="-91.297888"><ele>209.9</ele></trkpt>
<trkpt lat="43.846720" lon="-91.298038"><ele>207.8</ele></trkpt>
<trkpt lat="43.847750" lon="-91.298254"><ele>206.5</ele></trkpt>
<trkpt lat="43.849205" lon="-91.298639"><ele>206.8</ele></trkpt>
<trkpt lat="43.849757" lon="-91.298825"><ele>207.4</ele></trkpt>
<trkpt lat="43.850050" lon="-91.298943"><ele>207.5</ele></trkpt>
<trkpt lat="43.850461" lon="-91.299134"><ele>208.1</ele></trkpt>
<trkpt lat="43.850785" lon="-91.299300"><ele>208.4</ele></trkpt>
<trkpt lat="43.851129" lon="-91.299500"><ele>208.8</ele></trkpt>
<trkpt lat="43.851530" lon="-91.299749"><ele>209.1</ele></trkpt>
<trkpt lat="43.851978" lon="-91.300072"><ele>209.4</ele></trkpt>
<trkpt lat="43.852236" lon="-91.300274"><ele>209.6</ele></trkpt>
<trkpt lat="43.852625" lon="-91.300603"><ele>210.0</ele></trkpt>
<trkpt lat="43.852930" lon="-91.300885"><ele>210.3</ele></trkpt>
<trkpt lat="43.853198" lon="-91.301165"><ele>210.8</ele></trkpt>
<trkpt lat="43.853512" lon="-91.301495"><ele>211.7</ele></trkpt>
<trkpt lat="43.854589" lon="-91.302689"><ele>213.0</ele></trkpt>
<trkpt lat="43.854767" lon="-91.302841"><ele>212.5</ele></trkpt>
<trkpt lat="43.855300" lon="-91.303352"><ele>210.8</ele></trkpt>
<trkpt lat="43.855819" lon="-91.303872"><ele>207.9</ele></trkpt>
<trkpt lat="43.855967" lon="-91.303987"><ele>208.6</ele></trkpt>
<trkpt lat="43.856136" lon="-91.304088"><ele>209.3</ele></trkpt>
<trkpt lat="43.856379" lon="-91.304158"><ele>210.1</ele></trkpt>
<trkpt lat="43.856504" lon="-91.304169"><ele>210.5</ele></trkpt>
<trkpt lat="43.856744" lon="-91.304143"><ele>211.2</ele></trkpt>
<trkpt lat="43.856970" lon="-91.304058"><ele>212.0</ele></trkpt>
<trkpt lat="43.857095" lon="-91.303975"><ele>212.5</ele></trkpt>
<trkpt lat="43.857246" lon="-91.303850"><ele>213.3</ele></trkpt>
<trkpt lat="43.857376" lon="-91.303717"><ele>215.5</ele></trkpt>
<trkpt lat="43.857435" lon="-91.303635"><ele>216.1</ele></trkpt>
<trkpt lat="43.857549" lon="-91.303429"><ele>217.0</ele></trkpt>
<trkpt lat="43.857640" lon="-91.303202"><ele>217.3</ele></trkpt>
<trkpt lat="43.857675" lon="-91.303093"><ele>217.2</ele></trkpt>
<trkpt lat="43.857731" lon="-91.302824"><ele>217.7</ele></trkpt>
<trkpt lat="43.857756" lon="-91.302666"><ele>217.6</ele></trkpt>
<trkpt lat="43.857804" lon="-91.302201"><ele>212.4</ele></trkpt>
<trkpt lat="43.857875" lon="-91.301199"><ele>211.2</ele></trkpt>
<trkpt lat="43.857926" lon="-91.300894"><ele>210.8</ele></trkpt>
<trkpt lat="43.858342" lon="-91.296018"><ele>204.9</ele></trkpt>
<trkpt lat="43.858630" lon="-91.292457"><ele>200.5</ele></trkpt>
<trkpt lat="43.858711" lon="-91.291448"><ele>200.5</ele></trkpt>
<trkpt lat="43.858762" lon="-91.290375"><ele>199.2</ele></trkpt>
<trkpt lat="43.858782" lon="-91.289456"><ele>198.3</ele></trkpt>
<trkpt lat="43.858779" lon="-91.287757"><ele>197.9</ele></trkpt>
<trkpt lat="43.858800" lon="-91.286778"><ele>197.8</ele></trkpt>
<trkpt lat="43.858865" lon="-91.285725"><ele>197.6</ele></trkpt>
<trkpt lat="43.858956" lon="-91.284701"><ele>196.6</ele></trkpt>
<trkpt lat="43.859138" lon="-91.282581"><ele>195.5</ele></trkpt>
<trkpt lat="43.859680" lon="-91.276032"><ele>198.0</ele></trkpt>
<trkpt lat="43.859947" lon="-91.272917"><ele>197.0</ele></trkpt>
<trkpt lat="43.859991" lon="-91.272403"><ele>195.4</ele></trkpt>
<trkpt lat="43.860423" lon="-91.266697"><ele>201.0</ele></trkpt>
<trkpt lat="43.860926" lon="-91.260942"><ele>200.0</ele></trkpt>
<trkpt lat="43.861015" lon="-91.259311"><ele>198.8</ele></trkpt>
<trkpt lat="43.860956" lon="-91.258870"><ele>198.5</ele></trkpt>
<trkpt lat="43.860890" lon="-91.258594"><ele>198.4</ele></trkpt>
<trkpt lat="43.860788" lon="-91.258333"><ele>198.2</ele></trkpt>
<trkpt lat="43.860559" lon="-91.257976"><ele>198.1</ele></trkpt>
<trkpt lat="43.860223" lon="-91.257572"><ele>198.3</ele></trkpt>
<trkpt lat="43.859958" lon="-91.257229"><ele>198.4</ele></trkpt>
<trkpt lat="43.859813" lon="-91.257004"><ele>198.5</ele></trkpt>
<trkpt lat="43.859749" lon="-91.256846"><ele>198.6</ele></trkpt>
<trkpt lat="43.859697" lon="-91.256655"><ele>198.6</ele></trkpt>
<trkpt lat="43.859644" lon="-91.256244"><ele>198.8</ele></trkpt>
<trkpt lat="43.859598" lon="-91.256065"><ele>199.4</ele></trkpt>
<trkpt lat="43.859566" lon="-91.255979"><ele>199.3</ele></trkpt>
<trkpt lat="43.859542" lon="-91.255936"><ele>199.1</ele></trkpt>
<trkpt lat="43.859502" lon="-91.255891"><ele>198.9</ele></trkpt>
<trkpt lat="43.859453" lon="-91.255867"><ele>198.9</ele></trkpt>
<trkpt lat="43.859366" lon="-91.255859"><ele>198.5</ele></trkpt>
<trkpt lat="43.859222" lon="-91.255868"><ele>197.7</ele></trkpt>
<trkpt lat="43.859125" lon="-91.255901"><ele>197.3</ele></trkpt>
<trkpt lat="43.858479" lon="-91.256183"><ele>197.5</ele></trkpt>
<trkpt lat="43.858144" lon="-91.256368"><ele>197.7</ele></trkpt>
<trkpt lat="43.857809" lon="-91.256583"><ele>198.0</ele></trkpt>
<trkpt lat="43.857570" lon="-91.256829"><ele>198.0</ele></trkpt>
<trkpt lat="43.857320" lon="-91.257141"><ele>198.1</ele></trkpt>
<trkpt lat="43.856265" lon="-91.258612"><ele>199.0</ele></trkpt>
<trkpt lat="43.856023" lon="-91.258990"><ele>199.0</ele></trkpt>
<trkpt lat="43.855411" lon="-91.259894"><ele>198.5</ele></trkpt>
<trkpt lat="43.855242" lon="-91.260145"><ele>198.3</ele></trkpt>
<trkpt lat="43.855075" lon="-91.260353"><ele>198.2</ele></trkpt>
<trkpt lat="43.854982" lon="-91.260448"><ele>198.1</ele></trkpt>
<trkpt lat="43.854743" lon="-91.260609"><ele>198.0</ele></trkpt>
<trkpt lat="43.854593" lon="-91.264334"><ele>202.1</ele></trkpt>
<trkpt lat="43.854529" lon="-91.265443"><ele>203.4</ele></trkpt>
<trkpt lat="43.854393" lon="-91.268717"><ele>206.1</ele></trkpt>
<trkpt lat="43.854223" lon="-91.268642"><ele>206.2</ele></trkpt>
<trkpt lat="43.851573" lon="-91.267827"><ele>198.6</ele></trkpt>
<trkpt lat="43.851608" lon="-91.267557"><ele>201.6</ele></trkpt>
<trkpt lat="43.851798" lon="-91.266564"><ele>206.0</ele></trkpt>
<trkpt lat="43.851887" lon="-91.266017"><ele>206.1</ele></trkpt>
<trkpt lat="43.851930" lon="-91.265954"><ele>206.2</ele></trkpt>
<trkpt lat="43.851964" lon="-91.265931"><ele>206.2</ele></trkpt>
<trkpt lat="43.852061" lon="-91.265922"><ele>206.3</ele></trkpt>
<trkpt lat="43.852119" lon="-91.265937"><ele>206.4</ele></trkpt>
</trkseg></trk>
</gpx>