<?xml version="1.0" encoding="UTF-8" standalone="no" ?><gpx xmlns="http://www.topografix.com/GPX/1/1" xmlns:xsi="http://www.w3.org/2001/XMLSchema-instance" creator="GraphHopper" version="1.1" xmlns:gh="https://graphhopper.com/public/schema/gpx/1.1">
<metadata><copyright author="OpenStreetMap contributors"/><link href="http://graphhopper.com"><text>GraphHopper GPX</text></link><time>2026-05-06T04:13:34.266Z</time></metadata>
<trk>
<name>GraphHopper Track</name><desc></desc>
<trkseg><trkpt lat="36.107357" lon="-96.016940"><ele>202.6</ele></trkpt>
<trkpt lat="36.107314" lon="-96.016892"><ele>202.4</ele></trkpt>
<trkpt lat="36.106847" lon="-96.017526"><ele>203.0</ele></trkpt>
<trkpt lat="36.106214" lon="-96.018404"><ele>204.0</ele></trkpt>
<trkpt lat="36.105083" lon="-96.019936"><ele>205.7</ele></trkpt>
<trkpt lat="36.104932" lon="-96.020158"><ele>205.0</ele></trkpt>
<trkpt lat="36.104781" lon="-96.020412"><ele>203.8</ele></trkpt>
<trkpt lat="36.104690" lon="-96.020628"><ele>203.7</ele></trkpt>
<trkpt lat="36.104686" lon="-96.020766"><ele>204.1</ele></trkpt>
<trkpt lat="36.104610" lon="-96.021036"><ele>204.8</ele></trkpt>
<trkpt lat="36.104571" lon="-96.021225"><ele>205.4</ele></trkpt>
<trkpt lat="36.104543" lon="-96.021414"><ele>206.0</ele></trkpt>
<trkpt lat="36.104491" lon="-96.021565"><ele>206.0</ele></trkpt>
<trkpt lat="36.104468" lon="-96.022897"><ele>206.0</ele></trkpt>
<trkpt lat="36.104451" lon="-96.023068"><ele>206.0</ele></trkpt>
<trkpt lat="36.104416" lon="-96.023258"><ele>206.2</ele></trkpt>
<trkpt lat="36.104339" lon="-96.023512"><ele>206.4</ele></trkpt>
<trkpt lat="36.104282" lon="-96.023645"><ele>206.6</ele></trkpt>
<trkpt lat="36.104184" lon="-96.023842"><ele>206.6</ele></trkpt>
<trkpt lat="36.103974" lon="-96.024155"><ele>206.5</ele></trkpt>
<trkpt lat="36.103211" lon="-96.025194"><ele>205.2</ele></trkpt>
<trkpt lat="36.101836" lon="-96.027045"><ele>204.9</ele></trkpt>
<trkpt lat="36.100258" lon="-96.029197"><ele>208.0</ele></trkpt>
<trkpt lat="36.099884" lon="-96.029678"><ele>208.4</ele></trkpt>
<trkpt lat="36.099336" lon="-96.030335"><ele>209.2</ele></trkpt>
<trkpt lat="36.098905" lon="-96.030804"><ele>209.0</ele></trkpt>
<trkpt lat="36.098336" lon="-96.031375"><ele>209.3</ele></trkpt>
<trkpt lat="36.097592" lon="-96.032068"><ele>209.1</ele></trkpt>
<trkpt lat="36.096663" lon="-96.032906"><ele>210.0</ele></trkpt>
<trkpt lat="36.095729" lon="-96.033679"><ele>210.0</ele></trkpt>
<trkpt lat="36.095214" lon="-96.034123"><ele>210.1</ele></trkpt>
<trkpt lat="36.095138" lon="-96.034237"><ele>210.3</ele></trkpt>
<trkpt lat="36.094834" lon="-96.034489"><ele>210.6</ele></trkpt>
<trkpt lat="36.094671" lon="-96.034654"><ele>210.8</ele></trkpt>
<trkpt lat="36.094413" lon="-96.034949"><ele>211.8</ele></trkpt>
<trkpt lat="36.093835" lon="-96.035654"><ele>212.6</ele></trkpt>
<trkpt lat="36.093674" lon="-96.035788"><ele>212.5</ele></trkpt>
<trkpt lat="36.093260" lon="-96.036222"><ele>213.5</ele></trkpt>
<trkpt lat="36.093107" lon="-96.036372"><ele>213.7</ele></trkpt>
<trkpt lat="36.092384" lon="-96.037029"><ele>214.7</ele></trkpt>
<trkpt lat="36.090996" lon="-96.038316"><ele>216.8</ele></trkpt>
<trkpt lat="36.090625" lon="-96.038730"><ele>217.2</ele></trkpt>
<trkpt lat="36.090399" lon="-96.039035"><ele>217.4</ele></trkpt>
<trkpt lat="36.089961" lon="-96.039692"><ele>218.3</ele></trkpt>
<trkpt lat="36.088653" lon="-96.041653"><ele>221.8</ele></trkpt>
<trkpt lat="36.088471" lon="-96.041888"><ele>221.6</ele></trkpt>
<trkpt lat="36.088289" lon="-96.042094"><ele>221.3</ele></trkpt>
<trkpt lat="36.087750" lon="-96.042640"><ele>219.3</ele></trkpt>
<trkpt lat="36.087501" lon="-96.042912"><ele>219.2</ele></trkpt>
<trkpt lat="36.085739" lon="-96.045193"><ele>221.3</ele></trkpt>
<trkpt lat="36.080804" lon="-96.051627"><ele>232.0</ele></trkpt>
<trkpt lat="36.080716" lon="-96.051718"><ele>232.0</ele></trkpt>
<trkpt lat="36.080289" lon="-96.052349"><ele>232.1</ele></trkpt>
<trkpt lat="36.080035" lon="-96.052775"><ele>232.3</ele></trkpt>
<trkpt lat="36.079772" lon="-96.053265"><ele>232.2</ele></trkpt>
<trkpt lat="36.079575" lon="-96.053685"><ele>231.9</ele></trkpt>
<trkpt lat="36.079405" lon="-96.054090"><ele>231.5</ele></trkpt>
<trkpt lat="36.079151" lon="-96.054785"><ele>231.1</ele></trkpt>
<trkpt lat="36.079031" lon="-96.055185"><ele>231.5</ele></trkpt>
<trkpt lat="36.078974" lon="-96.055406"><ele>231.7</ele></trkpt>
<trkpt lat="36.078748" lon="-96.056521"><ele>231.5</ele></trkpt>
<trkpt lat="36.078654" lon="-96.057112"><ele>231.4</ele></trkpt>
<trkpt lat="36.078610" lon="-96.057640"><ele>231.0</ele></trkpt>
<trkpt lat="36.078493" lon="-96.059406"><ele>229.6</ele></trkpt>
<trkpt lat="36.078393" lon="-96.060988"><ele>229.8</ele></trkpt>
<trkpt lat="36.078238" lon="-96.063220"><ele>229.3</ele></trkpt>
<trkpt lat="36.078170" lon="-96.064328"><ele>229.2</ele></trkpt>
<trkpt lat="36.077873" lon="-96.068798"><ele>225.6</ele></trkpt>
<trkpt lat="36.077770" lon="-96.069926"><ele>222.2</ele></trkpt>
<trkpt lat="36.077613" lon="-96.071050"><ele>224.2</ele></trkpt>
<trkpt lat="36.077490" lon="-96.071763"><ele>226.4</ele></trkpt>
<trkpt lat="36.077399" lon="-96.072201"><ele>226.7</ele></trkpt>
<trkpt lat="36.077273" lon="-96.072758"><ele>228.0</ele></trkpt>
<trkpt lat="36.077138" lon="-96.073304"><ele>228.6</ele></trkpt>
<trkpt lat="36.076862" lon="-96.074296"><ele>226.0</ele></trkpt>
<trkpt lat="36.075930" lon="-96.077534"><ele>229.1</ele></trkpt>
<trkpt lat="36.075538" lon="-96.078895"><ele>231.1</ele></trkpt>
<trkpt lat="36.075383" lon="-96.079429"><ele>231.2</ele></trkpt>
<trkpt lat="36.074600" lon="-96.082153"><ele>232.9</ele></trkpt>
<trkpt lat="36.074182" lon="-96.083601"><ele>234.2</ele></trkpt>
<trkpt lat="36.074081" lon="-96.083920"><ele>234.8</ele></trkpt>
<trkpt lat="36.073879" lon="-96.084477"><ele>236.0</ele></trkpt>
<trkpt lat="36.073773" lon="-96.084710"><ele>236.7</ele></trkpt>
<trkpt lat="36.073604" lon="-96.085046"><ele>237.8</ele></trkpt>
<trkpt lat="36.073428" lon="-96.085357"><ele>238.5</ele></trkpt>
<trkpt lat="36.073200" lon="-96.085694"><ele>239.5</ele></trkpt>
<trkpt lat="36.073048" lon="-96.085898"><ele>239.5</ele></trkpt>
<trkpt lat="36.072716" lon="-96.086273"><ele>239.2</ele></trkpt>
<trkpt lat="36.072515" lon="-96.086475"><ele>238.9</ele></trkpt>
<trkpt lat="36.072196" lon="-96.086753"><ele>238.9</ele></trkpt>
<trkpt lat="36.071902" lon="-96.086973"><ele>239.4</ele></trkpt>
<trkpt lat="36.071626" lon="-96.087148"><ele>240.1</ele></trkpt>
<trkpt lat="36.071183" lon="-96.087378"><ele>241.5</ele></trkpt>
<trkpt lat="36.070998" lon="-96.087457"><ele>241.8</ele></trkpt>
<trkpt lat="36.070602" lon="-96.087587"><ele>241.7</ele></trkpt>
<trkpt lat="36.070180" lon="-96.087674"><ele>240.7</ele></trkpt>
<trkpt lat="36.068669" lon="-96.087910"><ele>237.5</ele></trkpt>
<trkpt lat="36.068275" lon="-96.087948"><ele>236.2</ele></trkpt>
<trkpt lat="36.068043" lon="-96.087957"><ele>235.8</ele></trkpt>
<trkpt lat="36.066974" lon="-96.087919"><ele>237.1</ele></trkpt>
<trkpt lat="36.065244" lon="-96.087841"><ele>238.4</ele></trkpt>
<trkpt lat="36.062285" lon="-96.087720"><ele>236.0</ele></trkpt>
<trkpt lat="36.061702" lon="-96.087725"><ele>236.7</ele></trkpt>
<trkpt lat="36.061215" lon="-96.087764"><ele>237.1</ele></trkpt>
<trkpt lat="36.060682" lon="-96.087839"><ele>237.5</ele></trkpt>
<trkpt lat="36.060095" lon="-96.087949"><ele>237.4</ele></trkpt>
<trkpt lat="36.054976" lon="-96.089068"><ele>230.0</ele></trkpt>
<trkpt lat="36.054528" lon="-96.089211"><ele>229.4</ele></trkpt>
<trkpt lat="36.054206" lon="-96.089344"><ele>229.0</ele></trkpt>
<trkpt lat="36.053886" lon="-96.089504"><ele>228.1</ele></trkpt>
<trkpt lat="36.053479" lon="-96.089752"><ele>227.3</ele></trkpt>
<trkpt lat="36.053164" lon="-96.089968"><ele>227.0</ele></trkpt>
<trkpt lat="36.052947" lon="-96.090139"><ele>226.8</ele></trkpt>
<trkpt lat="36.052641" lon="-96.090410"><ele>226.6</ele></trkpt>
<trkpt lat="36.052442" lon="-96.090609"><ele>226.4</ele></trkpt>
<trkpt lat="36.052036" lon="-96.091083"><ele>226.0</ele></trkpt>
<trkpt lat="36.051616" lon="-96.091658"><ele>225.9</ele></trkpt>
<trkpt lat="36.051170" lon="-96.092301"><ele>225.2</ele></trkpt>
<trkpt lat="36.050183" lon="-96.093683"><ele>226.0</ele></trkpt>
<trkpt lat="36.049820" lon="-96.094142"><ele>225.5</ele></trkpt>
<trkpt lat="36.049612" lon="-96.094389"><ele>225.4</ele></trkpt>
<trkpt lat="36.049183" lon="-96.094866"><ele>225.3</ele></trkpt>
<trkpt lat="36.048809" lon="-96.095260"><ele>224.5</ele></trkpt>
<trkpt lat="36.048486" lon="-96.095577"><ele>223.2</ele></trkpt>
<trkpt lat="36.048152" lon="-96.095861"><ele>221.5</ele></trkpt>
<trkpt lat="36.047607" lon="-96.096273"><ele>219.0</ele></trkpt>
<trkpt lat="36.047057" lon="-96.096615"><ele>218.0</ele></trkpt>
<trkpt lat="36.046675" lon="-96.096813"><ele>217.9</ele></trkpt>
<trkpt lat="36.046493" lon="-96.096908"><ele>217.8</ele></trkpt>
<trkpt lat="36.046495" lon="-96.098008"><ele>220.0</ele></trkpt>
<trkpt lat="36.046533" lon="-96.098643"><ele>220.3</ele></trkpt>
<trkpt lat="36.046535" lon="-96.099680"><ele>218.7</ele></trkpt>
<trkpt lat="36.046527" lon="-96.101085"><ele>219.0</ele></trkpt>
<trkpt lat="36.046547" lon="-96.101142"><ele>219.1</ele></trkpt>
<trkpt lat="36.046552" lon="-96.101681"><ele>219.9</ele></trkpt>
<trkpt lat="36.046521" lon="-96.103804"><ele>222.5</ele></trkpt>
<trkpt lat="36.046533" lon="-96.105010"><ele>225.4</ele></trkpt>
<trkpt lat="36.046530" lon="-96.105743"><ele>227.5</ele></trkpt>
<trkpt lat="36.046504" lon="-96.106301"><ele>228.2</ele></trkpt>
<trkpt lat="36.046422" lon="-96.107643"><ele>230.0</ele></trkpt>
<trkpt lat="36.046325" lon="-96.108920"><ele>232.7</ele></trkpt>
<trkpt lat="36.046244" lon="-96.109875"><ele>236.3</ele></trkpt>
<trkpt lat="36.046188" lon="-96.111230"><ele>246.2</ele></trkpt>
<trkpt lat="36.046180" lon="-96.111889"><ele>252.0</ele></trkpt>
<trkpt lat="36.046201" lon="-96.112843"><ele>260.1</ele></trkpt>
<trkpt lat="36.046267" lon="-96.113824"><ele>269.4</ele></trkpt>
<trkpt lat="36.046434" lon="-96.115578"><ele>277.4</ele></trkpt>
<trkpt lat="36.046458" lon="-96.115670"><ele>277.8</ele></trkpt>
<trkpt lat="36.046481" lon="-96.117259"><ele>276.5</ele></trkpt>
<trkpt lat="36.046462" lon="-96.118833"><ele>269.8</ele></trkpt>
<trkpt lat="36.046478" lon="-96.119106"><ele>268.3</ele></trkpt>
<trkpt lat="36.046523" lon="-96.119171"><ele>267.8</ele></trkpt>
<trkpt lat="36.046525" lon="-96.119266"><ele>267.4</ele></trkpt>
<trkpt lat="36.046556" lon="-96.119353"><ele>267.1</ele></trkpt>
<trkpt lat="36.046614" lon="-96.119447"><ele>267.0</ele></trkpt>
<trkpt lat="36.047683" lon="-96.119440"><ele>268.0</ele></trkpt>
<trkpt lat="36.050063" lon="-96.119449"><ele>270.1</ele></trkpt>
<trkpt lat="36.051724" lon="-96.119442"><ele>275.9</ele></trkpt>
<trkpt lat="36.053759" lon="-96.119434"><ele>283.0</ele></trkpt>
<trkpt lat="36.057574" lon="-96.119431"><ele>284.9</ele></trkpt>
<trkpt lat="36.060461" lon="-96.119437"><ele>277.6</ele></trkpt>
<trkpt lat="36.067647" lon="-96.119415"><ele>275.9</ele></trkpt>
<trkpt lat="36.070963" lon="-96.119411"><ele>281.0</ele></trkpt>
<trkpt lat="36.075639" lon="-96.119396"><ele>269.9</ele></trkpt>
<trkpt lat="36.077196" lon="-96.119394"><ele>265.3</ele></trkpt>
<trkpt lat="36.077867" lon="-96.119403"><ele>263.8</ele></trkpt>
<trkpt lat="36.082240" lon="-96.119389"><ele>259.2</ele></trkpt>
<trkpt lat="36.084458" lon="-96.119400"><ele>258.0</ele></trkpt>
<trkpt lat="36.087291" lon="-96.119416"><ele>245.9</ele></trkpt>
<trkpt lat="36.088049" lon="-96.119402"><ele>242.4</ele></trkpt>
<trkpt lat="36.088823" lon="-96.119348"><ele>239.2</ele></trkpt>
<trkpt lat="36.089782" lon="-96.119227"><ele>235.8</ele></trkpt>
<trkpt lat="36.090750" lon="-96.119054"><ele>235.6</ele></trkpt>
<trkpt lat="36.091304" lon="-96.118936"><ele>236.5</ele></trkpt>
<trkpt lat="36.092315" lon="-96.118668"><ele>239.5</ele></trkpt>
<trkpt lat="36.092984" lon="-96.118470"><ele>242.5</ele></trkpt>
<trkpt lat="36.093377" lon="-96.118354"><ele>242.7</ele></trkpt>
<trkpt lat="36.095051" lon="-96.117811"><ele>240.6</ele></trkpt>
<trkpt lat="36.096072" lon="-96.117495"><ele>238.4</ele></trkpt>
<trkpt lat="36.097023" lon="-96.117262"><ele>233.9</ele></trkpt>
<trkpt lat="36.097351" lon="-96.117190"><ele>232.5</ele></trkpt>
<trkpt lat="36.098295" lon="-96.117027"><ele>226.8</ele></trkpt>
<trkpt lat="36.098947" lon="-96.116944"><ele>225.4</ele></trkpt>
<trkpt lat="36.099553" lon="-96.116888"><ele>224.8</ele></trkpt>
<trkpt lat="36.100405" lon="-96.116826"><ele>225.4</ele></trkpt>
<trkpt lat="36.101268" lon="-96.116808"><ele>227.4</ele></trkpt>
<trkpt lat="36.102126" lon="-96.116835"><ele>230.0</ele></trkpt>
<trkpt lat="36.103002" lon="-96.116895"><ele>232.9</ele></trkpt>
<trkpt lat="36.103787" lon="-96.116980"><ele>236.6</ele></trkpt>
<trkpt lat="36.104732" lon="-96.117086"><ele>238.0</ele></trkpt>
<trkpt lat="36.105644" lon="-96.117172"><ele>238.2</ele></trkpt>
<trkpt lat="36.106449" lon="-96.117212"><ele>237.9</ele></trkpt>
<trkpt lat="36.107278" lon="-96.117231"><ele>236.9</ele></trkpt>
<trkpt lat="36.107538" lon="-96.117233"><ele>236.1</ele></trkpt>
<trkpt lat="36.108296" lon="-96.117218"><ele>235.3</ele></trkpt>
<trkpt lat="36.109294" lon="-96.117142"><ele>233.2</ele></trkpt>
<trkpt lat="36.110171" lon="-96.117040"><ele>231.7</ele></trkpt>
<trkpt lat="36.111035" lon="-96.116902"><ele>231.9</ele></trkpt>
<trkpt lat="36.112794" lon="-96.116565"><ele>229.0</ele></trkpt>
<trkpt lat="36.114458" lon="-96.116335"><ele>226.2</ele></trkpt>
<trkpt lat="36.115944" lon="-96.116205"><ele>223.0</ele></trkpt>
<trkpt lat="36.116924" lon="-96.116159"><ele>220.4</ele></trkpt>
<trkpt lat="36.117488" lon="-96.116143"><ele>218.9</ele></trkpt>
<trkpt lat="36.118633" lon="-96.116139"><ele>216.8</ele></trkpt>
<trkpt lat="36.119294" lon="-96.116149"><ele>215.4</ele></trkpt>
<trkpt lat="36.119315" lon="-96.116945"><ele>213.0</ele></trkpt>
<trkpt lat="36.119332" lon="-96.117095"><ele>212.8</ele></trkpt>
<trkpt lat="36.119355" lon="-96.117204"><ele>212.5</ele></trkpt>
<trkpt lat="36.119397" lon="-96.117317"><ele>212.3</ele></trkpt>
<trkpt lat="36.119448" lon="-96.117415"><ele>211.9</ele></trkpt>
<trkpt lat="36.119535" lon="-96.117544"><ele>211.0</ele></trkpt>
<trkpt lat="36.119878" lon="-96.117872"><ele>209.7</ele></trkpt>
<trkpt lat="36.120154" lon="-96.117471"><ele>207.4</ele></trkpt>
<trkpt lat="36.120356" lon="-96.117124"><ele>205.7</ele></trkpt>
<trkpt lat="36.120446" lon="-96.116888"><ele>204.8</ele></trkpt>
<trkpt lat="36.120497" lon="-96.116720"><ele>204.4</ele></trkpt>
<trkpt lat="36.120535" lon="-96.116549"><ele>204.7</ele></trkpt>
<trkpt lat="36.120622" lon="-96.115931"><ele>203.4</ele></trkpt>
<trkpt lat="36.120872" lon="-96.113739"><ele>203.0</ele></trkpt>
<trkpt lat="36.120966" lon="-96.112760"><ele>202.3</ele></trkpt>
<trkpt lat="36.120984" lon="-96.112083"><ele>201.8</ele></trkpt>
<trkpt lat="36.120960" lon="-96.111145"><ele>200.4</ele></trkpt>
<trkpt lat="36.120900" lon="-96.110119"><ele>199.2</ele></trkpt>
<trkpt lat="36.120869" lon="-96.109367"><ele>199.8</ele></trkpt>
<trkpt lat="36.120811" lon="-96.107432"><ele>207.2</ele></trkpt>
<trkpt lat="36.120822" lon="-96.107021"><ele>209.8</ele></trkpt>
<trkpt lat="36.120855" lon="-96.106621"><ele>212.2</ele></trkpt>
<trkpt lat="36.120950" lon="-96.105726"><ele>216.2</ele></trkpt>
<trkpt lat="36.121084" lon="-96.105000"><ele>215.8</ele></trkpt>
<trkpt lat="36.121196" lon="-96.104471"><ele>213.8</ele></trkpt>
<trkpt lat="36.121275" lon="-96.104141"><ele>212.7</ele></trkpt>
<trkpt lat="36.121482" lon="-96.103429"><ele>214.4</ele></trkpt>
<trkpt lat="36.121649" lon="-96.102929"><ele>218.3</ele></trkpt>
<trkpt lat="36.121819" lon="-96.102499"><ele>219.3</ele></trkpt>
<trkpt lat="36.122147" lon="-96.101749"><ele>217.9</ele></trkpt>
<trkpt lat="36.122365" lon="-96.101324"><ele>216.6</ele></trkpt>
<trkpt lat="36.122972" lon="-96.100217"><ele>213.8</ele></trkpt>
<trkpt lat="36.123306" lon="-96.099593"><ele>211.3</ele></trkpt>
<trkpt lat="36.123664" lon="-96.098855"><ele>209.1</ele></trkpt>
<trkpt lat="36.123925" lon="-96.098229"><ele>208.8</ele></trkpt>
<trkpt lat="36.124105" lon="-96.097747"><ele>209.4</ele></trkpt>
<trkpt lat="36.124325" lon="-96.097075"><ele>210.8</ele></trkpt>
<trkpt lat="36.124515" lon="-96.096353"><ele>212.9</ele></trkpt>
<trkpt lat="36.124675" lon="-96.095621"><ele>214.7</ele></trkpt>
<trkpt lat="36.124806" lon="-96.094911"><ele>213.6</ele></trkpt>
<trkpt lat="36.125166" lon="-96.092796"><ele>200.4</ele></trkpt>
<trkpt lat="36.125307" lon="-96.092058"><ele>198.7</ele></trkpt>
<trkpt lat="36.125429" lon="-96.091592"><ele>198.7</ele></trkpt>
<trkpt lat="36.125500" lon="-96.091354"><ele>199.0</ele></trkpt>
<trkpt lat="36.125661" lon="-96.090939"><ele>199.9</ele></trkpt>
<trkpt lat="36.125768" lon="-96.090729"><ele>200.8</ele></trkpt>
<trkpt lat="36.125932" lon="-96.090458"><ele>202.1</ele></trkpt>
<trkpt lat="36.126758" lon="-96.089151"><ele>207.8</ele></trkpt>
<trkpt lat="36.127088" lon="-96.088604"><ele>209.6</ele></trkpt>
<trkpt lat="36.127484" lon="-96.087902"><ele>211.3</ele></trkpt>
<trkpt lat="36.127635" lon="-96.087590"><ele>211.8</ele></trkpt>
<trkpt lat="36.129158" lon="-96.084127"><ele>214.9</ele></trkpt>
<trkpt lat="36.129476" lon="-96.083532"><ele>214.8</ele></trkpt>
<trkpt lat="36.129685" lon="-96.083070"><ele>214.9</ele></trkpt>
<trkpt lat="36.129772" lon="-96.082832"><ele>214.9</ele></trkpt>
<trkpt lat="36.130139" lon="-96.081682"><ele>211.9</ele></trkpt>
<trkpt lat="36.130748" lon="-96.079677"><ele>203.9</ele></trkpt>
<trkpt lat="36.130941" lon="-96.079144"><ele>205.1</ele></trkpt>
<trkpt lat="36.131119" lon="-96.078737"><ele>206.5</ele></trkpt>
<trkpt lat="36.132714" lon="-96.075687"><ele>209.8</ele></trkpt>
<trkpt lat="36.133203" lon="-96.074681"><ele>209.8</ele></trkpt>
<trkpt lat="36.133556" lon="-96.073851"><ele>209.2</ele></trkpt>
<trkpt lat="36.133902" lon="-96.072951"><ele>208.1</ele></trkpt>
<trkpt lat="36.134342" lon="-96.071567"><ele>209.2</ele></trkpt>
<trkpt lat="36.134550" lon="-96.070745"><ele>209.4</ele></trkpt>
<trkpt lat="36.134693" lon="-96.070056"><ele>209.7</ele></trkpt>
<trkpt lat="36.134844" lon="-96.069268"><ele>210.5</ele></trkpt>
<trkpt lat="36.134955" lon="-96.068617"><ele>210.9</ele></trkpt>
<trkpt lat="36.135046" lon="-96.067936"><ele>211.0</ele></trkpt>
<trkpt lat="36.135284" lon="-96.065616"><ele>209.0</ele></trkpt>
<trkpt lat="36.135304" lon="-96.065132"><ele>208.1</ele></trkpt>
<trkpt lat="36.135295" lon="-96.064623"><ele>207.4</ele></trkpt>
<trkpt lat="36.135242" lon="-96.064024"><ele>207.5</ele></trkpt>
<trkpt lat="36.135200" lon="-96.063689"><ele>206.5</ele></trkpt>
<trkpt lat="36.135087" lon="-96.063154"><ele>204.7</ele></trkpt>
<trkpt lat="36.135011" lon="-96.062854"><ele>204.1</ele></trkpt>
<trkpt lat="36.134915" lon="-96.062538"><ele>203.7</ele></trkpt>
<trkpt lat="36.134117" lon="-96.060198"><ele>204.4</ele></trkpt>
<trkpt lat="36.133876" lon="-96.059533"><ele>203.1</ele></trkpt>
<trkpt lat="36.133821" lon="-96.059362"><ele>202.7</ele></trkpt>
<trkpt lat="36.133631" lon="-96.058712"><ele>200.8</ele></trkpt>
<trkpt lat="36.133592" lon="-96.058500"><ele>200.4</ele></trkpt>
<trkpt lat="36.133580" lon="-96.058281"><ele>199.8</ele></trkpt>
<trkpt lat="36.133526" lon="-96.053534"><ele>199.2</ele></trkpt>
<trkpt lat="36.133522" lon="-96.051767"><ele>198.0</ele></trkpt>
<trkpt lat="36.133494" lon="-96.049542"><ele>198.5</ele></trkpt>
<trkpt lat="36.133474" lon="-96.043335"><ele>196.6</ele></trkpt>
<trkpt lat="36.133455" lon="-96.041264"><ele>198.3</ele></trkpt>
<trkpt lat="36.133427" lon="-96.032488"><ele>195.9</ele></trkpt>
<trkpt lat="36.133436" lon="-96.031606"><ele>195.7</ele></trkpt>
<trkpt lat="36.133428" lon="-96.030305"><ele>195.0</ele></trkpt>
<trkpt lat="36.133437" lon="-96.029393"><ele>195.0</ele></trkpt>
<trkpt lat="36.133433" lon="-96.028571"><ele>195.0</ele></trkpt>
<trkpt lat="36.133493" lon="-96.017657"><ele>194.5</ele></trkpt>
<trkpt lat="36.133451" lon="-96.016957"><ele>193.5</ele></trkpt>
<trkpt lat="36.133451" lon="-96.016031"><ele>193.8</ele></trkpt>
<trkpt lat="36.133465" lon="-96.014493"><ele>194.0</ele></trkpt>
<trkpt lat="36.133422" lon="-96.014280"><ele>194.0</ele></trkpt>
<trkpt lat="36.133309" lon="-96.013949"><ele>194.0</ele></trkpt>
<trkpt lat="36.133210" lon="-96.013799"><ele>194.0</ele></trkpt>
<trkpt lat="36.133156" lon="-96.013717"><ele>194.0</ele></trkpt>
<trkpt lat="36.132993" lon="-96.013578"><ele>194.0</ele></trkpt>
<trkpt lat="36.132847" lon="-96.013495"><ele>194.0</ele></trkpt>
<trkpt lat="36.132697" lon="-96.013434"><ele>194.0</ele></trkpt>
<trkpt lat="36.132514" lon="-96.013389"><ele>194.0</ele></trkpt>
<trkpt lat="36.132375" lon="-96.013378"><ele>194.0</ele></trkpt>
<trkpt lat="36.132231" lon="-96.013343"><ele>194.0</ele></trkpt>
<trkpt lat="36.132150" lon="-96.013308"><ele>194.1</ele></trkpt>
<trkpt lat="36.131933" lon="-96.013142"><ele>194.7</ele></trkpt>
<trkpt lat="36.131725" lon="-96.012883"><ele>195.7</ele></trkpt>
<trkpt lat="36.131638" lon="-96.012741"><ele>196.1</ele></trkpt>
<trkpt lat="36.131528" lon="-96.012509"><ele>196.3</ele></trkpt>
<trkpt lat="36.131267" lon="-96.011808"><ele>197.2</ele></trkpt>
<trkpt lat="36.129974" lon="-96.008451"><ele>195.5</ele></trkpt>
<trkpt lat="36.129892" lon="-96.008227"><ele>196.0</ele></trkpt>
<trkpt lat="36.129843" lon="-96.007978"><ele>195.6</ele></trkpt>
<trkpt lat="36.129823" lon="-96.007692"><ele>195.2</ele></trkpt>
<trkpt lat="36.129820" lon="-96.007349"><ele>194.4</ele></trkpt>
<trkpt lat="36.129640" lon="-96.007093"><ele>194.0</ele></trkpt>
<trkpt lat="36.129466" lon="-96.006974"><ele>194.0</ele></trkpt>
<trkpt lat="36.129274" lon="-96.006972"><ele>194.0</ele></trkpt>
<trkpt lat="36.126760" lon="-96.006968"><ele>193.0</ele></trkpt>
<trkpt lat="36.126657" lon="-96.006980"><ele>193.1</ele></trkpt>
<trkpt lat="36.126245" lon="-96.007096"><ele>193.3</ele></trkpt>
<trkpt lat="36.125961" lon="-96.007152"><ele>193.0</ele></trkpt>
<trkpt lat="36.125647" lon="-96.007160"><ele>193.0</ele></trkpt>
<trkpt lat="36.123440" lon="-96.007159"><ele>193.0</ele></trkpt>
<trkpt lat="36.118258" lon="-96.007161"><ele>194.7</ele></trkpt>
<trkpt lat="36.118023" lon="-96.007182"><ele>194.9</ele></trkpt>
<trkpt lat="36.117731" lon="-96.007236"><ele>194.8</ele></trkpt>
<trkpt lat="36.117464" lon="-96.007318"><ele>194.1</ele></trkpt>
<trkpt lat="36.117280" lon="-96.007396"><ele>194.0</ele></trkpt>
<trkpt lat="36.116692" lon="-96.007724"><ele>194.0</ele></trkpt>
<trkpt lat="36.115676" lon="-96.008298"><ele>194.0</ele></trkpt>
<trkpt lat="36.115208" lon="-96.008575"><ele>194.0</ele></trkpt>
<trkpt lat="36.114204" lon="-96.009148"><ele>194.0</ele></trkpt>
<trkpt lat="36.113774" lon="-96.009365"><ele>194.0</ele></trkpt>
<trkpt lat="36.112430" lon="-96.010140"><ele>193.7</ele></trkpt>
<trkpt lat="36.112252" lon="-96.010278"><ele>193.5</ele></trkpt>
<trkpt lat="36.112079" lon="-96.010438"><ele>194.1</ele></trkpt>
<trkpt lat="36.111962" lon="-96.010562"><ele>194.2</ele></trkpt>
<trkpt lat="36.111793" lon="-96.010768"><ele>194.5</ele></trkpt>
<trkpt lat="36.110643" lon="-96.012350"><ele>196.8</ele></trkpt>
<trkpt lat="36.110421" lon="-96.012633"><ele>198.0</ele></trkpt>
<trkpt lat="36.109481" lon="-96.013918"><ele>202.6</ele></trkpt>
<trkpt lat="36.108527" lon="-96.015243"><ele>203.0</ele></trkpt>
<trkpt lat="36.107974" lon="-96.015995"><ele>202.9</ele></trkpt>
<trkpt lat="36.107622" lon="-96.016473"><ele>202.4</ele></trkpt>
<trkpt lat="36.107652" lon="-96.016506"><ele>202.5</ele></trkpt>
</trkseg></trk>
</gpx>