<?xml version="1.0" encoding="UTF-8" standalone="no" ?><gpx xmlns="http://www.topografix.com/GPX/1/1" xmlns:xsi="http://www.w3.org/2001/XMLSchema-instance" creator="GraphHopper" version="1.1" xmlns:gh="https://graphhopper.com/public/schema/gpx/1.1">
<metadata><copyright author="OpenStreetMap contributors"/><link href="http://graphhopper.com"><text>GraphHopper GPX</text></link><time>2026-06-05T02:10:03.211Z</time></metadata>
<trk>
<name>GraphHopper Track</name><desc></desc>
<trkseg><trkpt lat="40.512856" lon="-88.999776"><ele>240.0</ele></trkpt>
<trkpt lat="40.512788" lon="-88.999698"><ele>240.0</ele></trkpt>
<trkpt lat="40.512751" lon="-88.999680"><ele>240.0</ele></trkpt>
<trkpt lat="40.512679" lon="-88.999653"><ele>240.0</ele></trkpt>
<trkpt lat="40.512398" lon="-88.999630"><ele>240.1</ele></trkpt>
<trkpt lat="40.512314" lon="-88.999614"><ele>240.2</ele></trkpt>
<trkpt lat="40.512201" lon="-88.999568"><ele>240.3</ele></trkpt>
<trkpt lat="40.511915" lon="-88.999401"><ele>240.8</ele></trkpt>
<trkpt lat="40.511802" lon="-88.999391"><ele>240.8</ele></trkpt>
<trkpt lat="40.511716" lon="-88.999398"><ele>240.7</ele></trkpt>
<trkpt lat="40.511629" lon="-88.999423"><ele>240.6</ele></trkpt>
<trkpt lat="40.511531" lon="-88.999477"><ele>240.4</ele></trkpt>
<trkpt lat="40.511450" lon="-88.999580"><ele>240.1</ele></trkpt>
<trkpt lat="40.511382" lon="-88.999671"><ele>240.0</ele></trkpt>
<trkpt lat="40.511313" lon="-88.999737"><ele>240.0</ele></trkpt>
<trkpt lat="40.511201" lon="-88.999783"><ele>239.7</ele></trkpt>
<trkpt lat="40.511112" lon="-88.999796"><ele>239.5</ele></trkpt>
<trkpt lat="40.509860" lon="-88.999736"><ele>236.4</ele></trkpt>
<trkpt lat="40.509840" lon="-89.000410"><ele>236.0</ele></trkpt>
<trkpt lat="40.509819" lon="-89.001619"><ele>238.0</ele></trkpt>
<trkpt lat="40.509808" lon="-89.004419"><ele>238.2</ele></trkpt>
<trkpt lat="40.509802" lon="-89.011359"><ele>242.0</ele></trkpt>
<trkpt lat="40.509779" lon="-89.019933"><ele>240.0</ele></trkpt>
<trkpt lat="40.509782" lon="-89.021028"><ele>241.0</ele></trkpt>
<trkpt lat="40.509715" lon="-89.024401"><ele>243.0</ele></trkpt>
<trkpt lat="40.509669" lon="-89.026880"><ele>242.2</ele></trkpt>
<trkpt lat="40.509570" lon="-89.032333"><ele>237.0</ele></trkpt>
<trkpt lat="40.509558" lon="-89.032674"><ele>237.2</ele></trkpt>
<trkpt lat="40.509538" lon="-89.032962"><ele>237.9</ele></trkpt>
<trkpt lat="40.509456" lon="-89.033546"><ele>238.4</ele></trkpt>
<trkpt lat="40.509416" lon="-89.033721"><ele>238.7</ele></trkpt>
<trkpt lat="40.509316" lon="-89.034084"><ele>239.0</ele></trkpt>
<trkpt lat="40.510303" lon="-89.035094"><ele>240.1</ele></trkpt>
<trkpt lat="40.513028" lon="-89.037895"><ele>243.9</ele></trkpt>
<trkpt lat="40.514434" lon="-89.039352"><ele>244.0</ele></trkpt>
<trkpt lat="40.515071" lon="-89.040092"><ele>244.0</ele></trkpt>
<trkpt lat="40.515523" lon="-89.040663"><ele>244.0</ele></trkpt>
<trkpt lat="40.516196" lon="-89.041645"><ele>244.0</ele></trkpt>
<trkpt lat="40.516740" lon="-89.042553"><ele>243.1</ele></trkpt>
<trkpt lat="40.517281" lon="-89.043562"><ele>243.0</ele></trkpt>
<trkpt lat="40.517818" lon="-89.044508"><ele>243.3</ele></trkpt>
<trkpt lat="40.518027" lon="-89.044851"><ele>243.4</ele></trkpt>
<trkpt lat="40.518489" lon="-89.045541"><ele>243.7</ele></trkpt>
<trkpt lat="40.518841" lon="-89.046028"><ele>243.9</ele></trkpt>
<trkpt lat="40.519213" lon="-89.046496"><ele>244.6</ele></trkpt>
<trkpt lat="40.525171" lon="-89.053615"><ele>243.2</ele></trkpt>
<trkpt lat="40.528804" lon="-89.057938"><ele>237.8</ele></trkpt>
<trkpt lat="40.528981" lon="-89.058140"><ele>238.1</ele></trkpt>
<trkpt lat="40.529387" lon="-89.058567"><ele>238.6</ele></trkpt>
<trkpt lat="40.529834" lon="-89.058972"><ele>238.4</ele></trkpt>
<trkpt lat="40.530153" lon="-89.059225"><ele>238.1</ele></trkpt>
<trkpt lat="40.530327" lon="-89.059352"><ele>237.9</ele></trkpt>
<trkpt lat="40.530650" lon="-89.059568"><ele>237.8</ele></trkpt>
<trkpt lat="40.530965" lon="-89.059754"><ele>237.9</ele></trkpt>
<trkpt lat="40.531305" lon="-89.059928"><ele>238.1</ele></trkpt>
<trkpt lat="40.531824" lon="-89.060157"><ele>238.9</ele></trkpt>
<trkpt lat="40.531843" lon="-89.058393"><ele>238.7</ele></trkpt>
<trkpt lat="40.532099" lon="-89.058379"><ele>238.7</ele></trkpt>
<trkpt lat="40.532870" lon="-89.058402"><ele>239.2</ele></trkpt>
<trkpt lat="40.533282" lon="-89.058532"><ele>239.2</ele></trkpt>
<trkpt lat="40.533614" lon="-89.058636"><ele>239.2</ele></trkpt>
<trkpt lat="40.534399" lon="-89.059065"><ele>239.4</ele></trkpt>
<trkpt lat="40.536058" lon="-89.060320"><ele>242.0</ele></trkpt>
<trkpt lat="40.536645" lon="-89.060729"><ele>242.5</ele></trkpt>
<trkpt lat="40.537175" lon="-89.061114"><ele>242.8</ele></trkpt>
<trkpt lat="40.538565" lon="-89.062194"><ele>244.9</ele></trkpt>
<trkpt lat="40.538938" lon="-89.062540"><ele>246.8</ele></trkpt>
<trkpt lat="40.539465" lon="-89.062997"><ele>247.3</ele></trkpt>
<trkpt lat="40.540536" lon="-89.063963"><ele>246.6</ele></trkpt>
<trkpt lat="40.541212" lon="-89.064555"><ele>245.5</ele></trkpt>
<trkpt lat="40.542488" lon="-89.065732"><ele>242.9</ele></trkpt>
<trkpt lat="40.544055" lon="-89.067032"><ele>243.1</ele></trkpt>
<trkpt lat="40.553823" lon="-89.075352"><ele>250.0</ele></trkpt>
<trkpt lat="40.556004" lon="-89.077220"><ele>249.4</ele></trkpt>
<trkpt lat="40.558243" lon="-89.079196"><ele>248.4</ele></trkpt>
<trkpt lat="40.562636" lon="-89.083195"><ele>252.1</ele></trkpt>
<trkpt lat="40.566611" lon="-89.086835"><ele>258.8</ele></trkpt>
<trkpt lat="40.567252" lon="-89.087438"><ele>259.0</ele></trkpt>
<trkpt lat="40.568300" lon="-89.088501"><ele>256.3</ele></trkpt>
<trkpt lat="40.570566" lon="-89.090837"><ele>251.5</ele></trkpt>
<trkpt lat="40.578974" lon="-89.099520"><ele>255.5</ele></trkpt>
<trkpt lat="40.582335" lon="-89.102964"><ele>254.0</ele></trkpt>
<trkpt lat="40.582533" lon="-89.103238"><ele>253.8</ele></trkpt>
<trkpt lat="40.582678" lon="-89.103467"><ele>253.8</ele></trkpt>
<trkpt lat="40.582787" lon="-89.103739"><ele>253.4</ele></trkpt>
<trkpt lat="40.582830" lon="-89.103880"><ele>253.0</ele></trkpt>
<trkpt lat="40.582872" lon="-89.104015"><ele>252.6</ele></trkpt>
<trkpt lat="40.582938" lon="-89.104461"><ele>251.4</ele></trkpt>
<trkpt lat="40.582953" lon="-89.104855"><ele>250.4</ele></trkpt>
<trkpt lat="40.582854" lon="-89.108852"><ele>243.7</ele></trkpt>
<trkpt lat="40.582629" lon="-89.118951"><ele>241.4</ele></trkpt>
<trkpt lat="40.582544" lon="-89.122633"><ele>234.3</ele></trkpt>
<trkpt lat="40.582510" lon="-89.124016"><ele>233.3</ele></trkpt>
<trkpt lat="40.582437" lon="-89.126848"><ele>232.3</ele></trkpt>
<trkpt lat="40.582431" lon="-89.127043"><ele>232.0</ele></trkpt>
<trkpt lat="40.582359" lon="-89.130246"><ele>238.0</ele></trkpt>
<trkpt lat="40.582290" lon="-89.132914"><ele>235.1</ele></trkpt>
<trkpt lat="40.582307" lon="-89.133300"><ele>234.9</ele></trkpt>
<trkpt lat="40.582356" lon="-89.133502"><ele>235.1</ele></trkpt>
<trkpt lat="40.582457" lon="-89.133769"><ele>234.8</ele></trkpt>
<trkpt lat="40.583111" lon="-89.134805"><ele>234.3</ele></trkpt>
<trkpt lat="40.583784" lon="-89.135846"><ele>234.3</ele></trkpt>
<trkpt lat="40.584167" lon="-89.136453"><ele>235.0</ele></trkpt>
<trkpt lat="40.584793" lon="-89.137428"><ele>235.6</ele></trkpt>
<trkpt lat="40.584994" lon="-89.137695"><ele>235.5</ele></trkpt>
<trkpt lat="40.585158" lon="-89.137871"><ele>235.1</ele></trkpt>
<trkpt lat="40.585414" lon="-89.138067"><ele>234.1</ele></trkpt>
<trkpt lat="40.585650" lon="-89.138194"><ele>233.3</ele></trkpt>
<trkpt lat="40.585850" lon="-89.138270"><ele>232.7</ele></trkpt>
<trkpt lat="40.586065" lon="-89.138311"><ele>231.9</ele></trkpt>
<trkpt lat="40.586302" lon="-89.138326"><ele>231.1</ele></trkpt>
<trkpt lat="40.586814" lon="-89.138332"><ele>229.9</ele></trkpt>
<trkpt lat="40.596638" lon="-89.138622"><ele>237.0</ele></trkpt>
<trkpt lat="40.603677" lon="-89.138837"><ele>251.4</ele></trkpt>
<trkpt lat="40.606274" lon="-89.138904"><ele>255.7</ele></trkpt>
<trkpt lat="40.608704" lon="-89.138968"><ele>248.4</ele></trkpt>
<trkpt lat="40.608823" lon="-89.134178"><ele>260.0</ele></trkpt>
<trkpt lat="40.608947" lon="-89.129420"><ele>258.5</ele></trkpt>
<trkpt lat="40.609063" lon="-89.124579"><ele>258.0</ele></trkpt>
<trkpt lat="40.609104" lon="-89.123785"><ele>257.1</ele></trkpt>
<trkpt lat="40.609361" lon="-89.119951"><ele>248.6</ele></trkpt>
<trkpt lat="40.609547" lon="-89.117183"><ele>252.3</ele></trkpt>
<trkpt lat="40.609573" lon="-89.116924"><ele>252.1</ele></trkpt>
<trkpt lat="40.609604" lon="-89.116704"><ele>251.9</ele></trkpt>
<trkpt lat="40.609664" lon="-89.116393"><ele>251.8</ele></trkpt>
<trkpt lat="40.609962" lon="-89.115166"><ele>252.6</ele></trkpt>
<trkpt lat="40.610444" lon="-89.112987"><ele>251.7</ele></trkpt>
<trkpt lat="40.610795" lon="-89.111350"><ele>247.2</ele></trkpt>
<trkpt lat="40.611225" lon="-89.109287"><ele>240.3</ele></trkpt>
<trkpt lat="40.611687" lon="-89.107114"><ele>243.7</ele></trkpt>
<trkpt lat="40.611963" lon="-89.105853"><ele>243.0</ele></trkpt>
<trkpt lat="40.612066" lon="-89.105255"><ele>242.3</ele></trkpt>
<trkpt lat="40.612162" lon="-89.104502"><ele>242.1</ele></trkpt>
<trkpt lat="40.612202" lon="-89.103987"><ele>241.1</ele></trkpt>
<trkpt lat="40.612239" lon="-89.103272"><ele>239.2</ele></trkpt>
<trkpt lat="40.612368" lon="-89.100420"><ele>241.6</ele></trkpt>
<trkpt lat="40.612370" lon="-89.099580"><ele>240.4</ele></trkpt>
<trkpt lat="40.612358" lon="-89.097866"><ele>237.8</ele></trkpt>
<trkpt lat="40.612368" lon="-89.096109"><ele>233.1</ele></trkpt>
<trkpt lat="40.612473" lon="-89.093237"><ele>231.1</ele></trkpt>
<trkpt lat="40.612507" lon="-89.092064"><ele>232.8</ele></trkpt>
<trkpt lat="40.612516" lon="-89.091290"><ele>232.4</ele></trkpt>
<trkpt lat="40.612487" lon="-89.090290"><ele>230.9</ele></trkpt>
<trkpt lat="40.612481" lon="-89.089968"><ele>231.4</ele></trkpt>
<trkpt lat="40.612441" lon="-89.088497"><ele>233.6</ele></trkpt>
<trkpt lat="40.612425" lon="-89.086353"><ele>234.8</ele></trkpt>
<trkpt lat="40.612450" lon="-89.084398"><ele>234.6</ele></trkpt>
<trkpt lat="40.612499" lon="-89.081778"><ele>237.2</ele></trkpt>
<trkpt lat="40.612555" lon="-89.076990"><ele>240.0</ele></trkpt>
<trkpt lat="40.612584" lon="-89.069100"><ele>238.2</ele></trkpt>
<trkpt lat="40.612625" lon="-89.064013"><ele>236.3</ele></trkpt>
<trkpt lat="40.612609" lon="-89.063321"><ele>237.2</ele></trkpt>
<trkpt lat="40.612578" lon="-89.062560"><ele>237.7</ele></trkpt>
<trkpt lat="40.612586" lon="-89.062060"><ele>238.3</ele></trkpt>
<trkpt lat="40.613087" lon="-89.043967"><ele>238.4</ele></trkpt>
<trkpt lat="40.607460" lon="-89.043817"><ele>233.9</ele></trkpt>
<trkpt lat="40.607175" lon="-89.043809"><ele>233.2</ele></trkpt>
<trkpt lat="40.602977" lon="-89.043701"><ele>239.3</ele></trkpt>
<trkpt lat="40.591399" lon="-89.043352"><ele>244.0</ele></trkpt>
<trkpt lat="40.590757" lon="-89.043325"><ele>244.9</ele></trkpt>
<trkpt lat="40.582714" lon="-89.043096"><ele>249.1</ele></trkpt>
<trkpt lat="40.577302" lon="-89.042917"><ele>256.0</ele></trkpt>
<trkpt lat="40.577096" lon="-89.042949"><ele>256.3</ele></trkpt>
<trkpt lat="40.570398" lon="-89.042775"><ele>256.3</ele></trkpt>
<trkpt lat="40.561315" lon="-89.042504"><ele>266.0</ele></trkpt>
<trkpt lat="40.552251" lon="-89.042274"><ele>259.6</ele></trkpt>
<trkpt lat="40.549983" lon="-89.042205"><ele>255.6</ele></trkpt>
<trkpt lat="40.546547" lon="-89.042120"><ele>252.0</ele></trkpt>
<trkpt lat="40.544021" lon="-89.042041"><ele>255.8</ele></trkpt>
<trkpt lat="40.539518" lon="-89.041925"><ele>249.4</ele></trkpt>
<trkpt lat="40.538931" lon="-89.041905"><ele>249.8</ele></trkpt>
<trkpt lat="40.533881" lon="-89.041756"><ele>248.3</ele></trkpt>
<trkpt lat="40.531545" lon="-89.041703"><ele>245.3</ele></trkpt>
<trkpt lat="40.531224" lon="-89.040466"><ele>245.6</ele></trkpt>
<trkpt lat="40.531144" lon="-89.040127"><ele>245.3</ele></trkpt>
<trkpt lat="40.531088" lon="-89.039789"><ele>245.1</ele></trkpt>
<trkpt lat="40.531060" lon="-89.039448"><ele>244.9</ele></trkpt>
<trkpt lat="40.531050" lon="-89.039158"><ele>244.8</ele></trkpt>
<trkpt lat="40.531043" lon="-89.034236"><ele>246.3</ele></trkpt>
<trkpt lat="40.531031" lon="-89.027832"><ele>248.8</ele></trkpt>
<trkpt lat="40.531031" lon="-89.026574"><ele>248.3</ele></trkpt>
<trkpt lat="40.531024" lon="-89.021828"><ele>251.7</ele></trkpt>
<trkpt lat="40.531023" lon="-89.021572"><ele>252.3</ele></trkpt>
<trkpt lat="40.528272" lon="-89.021503"><ele>248.0</ele></trkpt>
<trkpt lat="40.523507" lon="-89.021383"><ele>247.3</ele></trkpt>
<trkpt lat="40.517116" lon="-89.021213"><ele>244.0</ele></trkpt>
<trkpt lat="40.517125" lon="-89.017375"><ele>247.6</ele></trkpt>
<trkpt lat="40.517139" lon="-89.011467"><ele>254.0</ele></trkpt>
<trkpt lat="40.517162" lon="-89.001957"><ele>247.3</ele></trkpt>
<trkpt lat="40.517154" lon="-89.001823"><ele>247.3</ele></trkpt>
<trkpt lat="40.517135" lon="-89.001702"><ele>247.2</ele></trkpt>
<trkpt lat="40.514648" lon="-89.001636"><ele>239.7</ele></trkpt>
<trkpt lat="40.513770" lon="-89.001607"><ele>239.0</ele></trkpt>
<trkpt lat="40.512905" lon="-89.001585"><ele>237.1</ele></trkpt>
<trkpt lat="40.512925" lon="-89.000687"><ele>239.0</ele></trkpt>
<trkpt lat="40.512931" lon="-89.000687"><ele>239.0</ele></trkpt>
</trkseg></trk>
</gpx>