<?xml version="1.0" encoding="UTF-8" standalone="no" ?><gpx xmlns="http://www.topografix.com/GPX/1/1" xmlns:xsi="http://www.w3.org/2001/XMLSchema-instance" creator="GraphHopper" version="1.1" xmlns:gh="https://graphhopper.com/public/schema/gpx/1.1">
<metadata><copyright author="OpenStreetMap contributors"/><link href="http://graphhopper.com"><text>GraphHopper GPX</text></link><time>2026-05-05T03:35:29.703Z</time></metadata>
<trk>
<name>GraphHopper Track</name><desc></desc>
<trkseg><trkpt lat="36.107357" lon="-96.016940"><ele>202.6</ele></trkpt>
<trkpt lat="36.107314" lon="-96.016892"><ele>202.4</ele></trkpt>
<trkpt lat="36.106847" lon="-96.017526"><ele>203.0</ele></trkpt>
<trkpt lat="36.106214" lon="-96.018404"><ele>204.0</ele></trkpt>
<trkpt lat="36.105083" lon="-96.019936"><ele>205.7</ele></trkpt>
<trkpt lat="36.104932" lon="-96.020158"><ele>205.0</ele></trkpt>
<trkpt lat="36.104781" lon="-96.020412"><ele>203.8</ele></trkpt>
<trkpt lat="36.104690" lon="-96.020628"><ele>203.7</ele></trkpt>
<trkpt lat="36.104686" lon="-96.020766"><ele>204.1</ele></trkpt>
<trkpt lat="36.104610" lon="-96.021036"><ele>204.8</ele></trkpt>
<trkpt lat="36.104571" lon="-96.021225"><ele>205.4</ele></trkpt>
<trkpt lat="36.104543" lon="-96.021414"><ele>206.0</ele></trkpt>
<trkpt lat="36.104491" lon="-96.021565"><ele>206.0</ele></trkpt>
<trkpt lat="36.104588" lon="-96.021731"><ele>206.2</ele></trkpt>
<trkpt lat="36.104769" lon="-96.021952"><ele>206.8</ele></trkpt>
<trkpt lat="36.104849" lon="-96.022033"><ele>207.1</ele></trkpt>
<trkpt lat="36.104913" lon="-96.022160"><ele>207.3</ele></trkpt>
<trkpt lat="36.104951" lon="-96.022282"><ele>207.6</ele></trkpt>
<trkpt lat="36.104976" lon="-96.022443"><ele>207.9</ele></trkpt>
<trkpt lat="36.104933" lon="-96.024194"><ele>211.4</ele></trkpt>
<trkpt lat="36.104921" lon="-96.024425"><ele>210.4</ele></trkpt>
<trkpt lat="36.104889" lon="-96.024628"><ele>209.6</ele></trkpt>
<trkpt lat="36.104842" lon="-96.024787"><ele>209.0</ele></trkpt>
<trkpt lat="36.104503" lon="-96.025618"><ele>207.1</ele></trkpt>
<trkpt lat="36.104475" lon="-96.025878"><ele>207.4</ele></trkpt>
<trkpt lat="36.104477" lon="-96.028335"><ele>211.1</ele></trkpt>
<trkpt lat="36.104488" lon="-96.029304"><ele>211.5</ele></trkpt>
<trkpt lat="36.104498" lon="-96.029484"><ele>212.0</ele></trkpt>
<trkpt lat="36.104507" lon="-96.029657"><ele>212.5</ele></trkpt>
<trkpt lat="36.104510" lon="-96.033947"><ele>226.5</ele></trkpt>
<trkpt lat="36.104508" lon="-96.035953"><ele>222.7</ele></trkpt>
<trkpt lat="36.104513" lon="-96.037955"><ele>223.7</ele></trkpt>
<trkpt lat="36.104513" lon="-96.038426"><ele>224.9</ele></trkpt>
<trkpt lat="36.104484" lon="-96.040266"><ele>228.4</ele></trkpt>
<trkpt lat="36.104485" lon="-96.040996"><ele>229.6</ele></trkpt>
<trkpt lat="36.104487" lon="-96.043360"><ele>236.2</ele></trkpt>
<trkpt lat="36.104495" lon="-96.047970"><ele>224.5</ele></trkpt>
<trkpt lat="36.104515" lon="-96.054045"><ele>214.8</ele></trkpt>
<trkpt lat="36.104541" lon="-96.055917"><ele>214.5</ele></trkpt>
<trkpt lat="36.104537" lon="-96.057592"><ele>214.0</ele></trkpt>
<trkpt lat="36.104543" lon="-96.060801"><ele>219.6</ele></trkpt>
<trkpt lat="36.104530" lon="-96.062778"><ele>229.0</ele></trkpt>
<trkpt lat="36.104559" lon="-96.065892"><ele>250.1</ele></trkpt>
<trkpt lat="36.104570" lon="-96.066131"><ele>250.8</ele></trkpt>
<trkpt lat="36.104562" lon="-96.066932"><ele>254.4</ele></trkpt>
<trkpt lat="36.104564" lon="-96.072113"><ele>254.8</ele></trkpt>
<trkpt lat="36.104573" lon="-96.074934"><ele>263.6</ele></trkpt>
<trkpt lat="36.104573" lon="-96.077140"><ele>262.3</ele></trkpt>
<trkpt lat="36.104591" lon="-96.077554"><ele>261.4</ele></trkpt>
<trkpt lat="36.104595" lon="-96.080858"><ele>253.5</ele></trkpt>
<trkpt lat="36.104584" lon="-96.086646"><ele>238.6</ele></trkpt>
<trkpt lat="36.104581" lon="-96.090896"><ele>258.2</ele></trkpt>
<trkpt lat="36.104572" lon="-96.092171"><ele>259.0</ele></trkpt>
<trkpt lat="36.104586" lon="-96.097140"><ele>250.7</ele></trkpt>
<trkpt lat="36.104590" lon="-96.099330"><ele>238.4</ele></trkpt>
<trkpt lat="36.104595" lon="-96.102244"><ele>236.2</ele></trkpt>
<trkpt lat="36.104600" lon="-96.103886"><ele>247.2</ele></trkpt>
<trkpt lat="36.104628" lon="-96.107039"><ele>236.3</ele></trkpt>
<trkpt lat="36.104641" lon="-96.109514"><ele>217.1</ele></trkpt>
<trkpt lat="36.104638" lon="-96.110953"><ele>211.8</ele></trkpt>
<trkpt lat="36.104637" lon="-96.111180"><ele>211.0</ele></trkpt>
<trkpt lat="36.104641" lon="-96.112767"><ele>215.2</ele></trkpt>
<trkpt lat="36.104655" lon="-96.115510"><ele>234.2</ele></trkpt>
<trkpt lat="36.104730" lon="-96.116653"><ele>238.0</ele></trkpt>
<trkpt lat="36.104732" lon="-96.116811"><ele>238.0</ele></trkpt>
<trkpt lat="36.104838" lon="-96.116986"><ele>238.3</ele></trkpt>
<trkpt lat="36.104924" lon="-96.117104"><ele>238.3</ele></trkpt>
<trkpt lat="36.105644" lon="-96.117172"><ele>238.2</ele></trkpt>
<trkpt lat="36.106449" lon="-96.117212"><ele>237.9</ele></trkpt>
<trkpt lat="36.107538" lon="-96.117233"><ele>236.1</ele></trkpt>
<trkpt lat="36.108296" lon="-96.117218"><ele>235.3</ele></trkpt>
<trkpt lat="36.108539" lon="-96.117202"><ele>234.9</ele></trkpt>
<trkpt lat="36.109294" lon="-96.117142"><ele>233.2</ele></trkpt>
<trkpt lat="36.110171" lon="-96.117040"><ele>231.7</ele></trkpt>
<trkpt lat="36.111035" lon="-96.116902"><ele>231.9</ele></trkpt>
<trkpt lat="36.112794" lon="-96.116565"><ele>229.0</ele></trkpt>
<trkpt lat="36.114458" lon="-96.116335"><ele>226.2</ele></trkpt>
<trkpt lat="36.115944" lon="-96.116205"><ele>223.0</ele></trkpt>
<trkpt lat="36.116924" lon="-96.116159"><ele>220.4</ele></trkpt>
<trkpt lat="36.117488" lon="-96.116143"><ele>218.9</ele></trkpt>
<trkpt lat="36.118633" lon="-96.116139"><ele>216.8</ele></trkpt>
<trkpt lat="36.119294" lon="-96.116149"><ele>215.4</ele></trkpt>
<trkpt lat="36.119315" lon="-96.116945"><ele>213.0</ele></trkpt>
<trkpt lat="36.119332" lon="-96.117095"><ele>212.8</ele></trkpt>
<trkpt lat="36.119355" lon="-96.117204"><ele>212.5</ele></trkpt>
<trkpt lat="36.119397" lon="-96.117317"><ele>212.3</ele></trkpt>
<trkpt lat="36.119448" lon="-96.117415"><ele>211.9</ele></trkpt>
<trkpt lat="36.119535" lon="-96.117544"><ele>211.0</ele></trkpt>
<trkpt lat="36.119878" lon="-96.117872"><ele>209.7</ele></trkpt>
<trkpt lat="36.119980" lon="-96.117986"><ele>209.7</ele></trkpt>
<trkpt lat="36.120117" lon="-96.118171"><ele>209.0</ele></trkpt>
<trkpt lat="36.120202" lon="-96.118294"><ele>209.1</ele></trkpt>
<trkpt lat="36.120285" lon="-96.118458"><ele>208.8</ele></trkpt>
<trkpt lat="36.120348" lon="-96.118604"><ele>208.6</ele></trkpt>
<trkpt lat="36.120421" lon="-96.118777"><ele>208.0</ele></trkpt>
<trkpt lat="36.120562" lon="-96.119225"><ele>206.4</ele></trkpt>
<trkpt lat="36.120696" lon="-96.119730"><ele>204.4</ele></trkpt>
<trkpt lat="36.121000" lon="-96.120996"><ele>200.5</ele></trkpt>
<trkpt lat="36.121148" lon="-96.121591"><ele>199.0</ele></trkpt>
<trkpt lat="36.121352" lon="-96.122401"><ele>199.0</ele></trkpt>
<trkpt lat="36.121763" lon="-96.123860"><ele>198.7</ele></trkpt>
<trkpt lat="36.121948" lon="-96.124492"><ele>196.8</ele></trkpt>
<trkpt lat="36.122047" lon="-96.124811"><ele>198.9</ele></trkpt>
<trkpt lat="36.122239" lon="-96.125337"><ele>199.2</ele></trkpt>
<trkpt lat="36.122561" lon="-96.126301"><ele>199.7</ele></trkpt>
<trkpt lat="36.122799" lon="-96.126991"><ele>199.0</ele></trkpt>
<trkpt lat="36.123235" lon="-96.128482"><ele>199.0</ele></trkpt>
<trkpt lat="36.125485" lon="-96.136151"><ele>199.0</ele></trkpt>
<trkpt lat="36.127208" lon="-96.141987"><ele>199.9</ele></trkpt>
<trkpt lat="36.127337" lon="-96.142424"><ele>200.0</ele></trkpt>
<trkpt lat="36.127823" lon="-96.144173"><ele>199.1</ele></trkpt>
<trkpt lat="36.128272" lon="-96.145960"><ele>199.0</ele></trkpt>
<trkpt lat="36.128635" lon="-96.147300"><ele>199.0</ele></trkpt>
<trkpt lat="36.129751" lon="-96.151155"><ele>199.6</ele></trkpt>
<trkpt lat="36.130928" lon="-96.154980"><ele>200.0</ele></trkpt>
<trkpt lat="36.131726" lon="-96.157438"><ele>200.0</ele></trkpt>
<trkpt lat="36.135081" lon="-96.168778"><ele>201.3</ele></trkpt>
<trkpt lat="36.135446" lon="-96.170201"><ele>201.7</ele></trkpt>
<trkpt lat="36.135583" lon="-96.170931"><ele>201.9</ele></trkpt>
<trkpt lat="36.135905" lon="-96.172779"><ele>202.0</ele></trkpt>
<trkpt lat="36.136397" lon="-96.175696"><ele>201.9</ele></trkpt>
<trkpt lat="36.137278" lon="-96.180821"><ele>202.0</ele></trkpt>
<trkpt lat="36.137891" lon="-96.184396"><ele>201.8</ele></trkpt>
<trkpt lat="36.138133" lon="-96.185840"><ele>201.9</ele></trkpt>
<trkpt lat="36.138270" lon="-96.186727"><ele>202.0</ele></trkpt>
<trkpt lat="36.138379" lon="-96.187643"><ele>202.0</ele></trkpt>
<trkpt lat="36.138434" lon="-96.188277"><ele>202.1</ele></trkpt>
<trkpt lat="36.138494" lon="-96.189130"><ele>202.5</ele></trkpt>
<trkpt lat="36.138530" lon="-96.190151"><ele>203.0</ele></trkpt>
<trkpt lat="36.138543" lon="-96.190812"><ele>202.7</ele></trkpt>
<trkpt lat="36.138520" lon="-96.192268"><ele>203.0</ele></trkpt>
<trkpt lat="36.138473" lon="-96.193015"><ele>203.0</ele></trkpt>
<trkpt lat="36.138349" lon="-96.194318"><ele>203.7</ele></trkpt>
<trkpt lat="36.138260" lon="-96.194924"><ele>204.1</ele></trkpt>
<trkpt lat="36.138126" lon="-96.195699"><ele>204.9</ele></trkpt>
<trkpt lat="36.137994" lon="-96.196337"><ele>206.3</ele></trkpt>
<trkpt lat="36.137855" lon="-96.196949"><ele>208.2</ele></trkpt>
<trkpt lat="36.137656" lon="-96.197652"><ele>211.0</ele></trkpt>
<trkpt lat="36.137433" lon="-96.198361"><ele>213.8</ele></trkpt>
<trkpt lat="36.137142" lon="-96.199210"><ele>217.4</ele></trkpt>
<trkpt lat="36.136621" lon="-96.200819"><ele>222.9</ele></trkpt>
<trkpt lat="36.136151" lon="-96.202306"><ele>227.2</ele></trkpt>
<trkpt lat="36.135774" lon="-96.203432"><ele>228.7</ele></trkpt>
<trkpt lat="36.135432" lon="-96.204660"><ele>230.0</ele></trkpt>
<trkpt lat="36.135239" lon="-96.205392"><ele>230.1</ele></trkpt>
<trkpt lat="36.134801" lon="-96.207396"><ele>230.5</ele></trkpt>
<trkpt lat="36.134655" lon="-96.208133"><ele>231.9</ele></trkpt>
<trkpt lat="36.134494" lon="-96.209134"><ele>231.9</ele></trkpt>
<trkpt lat="36.134344" lon="-96.210141"><ele>233.0</ele></trkpt>
<trkpt lat="36.134241" lon="-96.210974"><ele>233.5</ele></trkpt>
<trkpt lat="36.134142" lon="-96.211898"><ele>234.1</ele></trkpt>
<trkpt lat="36.134078" lon="-96.212640"><ele>234.2</ele></trkpt>
<trkpt lat="36.134033" lon="-96.213290"><ele>234.2</ele></trkpt>
<trkpt lat="36.133969" lon="-96.214481"><ele>234.3</ele></trkpt>
<trkpt lat="36.133943" lon="-96.215271"><ele>234.7</ele></trkpt>
<trkpt lat="36.133943" lon="-96.215802"><ele>235.1</ele></trkpt>
<trkpt lat="36.133928" lon="-96.216950"><ele>235.9</ele></trkpt>
<trkpt lat="36.133936" lon="-96.217857"><ele>236.4</ele></trkpt>
<trkpt lat="36.133939" lon="-96.220201"><ele>239.2</ele></trkpt>
<trkpt lat="36.133910" lon="-96.222690"><ele>246.5</ele></trkpt>
<trkpt lat="36.133898" lon="-96.227192"><ele>257.6</ele></trkpt>
<trkpt lat="36.133902" lon="-96.230273"><ele>260.9</ele></trkpt>
<trkpt lat="36.133882" lon="-96.237516"><ele>265.6</ele></trkpt>
<trkpt lat="36.133776" lon="-96.240497"><ele>257.7</ele></trkpt>
<trkpt lat="36.133626" lon="-96.242808"><ele>247.0</ele></trkpt>
<trkpt lat="36.133544" lon="-96.243907"><ele>242.4</ele></trkpt>
<trkpt lat="36.133263" lon="-96.246707"><ele>228.0</ele></trkpt>
<trkpt lat="36.132955" lon="-96.249455"><ele>225.7</ele></trkpt>
<trkpt lat="36.132381" lon="-96.254648"><ele>249.5</ele></trkpt>
<trkpt lat="36.131813" lon="-96.259919"><ele>251.3</ele></trkpt>
<trkpt lat="36.131665" lon="-96.261692"><ele>252.0</ele></trkpt>
<trkpt lat="36.131448" lon="-96.265116"><ele>249.2</ele></trkpt>
<trkpt lat="36.131283" lon="-96.268988"><ele>242.5</ele></trkpt>
<trkpt lat="36.131047" lon="-96.274199"><ele>232.9</ele></trkpt>
<trkpt lat="36.130986" lon="-96.275299"><ele>232.0</ele></trkpt>
<trkpt lat="36.130777" lon="-96.279717"><ele>230.7</ele></trkpt>
<trkpt lat="36.130619" lon="-96.283526"><ele>234.4</ele></trkpt>
<trkpt lat="36.130450" lon="-96.287165"><ele>249.9</ele></trkpt>
<trkpt lat="36.130248" lon="-96.291976"><ele>266.2</ele></trkpt>
<trkpt lat="36.130068" lon="-96.295827"><ele>263.6</ele></trkpt>
<trkpt lat="36.129967" lon="-96.297824"><ele>258.1</ele></trkpt>
<trkpt lat="36.129845" lon="-96.300618"><ele>250.0</ele></trkpt>
<trkpt lat="36.129627" lon="-96.305203"><ele>237.4</ele></trkpt>
<trkpt lat="36.129501" lon="-96.308034"><ele>232.4</ele></trkpt>
<trkpt lat="36.129196" lon="-96.314848"><ele>245.0</ele></trkpt>
<trkpt lat="36.129012" lon="-96.318277"><ele>239.9</ele></trkpt>
<trkpt lat="36.128971" lon="-96.319553"><ele>239.1</ele></trkpt>
<trkpt lat="36.128455" lon="-96.325713"><ele>231.3</ele></trkpt>
<trkpt lat="36.128398" lon="-96.326599"><ele>231.8</ele></trkpt>
<trkpt lat="36.128287" lon="-96.329094"><ele>231.3</ele></trkpt>
<trkpt lat="36.128219" lon="-96.330089"><ele>231.4</ele></trkpt>
<trkpt lat="36.127862" lon="-96.334494"><ele>227.8</ele></trkpt>
<trkpt lat="36.127678" lon="-96.336742"><ele>234.0</ele></trkpt>
<trkpt lat="36.127508" lon="-96.338522"><ele>234.0</ele></trkpt>
<trkpt lat="36.127153" lon="-96.341211"><ele>232.3</ele></trkpt>
<trkpt lat="36.127052" lon="-96.341805"><ele>232.2</ele></trkpt>
<trkpt lat="36.126840" lon="-96.344197"><ele>232.0</ele></trkpt>
<trkpt lat="36.126773" lon="-96.345510"><ele>230.8</ele></trkpt>
<trkpt lat="36.126711" lon="-96.346935"><ele>230.8</ele></trkpt>
<trkpt lat="36.126721" lon="-96.349026"><ele>230.8</ele></trkpt>
<trkpt lat="36.126800" lon="-96.350945"><ele>229.8</ele></trkpt>
<trkpt lat="36.126844" lon="-96.351632"><ele>231.1</ele></trkpt>
<trkpt lat="36.126901" lon="-96.352180"><ele>232.3</ele></trkpt>
<trkpt lat="36.126975" lon="-96.353000"><ele>234.3</ele></trkpt>
<trkpt lat="36.127038" lon="-96.353539"><ele>235.9</ele></trkpt>
<trkpt lat="36.127164" lon="-96.354510"><ele>239.0</ele></trkpt>
<trkpt lat="36.127317" lon="-96.355517"><ele>242.6</ele></trkpt>
<trkpt lat="36.127813" lon="-96.358096"><ele>250.1</ele></trkpt>
<trkpt lat="36.128312" lon="-96.360821"><ele>256.2</ele></trkpt>
<trkpt lat="36.128375" lon="-96.361115"><ele>256.0</ele></trkpt>
<trkpt lat="36.128615" lon="-96.362374"><ele>254.8</ele></trkpt>
<trkpt lat="36.128901" lon="-96.363879"><ele>249.1</ele></trkpt>
<trkpt lat="36.129579" lon="-96.367399"><ele>247.6</ele></trkpt>
<trkpt lat="36.129966" lon="-96.369416"><ele>256.3</ele></trkpt>
<trkpt lat="36.130936" lon="-96.374590"><ele>267.9</ele></trkpt>
<trkpt lat="36.131152" lon="-96.375702"><ele>265.7</ele></trkpt>
<trkpt lat="36.131202" lon="-96.376129"><ele>264.6</ele></trkpt>
<trkpt lat="36.131255" lon="-96.376692"><ele>262.7</ele></trkpt>
<trkpt lat="36.131272" lon="-96.377459"><ele>260.3</ele></trkpt>
<trkpt lat="36.131270" lon="-96.377778"><ele>260.0</ele></trkpt>
<trkpt lat="36.131257" lon="-96.378127"><ele>260.3</ele></trkpt>
<trkpt lat="36.131185" lon="-96.378883"><ele>261.5</ele></trkpt>
<trkpt lat="36.131101" lon="-96.379442"><ele>264.2</ele></trkpt>
<trkpt lat="36.131022" lon="-96.379871"><ele>265.4</ele></trkpt>
<trkpt lat="36.130975" lon="-96.380074"><ele>266.0</ele></trkpt>
<trkpt lat="36.130828" lon="-96.380618"><ele>266.8</ele></trkpt>
<trkpt lat="36.130644" lon="-96.381205"><ele>267.2</ele></trkpt>
<trkpt lat="36.130451" lon="-96.381725"><ele>267.0</ele></trkpt>
<trkpt lat="36.130317" lon="-96.382049"><ele>266.9</ele></trkpt>
<trkpt lat="36.130136" lon="-96.382410"><ele>266.6</ele></trkpt>
<trkpt lat="36.129506" lon="-96.383585"><ele>266.1</ele></trkpt>
<trkpt lat="36.129046" lon="-96.384469"><ele>264.6</ele></trkpt>
<trkpt lat="36.128266" lon="-96.385900"><ele>259.7</ele></trkpt>
<trkpt lat="36.127726" lon="-96.386876"><ele>254.1</ele></trkpt>
<trkpt lat="36.127259" lon="-96.387697"><ele>249.8</ele></trkpt>
<trkpt lat="36.126006" lon="-96.389988"><ele>249.7</ele></trkpt>
<trkpt lat="36.125351" lon="-96.391197"><ele>256.3</ele></trkpt>
<trkpt lat="36.124566" lon="-96.392622"><ele>263.2</ele></trkpt>
<trkpt lat="36.124476" lon="-96.392797"><ele>264.0</ele></trkpt>
<trkpt lat="36.123902" lon="-96.394009"><ele>266.0</ele></trkpt>
<trkpt lat="36.123247" lon="-96.395294"><ele>266.4</ele></trkpt>
<trkpt lat="36.123104" lon="-96.395557"><ele>266.8</ele></trkpt>
<trkpt lat="36.123099" lon="-96.395757"><ele>266.8</ele></trkpt>
<trkpt lat="36.123108" lon="-96.395876"><ele>266.6</ele></trkpt>
<trkpt lat="36.123151" lon="-96.395971"><ele>266.1</ele></trkpt>
<trkpt lat="36.123341" lon="-96.396126"><ele>265.2</ele></trkpt>
<trkpt lat="36.123885" lon="-96.396620"><ele>263.6</ele></trkpt>
<trkpt lat="36.124569" lon="-96.397137"><ele>261.1</ele></trkpt>
<trkpt lat="36.124892" lon="-96.397360"><ele>260.6</ele></trkpt>
<trkpt lat="36.125542" lon="-96.397741"><ele>258.9</ele></trkpt>
<trkpt lat="36.126128" lon="-96.398028"><ele>257.5</ele></trkpt>
<trkpt lat="36.126658" lon="-96.398250"><ele>256.8</ele></trkpt>
<trkpt lat="36.127378" lon="-96.398482"><ele>254.4</ele></trkpt>
<trkpt lat="36.127930" lon="-96.398620"><ele>255.0</ele></trkpt>
<trkpt lat="36.128291" lon="-96.398690"><ele>255.6</ele></trkpt>
<trkpt lat="36.128484" lon="-96.398723"><ele>255.9</ele></trkpt>
<trkpt lat="36.129101" lon="-96.398791"><ele>255.4</ele></trkpt>
<trkpt lat="36.131383" lon="-96.398935"><ele>257.1</ele></trkpt>
<trkpt lat="36.133003" lon="-96.399027"><ele>254.3</ele></trkpt>
<trkpt lat="36.133772" lon="-96.399080"><ele>252.7</ele></trkpt>
<trkpt lat="36.138343" lon="-96.399343"><ele>234.9</ele></trkpt>
<trkpt lat="36.144974" lon="-96.399742"><ele>239.2</ele></trkpt>
<trkpt lat="36.146342" lon="-96.399782"><ele>233.5</ele></trkpt>
<trkpt lat="36.148361" lon="-96.399935"><ele>234.0</ele></trkpt>
<trkpt lat="36.152237" lon="-96.400129"><ele>231.7</ele></trkpt>
<trkpt lat="36.153384" lon="-96.400226"><ele>230.7</ele></trkpt>
<trkpt lat="36.158290" lon="-96.400473"><ele>229.7</ele></trkpt>
<trkpt lat="36.160385" lon="-96.400621"><ele>230.0</ele></trkpt>
<trkpt lat="36.163154" lon="-96.400776"><ele>252.1</ele></trkpt>
<trkpt lat="36.165906" lon="-96.400949"><ele>257.8</ele></trkpt>
<trkpt lat="36.168619" lon="-96.401113"><ele>250.1</ele></trkpt>
<trkpt lat="36.170081" lon="-96.401226"><ele>248.5</ele></trkpt>
<trkpt lat="36.173657" lon="-96.401418"><ele>234.7</ele></trkpt>
<trkpt lat="36.179230" lon="-96.401748"><ele>235.2</ele></trkpt>
<trkpt lat="36.182281" lon="-96.401931"><ele>241.4</ele></trkpt>
<trkpt lat="36.185544" lon="-96.402077"><ele>249.0</ele></trkpt>
<trkpt lat="36.188228" lon="-96.402116"><ele>248.6</ele></trkpt>
<trkpt lat="36.189617" lon="-96.402103"><ele>244.6</ele></trkpt>
<trkpt lat="36.195315" lon="-96.402104"><ele>230.6</ele></trkpt>
<trkpt lat="36.200483" lon="-96.402106"><ele>245.8</ele></trkpt>
<trkpt lat="36.201035" lon="-96.402067"><ele>247.8</ele></trkpt>
<trkpt lat="36.201876" lon="-96.401963"><ele>250.3</ele></trkpt>
<trkpt lat="36.202399" lon="-96.401865"><ele>252.0</ele></trkpt>
<trkpt lat="36.203037" lon="-96.401726"><ele>255.1</ele></trkpt>
<trkpt lat="36.203743" lon="-96.401525"><ele>258.8</ele></trkpt>
<trkpt lat="36.204396" lon="-96.401312"><ele>261.4</ele></trkpt>
<trkpt lat="36.205137" lon="-96.401006"><ele>263.6</ele></trkpt>
<trkpt lat="36.205891" lon="-96.400650"><ele>265.4</ele></trkpt>
<trkpt lat="36.206644" lon="-96.400231"><ele>266.4</ele></trkpt>
<trkpt lat="36.207363" lon="-96.399772"><ele>266.5</ele></trkpt>
<trkpt lat="36.209490" lon="-96.398302"><ele>261.9</ele></trkpt>
<trkpt lat="36.211253" lon="-96.397001"><ele>253.8</ele></trkpt>
<trkpt lat="36.212404" lon="-96.396254"><ele>254.5</ele></trkpt>
<trkpt lat="36.213269" lon="-96.395642"><ele>252.5</ele></trkpt>
<trkpt lat="36.214187" lon="-96.394940"><ele>248.8</ele></trkpt>
<trkpt lat="36.215456" lon="-96.394058"><ele>249.3</ele></trkpt>
<trkpt lat="36.215625" lon="-96.393924"><ele>249.7</ele></trkpt>
<trkpt lat="36.216336" lon="-96.393339"><ele>251.0</ele></trkpt>
<trkpt lat="36.216855" lon="-96.392835"><ele>250.6</ele></trkpt>
<trkpt lat="36.217706" lon="-96.391900"><ele>247.7</ele></trkpt>
<trkpt lat="36.218584" lon="-96.390842"><ele>243.3</ele></trkpt>
<trkpt lat="36.218948" lon="-96.390318"><ele>241.9</ele></trkpt>
<trkpt lat="36.219795" lon="-96.388924"><ele>242.2</ele></trkpt>
<trkpt lat="36.220024" lon="-96.388521"><ele>241.6</ele></trkpt>
<trkpt lat="36.220217" lon="-96.387982"><ele>241.0</ele></trkpt>
<trkpt lat="36.220197" lon="-96.387864"><ele>241.0</ele></trkpt>
<trkpt lat="36.220162" lon="-96.387752"><ele>241.0</ele></trkpt>
<trkpt lat="36.220105" lon="-96.387613"><ele>241.0</ele></trkpt>
<trkpt lat="36.219849" lon="-96.387494"><ele>241.0</ele></trkpt>
<trkpt lat="36.218729" lon="-96.387005"><ele>243.8</ele></trkpt>
<trkpt lat="36.218497" lon="-96.386943"><ele>244.4</ele></trkpt>
<trkpt lat="36.217207" lon="-96.386384"><ele>250.7</ele></trkpt>
<trkpt lat="36.216753" lon="-96.386086"><ele>252.5</ele></trkpt>
<trkpt lat="36.216492" lon="-96.385853"><ele>251.6</ele></trkpt>
<trkpt lat="36.216223" lon="-96.385557"><ele>251.5</ele></trkpt>
<trkpt lat="36.216058" lon="-96.385328"><ele>251.7</ele></trkpt>
<trkpt lat="36.215866" lon="-96.385006"><ele>252.3</ele></trkpt>
<trkpt lat="36.215751" lon="-96.384707"><ele>253.0</ele></trkpt>
<trkpt lat="36.215650" lon="-96.384373"><ele>253.7</ele></trkpt>
<trkpt lat="36.215601" lon="-96.384105"><ele>254.2</ele></trkpt>
<trkpt lat="36.215572" lon="-96.383714"><ele>254.8</ele></trkpt>
<trkpt lat="36.215570" lon="-96.383427"><ele>255.2</ele></trkpt>
<trkpt lat="36.215581" lon="-96.383297"><ele>255.3</ele></trkpt>
<trkpt lat="36.215594" lon="-96.383149"><ele>255.5</ele></trkpt>
<trkpt lat="36.215648" lon="-96.382855"><ele>255.9</ele></trkpt>
<trkpt lat="36.215733" lon="-96.382544"><ele>256.1</ele></trkpt>
<trkpt lat="36.216223" lon="-96.381390"><ele>255.3</ele></trkpt>
<trkpt lat="36.216352" lon="-96.381050"><ele>254.9</ele></trkpt>
<trkpt lat="36.216431" lon="-96.380799"><ele>254.8</ele></trkpt>
<trkpt lat="36.216536" lon="-96.380184"><ele>254.7</ele></trkpt>
<trkpt lat="36.216561" lon="-96.379952"><ele>254.7</ele></trkpt>
<trkpt lat="36.216679" lon="-96.379223"><ele>253.5</ele></trkpt>
<trkpt lat="36.216615" lon="-96.370356"><ele>251.0</ele></trkpt>
<trkpt lat="36.216559" lon="-96.363088"><ele>255.2</ele></trkpt>
<trkpt lat="36.216514" lon="-96.357142"><ele>244.5</ele></trkpt>
<trkpt lat="36.216458" lon="-96.350832"><ele>250.0</ele></trkpt>
<trkpt lat="36.216430" lon="-96.345697"><ele>253.6</ele></trkpt>
<trkpt lat="36.216255" lon="-96.322908"><ele>256.8</ele></trkpt>
<trkpt lat="36.216124" lon="-96.306617"><ele>244.4</ele></trkpt>
<trkpt lat="36.216104" lon="-96.305163"><ele>239.0</ele></trkpt>
<trkpt lat="36.216085" lon="-96.304667"><ele>240.7</ele></trkpt>
<trkpt lat="36.216033" lon="-96.303968"><ele>240.0</ele></trkpt>
<trkpt lat="36.215928" lon="-96.302925"><ele>240.4</ele></trkpt>
<trkpt lat="36.215844" lon="-96.302344"><ele>241.3</ele></trkpt>
<trkpt lat="36.215733" lon="-96.301674"><ele>242.8</ele></trkpt>
<trkpt lat="36.215609" lon="-96.301055"><ele>244.3</ele></trkpt>
<trkpt lat="36.215401" lon="-96.300120"><ele>247.2</ele></trkpt>
<trkpt lat="36.215233" lon="-96.299509"><ele>249.2</ele></trkpt>
<trkpt lat="36.215033" lon="-96.298850"><ele>251.3</ele></trkpt>
<trkpt lat="36.214838" lon="-96.298249"><ele>253.2</ele></trkpt>
<trkpt lat="36.214450" lon="-96.297244"><ele>255.9</ele></trkpt>
<trkpt lat="36.214162" lon="-96.296577"><ele>257.7</ele></trkpt>
<trkpt lat="36.213966" lon="-96.296147"><ele>259.0</ele></trkpt>
<trkpt lat="36.213775" lon="-96.295754"><ele>260.1</ele></trkpt>
<trkpt lat="36.213362" lon="-96.294987"><ele>262.3</ele></trkpt>
<trkpt lat="36.212921" lon="-96.294239"><ele>264.2</ele></trkpt>
<trkpt lat="36.212440" lon="-96.293499"><ele>266.0</ele></trkpt>
<trkpt lat="36.212072" lon="-96.292977"><ele>267.2</ele></trkpt>
<trkpt lat="36.211796" lon="-96.292610"><ele>268.2</ele></trkpt>
<trkpt lat="36.211230" lon="-96.291942"><ele>270.2</ele></trkpt>
<trkpt lat="36.210909" lon="-96.291577"><ele>270.4</ele></trkpt>
<trkpt lat="36.210288" lon="-96.290918"><ele>270.9</ele></trkpt>
<trkpt lat="36.209379" lon="-96.290061"><ele>270.2</ele></trkpt>
<trkpt lat="36.209012" lon="-96.289737"><ele>270.3</ele></trkpt>
<trkpt lat="36.208482" lon="-96.289237"><ele>269.0</ele></trkpt>
<trkpt lat="36.207481" lon="-96.288335"><ele>267.9</ele></trkpt>
<trkpt lat="36.200851" lon="-96.282765"><ele>262.0</ele></trkpt>
<trkpt lat="36.197264" lon="-96.279747"><ele>250.3</ele></trkpt>
<trkpt lat="36.190935" lon="-96.274425"><ele>254.3</ele></trkpt>
<trkpt lat="36.185705" lon="-96.270020"><ele>238.5</ele></trkpt>
<trkpt lat="36.183812" lon="-96.268390"><ele>233.7</ele></trkpt>
<trkpt lat="36.181374" lon="-96.266336"><ele>229.2</ele></trkpt>
<trkpt lat="36.172871" lon="-96.259197"><ele>232.0</ele></trkpt>
<trkpt lat="36.165637" lon="-96.253157"><ele>264.1</ele></trkpt>
<trkpt lat="36.164045" lon="-96.251839"><ele>268.7</ele></trkpt>
<trkpt lat="36.160655" lon="-96.248968"><ele>259.3</ele></trkpt>
<trkpt lat="36.160477" lon="-96.248926"><ele>259.0</ele></trkpt>
<trkpt lat="36.159620" lon="-96.248355"><ele>254.5</ele></trkpt>
<trkpt lat="36.159247" lon="-96.248176"><ele>252.3</ele></trkpt>
<trkpt lat="36.159057" lon="-96.248111"><ele>251.1</ele></trkpt>
<trkpt lat="36.158732" lon="-96.248019"><ele>249.2</ele></trkpt>
<trkpt lat="36.158446" lon="-96.247976"><ele>247.4</ele></trkpt>
<trkpt lat="36.158307" lon="-96.247969"><ele>246.6</ele></trkpt>
<trkpt lat="36.158037" lon="-96.247985"><ele>245.2</ele></trkpt>
<trkpt lat="36.157933" lon="-96.248005"><ele>244.7</ele></trkpt>
<trkpt lat="36.157726" lon="-96.248073"><ele>243.7</ele></trkpt>
<trkpt lat="36.157502" lon="-96.248175"><ele>242.8</ele></trkpt>
<trkpt lat="36.156790" lon="-96.248634"><ele>240.2</ele></trkpt>
<trkpt lat="36.156574" lon="-96.248729"><ele>239.7</ele></trkpt>
<trkpt lat="36.156376" lon="-96.248875"><ele>239.1</ele></trkpt>
<trkpt lat="36.155617" lon="-96.249372"><ele>236.8</ele></trkpt>
<trkpt lat="36.155126" lon="-96.249616"><ele>235.0</ele></trkpt>
<trkpt lat="36.154606" lon="-96.249956"><ele>234.2</ele></trkpt>
<trkpt lat="36.152048" lon="-96.251579"><ele>228.4</ele></trkpt>
<trkpt lat="36.148116" lon="-96.254116"><ele>232.4</ele></trkpt>
<trkpt lat="36.145719" lon="-96.255657"><ele>231.1</ele></trkpt>
<trkpt lat="36.144258" lon="-96.256596"><ele>232.3</ele></trkpt>
<trkpt lat="36.142826" lon="-96.257568"><ele>238.6</ele></trkpt>
<trkpt lat="36.142330" lon="-96.257949"><ele>241.5</ele></trkpt>
<trkpt lat="36.141896" lon="-96.258304"><ele>244.1</ele></trkpt>
<trkpt lat="36.141380" lon="-96.258755"><ele>246.0</ele></trkpt>
<trkpt lat="36.140801" lon="-96.259316"><ele>246.7</ele></trkpt>
<trkpt lat="36.136742" lon="-96.263490"><ele>250.2</ele></trkpt>
<trkpt lat="36.134917" lon="-96.265385"><ele>250.6</ele></trkpt>
<trkpt lat="36.134155" lon="-96.266160"><ele>249.8</ele></trkpt>
<trkpt lat="36.133467" lon="-96.266873"><ele>251.0</ele></trkpt>
<trkpt lat="36.131646" lon="-96.268734"><ele>247.2</ele></trkpt>
<trkpt lat="36.130719" lon="-96.269704"><ele>244.5</ele></trkpt>
<trkpt lat="36.130495" lon="-96.269932"><ele>244.1</ele></trkpt>
<trkpt lat="36.130262" lon="-96.270256"><ele>243.3</ele></trkpt>
<trkpt lat="36.130087" lon="-96.270523"><ele>241.4</ele></trkpt>
<trkpt lat="36.129932" lon="-96.270825"><ele>240.4</ele></trkpt>
<trkpt lat="36.129822" lon="-96.271091"><ele>239.4</ele></trkpt>
<trkpt lat="36.129749" lon="-96.271300"><ele>238.5</ele></trkpt>
<trkpt lat="36.129687" lon="-96.271536"><ele>237.7</ele></trkpt>
<trkpt lat="36.129647" lon="-96.271721"><ele>237.2</ele></trkpt>
<trkpt lat="36.129619" lon="-96.271939"><ele>236.7</ele></trkpt>
<trkpt lat="36.129610" lon="-96.272075"><ele>236.3</ele></trkpt>
<trkpt lat="36.129615" lon="-96.272181"><ele>236.0</ele></trkpt>
<trkpt lat="36.129634" lon="-96.272324"><ele>235.6</ele></trkpt>
<trkpt lat="36.129683" lon="-96.272462"><ele>235.1</ele></trkpt>
<trkpt lat="36.129732" lon="-96.272567"><ele>234.8</ele></trkpt>
<trkpt lat="36.129820" lon="-96.272676"><ele>234.6</ele></trkpt>
<trkpt lat="36.129905" lon="-96.272757"><ele>234.4</ele></trkpt>
<trkpt lat="36.129997" lon="-96.272816"><ele>234.3</ele></trkpt>
<trkpt lat="36.130098" lon="-96.272851"><ele>234.3</ele></trkpt>
<trkpt lat="36.130225" lon="-96.272873"><ele>234.0</ele></trkpt>
<trkpt lat="36.130354" lon="-96.272865"><ele>233.6</ele></trkpt>
<trkpt lat="36.130490" lon="-96.272827"><ele>233.6</ele></trkpt>
<trkpt lat="36.130647" lon="-96.272717"><ele>234.1</ele></trkpt>
<trkpt lat="36.130721" lon="-96.272636"><ele>234.3</ele></trkpt>
<trkpt lat="36.130830" lon="-96.272459"><ele>234.8</ele></trkpt>
<trkpt lat="36.130949" lon="-96.272044"><ele>235.3</ele></trkpt>
<trkpt lat="36.131033" lon="-96.270211"><ele>239.9</ele></trkpt>
<trkpt lat="36.131077" lon="-96.269076"><ele>241.3</ele></trkpt>
<trkpt lat="36.131393" lon="-96.262448"><ele>251.3</ele></trkpt>
<trkpt lat="36.131442" lon="-96.261680"><ele>251.9</ele></trkpt>
<trkpt lat="36.131573" lon="-96.259907"><ele>250.9</ele></trkpt>
<trkpt lat="36.131664" lon="-96.258987"><ele>252.3</ele></trkpt>
<trkpt lat="36.131771" lon="-96.258061"><ele>252.3</ele></trkpt>
<trkpt lat="36.132332" lon="-96.252854"><ele>240.0</ele></trkpt>
<trkpt lat="36.132788" lon="-96.248724"><ele>224.4</ele></trkpt>
<trkpt lat="36.133016" lon="-96.246659"><ele>228.0</ele></trkpt>
<trkpt lat="36.133297" lon="-96.243900"><ele>241.7</ele></trkpt>
<trkpt lat="36.133437" lon="-96.242198"><ele>250.2</ele></trkpt>
<trkpt lat="36.133514" lon="-96.240494"><ele>258.1</ele></trkpt>
<trkpt lat="36.133613" lon="-96.237535"><ele>265.1</ele></trkpt>
<trkpt lat="36.133644" lon="-96.231095"><ele>260.0</ele></trkpt>
<trkpt lat="36.133680" lon="-96.216955"><ele>236.0</ele></trkpt>
<trkpt lat="36.133702" lon="-96.215019"><ele>234.9</ele></trkpt>
<trkpt lat="36.133744" lon="-96.213953"><ele>234.1</ele></trkpt>
<trkpt lat="36.133832" lon="-96.212577"><ele>234.3</ele></trkpt>
<trkpt lat="36.133898" lon="-96.211793"><ele>234.2</ele></trkpt>
<trkpt lat="36.134105" lon="-96.210050"><ele>232.3</ele></trkpt>
<trkpt lat="36.134283" lon="-96.208895"><ele>231.3</ele></trkpt>
<trkpt lat="36.134410" lon="-96.208141"><ele>231.6</ele></trkpt>
<trkpt lat="36.134550" lon="-96.207380"><ele>230.8</ele></trkpt>
<trkpt lat="36.134730" lon="-96.206486"><ele>231.0</ele></trkpt>
<trkpt lat="36.135014" lon="-96.205325"><ele>230.1</ele></trkpt>
<trkpt lat="36.135391" lon="-96.203859"><ele>229.4</ele></trkpt>
<trkpt lat="36.135842" lon="-96.202387"><ele>227.5</ele></trkpt>
<trkpt lat="36.136392" lon="-96.200689"><ele>221.7</ele></trkpt>
<trkpt lat="36.136922" lon="-96.199097"><ele>217.4</ele></trkpt>
<trkpt lat="36.137275" lon="-96.198084"><ele>212.8</ele></trkpt>
<trkpt lat="36.137457" lon="-96.197504"><ele>210.0</ele></trkpt>
<trkpt lat="36.137629" lon="-96.196874"><ele>207.4</ele></trkpt>
<trkpt lat="36.137823" lon="-96.196012"><ele>205.0</ele></trkpt>
<trkpt lat="36.137905" lon="-96.195597"><ele>204.2</ele></trkpt>
<trkpt lat="36.138026" lon="-96.194902"><ele>203.3</ele></trkpt>
<trkpt lat="36.138126" lon="-96.194213"><ele>202.5</ele></trkpt>
<trkpt lat="36.138206" lon="-96.193387"><ele>201.9</ele></trkpt>
<trkpt lat="36.138265" lon="-96.192647"><ele>202.3</ele></trkpt>
<trkpt lat="36.138313" lon="-96.191566"><ele>202.7</ele></trkpt>
<trkpt lat="36.138314" lon="-96.190154"><ele>202.8</ele></trkpt>
<trkpt lat="36.138265" lon="-96.188916"><ele>201.8</ele></trkpt>
<trkpt lat="36.138184" lon="-96.187721"><ele>201.4</ele></trkpt>
<trkpt lat="36.137994" lon="-96.186036"><ele>201.6</ele></trkpt>
<trkpt lat="36.137743" lon="-96.184478"><ele>201.4</ele></trkpt>
<trkpt lat="36.137188" lon="-96.181211"><ele>201.1</ele></trkpt>
<trkpt lat="36.136926" lon="-96.179573"><ele>201.0</ele></trkpt>
<trkpt lat="36.135397" lon="-96.170729"><ele>201.3</ele></trkpt>
<trkpt lat="36.135248" lon="-96.170077"><ele>201.0</ele></trkpt>
<trkpt lat="36.135174" lon="-96.169753"><ele>201.1</ele></trkpt>
<trkpt lat="36.134907" lon="-96.168735"><ele>201.2</ele></trkpt>
<trkpt lat="36.134536" lon="-96.167494"><ele>201.0</ele></trkpt>
<trkpt lat="36.132309" lon="-96.159902"><ele>200.2</ele></trkpt>
<trkpt lat="36.131676" lon="-96.157802"><ele>199.9</ele></trkpt>
<trkpt lat="36.130781" lon="-96.154986"><ele>199.7</ele></trkpt>
<trkpt lat="36.129599" lon="-96.151170"><ele>199.5</ele></trkpt>
<trkpt lat="36.128495" lon="-96.147340"><ele>199.0</ele></trkpt>
<trkpt lat="36.127281" lon="-96.142781"><ele>199.8</ele></trkpt>
<trkpt lat="36.127195" lon="-96.142486"><ele>199.8</ele></trkpt>
<trkpt lat="36.123101" lon="-96.128540"><ele>199.0</ele></trkpt>
<trkpt lat="36.122778" lon="-96.127409"><ele>199.0</ele></trkpt>
<trkpt lat="36.122458" lon="-96.126352"><ele>199.2</ele></trkpt>
<trkpt lat="36.122174" lon="-96.125359"><ele>199.3</ele></trkpt>
<trkpt lat="36.122047" lon="-96.124811"><ele>198.9</ele></trkpt>
<trkpt lat="36.121948" lon="-96.124492"><ele>196.8</ele></trkpt>
<trkpt lat="36.121763" lon="-96.123860"><ele>198.7</ele></trkpt>
<trkpt lat="36.121352" lon="-96.122401"><ele>199.0</ele></trkpt>
<trkpt lat="36.121148" lon="-96.121591"><ele>199.0</ele></trkpt>
<trkpt lat="36.121000" lon="-96.120996"><ele>200.5</ele></trkpt>
<trkpt lat="36.120696" lon="-96.119730"><ele>204.4</ele></trkpt>
<trkpt lat="36.120562" lon="-96.119225"><ele>206.4</ele></trkpt>
<trkpt lat="36.120421" lon="-96.118777"><ele>208.0</ele></trkpt>
<trkpt lat="36.120285" lon="-96.118458"><ele>208.8</ele></trkpt>
<trkpt lat="36.120202" lon="-96.118294"><ele>209.1</ele></trkpt>
<trkpt lat="36.119980" lon="-96.117986"><ele>209.7</ele></trkpt>
<trkpt lat="36.119878" lon="-96.117872"><ele>209.7</ele></trkpt>
<trkpt lat="36.120154" lon="-96.117471"><ele>207.4</ele></trkpt>
<trkpt lat="36.120356" lon="-96.117124"><ele>205.7</ele></trkpt>
<trkpt lat="36.120446" lon="-96.116888"><ele>204.8</ele></trkpt>
<trkpt lat="36.120497" lon="-96.116720"><ele>204.4</ele></trkpt>
<trkpt lat="36.120535" lon="-96.116549"><ele>204.7</ele></trkpt>
<trkpt lat="36.120622" lon="-96.115931"><ele>203.4</ele></trkpt>
<trkpt lat="36.120872" lon="-96.113739"><ele>203.0</ele></trkpt>
<trkpt lat="36.120966" lon="-96.112760"><ele>202.3</ele></trkpt>
<trkpt lat="36.120984" lon="-96.112083"><ele>201.8</ele></trkpt>
<trkpt lat="36.120960" lon="-96.111145"><ele>200.4</ele></trkpt>
<trkpt lat="36.120900" lon="-96.110119"><ele>199.2</ele></trkpt>
<trkpt lat="36.120869" lon="-96.109367"><ele>199.8</ele></trkpt>
<trkpt lat="36.120811" lon="-96.107432"><ele>207.2</ele></trkpt>
<trkpt lat="36.120822" lon="-96.107021"><ele>209.8</ele></trkpt>
<trkpt lat="36.120855" lon="-96.106621"><ele>212.2</ele></trkpt>
<trkpt lat="36.120950" lon="-96.105726"><ele>216.2</ele></trkpt>
<trkpt lat="36.121084" lon="-96.105000"><ele>215.8</ele></trkpt>
<trkpt lat="36.121196" lon="-96.104471"><ele>213.8</ele></trkpt>
<trkpt lat="36.121275" lon="-96.104141"><ele>212.7</ele></trkpt>
<trkpt lat="36.121482" lon="-96.103429"><ele>214.4</ele></trkpt>
<trkpt lat="36.121649" lon="-96.102929"><ele>218.3</ele></trkpt>
<trkpt lat="36.121819" lon="-96.102499"><ele>219.3</ele></trkpt>
<trkpt lat="36.122147" lon="-96.101749"><ele>217.9</ele></trkpt>
<trkpt lat="36.122365" lon="-96.101324"><ele>216.6</ele></trkpt>
<trkpt lat="36.122972" lon="-96.100217"><ele>213.8</ele></trkpt>
<trkpt lat="36.123306" lon="-96.099593"><ele>211.3</ele></trkpt>
<trkpt lat="36.123664" lon="-96.098855"><ele>209.1</ele></trkpt>
<trkpt lat="36.123925" lon="-96.098229"><ele>208.8</ele></trkpt>
<trkpt lat="36.124105" lon="-96.097747"><ele>209.4</ele></trkpt>
<trkpt lat="36.124325" lon="-96.097075"><ele>210.8</ele></trkpt>
<trkpt lat="36.124515" lon="-96.096353"><ele>212.9</ele></trkpt>
<trkpt lat="36.124675" lon="-96.095621"><ele>214.7</ele></trkpt>
<trkpt lat="36.124806" lon="-96.094911"><ele>213.6</ele></trkpt>
<trkpt lat="36.125166" lon="-96.092796"><ele>200.4</ele></trkpt>
<trkpt lat="36.125307" lon="-96.092058"><ele>198.7</ele></trkpt>
<trkpt lat="36.125429" lon="-96.091592"><ele>198.7</ele></trkpt>
<trkpt lat="36.125500" lon="-96.091354"><ele>199.0</ele></trkpt>
<trkpt lat="36.125661" lon="-96.090939"><ele>199.9</ele></trkpt>
<trkpt lat="36.125768" lon="-96.090729"><ele>200.8</ele></trkpt>
<trkpt lat="36.125932" lon="-96.090458"><ele>202.1</ele></trkpt>
<trkpt lat="36.126758" lon="-96.089151"><ele>207.8</ele></trkpt>
<trkpt lat="36.127088" lon="-96.088604"><ele>209.6</ele></trkpt>
<trkpt lat="36.127484" lon="-96.087902"><ele>211.3</ele></trkpt>
<trkpt lat="36.127635" lon="-96.087590"><ele>211.8</ele></trkpt>
<trkpt lat="36.129158" lon="-96.084127"><ele>214.9</ele></trkpt>
<trkpt lat="36.129476" lon="-96.083532"><ele>214.8</ele></trkpt>
<trkpt lat="36.129685" lon="-96.083070"><ele>214.9</ele></trkpt>
<trkpt lat="36.129772" lon="-96.082832"><ele>214.9</ele></trkpt>
<trkpt lat="36.130139" lon="-96.081682"><ele>211.9</ele></trkpt>
<trkpt lat="36.130748" lon="-96.079677"><ele>203.9</ele></trkpt>
<trkpt lat="36.130941" lon="-96.079144"><ele>205.1</ele></trkpt>
<trkpt lat="36.131119" lon="-96.078737"><ele>206.5</ele></trkpt>
<trkpt lat="36.132714" lon="-96.075687"><ele>209.8</ele></trkpt>
<trkpt lat="36.133203" lon="-96.074681"><ele>209.8</ele></trkpt>
<trkpt lat="36.133556" lon="-96.073851"><ele>209.2</ele></trkpt>
<trkpt lat="36.133902" lon="-96.072951"><ele>208.1</ele></trkpt>
<trkpt lat="36.134342" lon="-96.071567"><ele>209.2</ele></trkpt>
<trkpt lat="36.134550" lon="-96.070745"><ele>209.4</ele></trkpt>
<trkpt lat="36.134693" lon="-96.070056"><ele>209.7</ele></trkpt>
<trkpt lat="36.134844" lon="-96.069268"><ele>210.5</ele></trkpt>
<trkpt lat="36.134955" lon="-96.068617"><ele>210.9</ele></trkpt>
<trkpt lat="36.135046" lon="-96.067936"><ele>211.0</ele></trkpt>
<trkpt lat="36.135284" lon="-96.065616"><ele>209.0</ele></trkpt>
<trkpt lat="36.135304" lon="-96.065132"><ele>208.1</ele></trkpt>
<trkpt lat="36.135295" lon="-96.064623"><ele>207.4</ele></trkpt>
<trkpt lat="36.135242" lon="-96.064024"><ele>207.5</ele></trkpt>
<trkpt lat="36.135200" lon="-96.063689"><ele>206.5</ele></trkpt>
<trkpt lat="36.135087" lon="-96.063154"><ele>204.7</ele></trkpt>
<trkpt lat="36.135011" lon="-96.062854"><ele>204.1</ele></trkpt>
<trkpt lat="36.134915" lon="-96.062538"><ele>203.7</ele></trkpt>
<trkpt lat="36.134117" lon="-96.060198"><ele>204.4</ele></trkpt>
<trkpt lat="36.133876" lon="-96.059533"><ele>203.1</ele></trkpt>
<trkpt lat="36.133821" lon="-96.059362"><ele>202.7</ele></trkpt>
<trkpt lat="36.133631" lon="-96.058712"><ele>200.8</ele></trkpt>
<trkpt lat="36.133592" lon="-96.058500"><ele>200.4</ele></trkpt>
<trkpt lat="36.133580" lon="-96.058281"><ele>199.8</ele></trkpt>
<trkpt lat="36.133526" lon="-96.053534"><ele>199.2</ele></trkpt>
<trkpt lat="36.133522" lon="-96.051767"><ele>198.0</ele></trkpt>
<trkpt lat="36.133494" lon="-96.049542"><ele>198.5</ele></trkpt>
<trkpt lat="36.133474" lon="-96.043335"><ele>196.6</ele></trkpt>
<trkpt lat="36.133455" lon="-96.041264"><ele>198.3</ele></trkpt>
<trkpt lat="36.133427" lon="-96.032488"><ele>195.9</ele></trkpt>
<trkpt lat="36.133436" lon="-96.031606"><ele>195.7</ele></trkpt>
<trkpt lat="36.133428" lon="-96.030305"><ele>195.0</ele></trkpt>
<trkpt lat="36.133437" lon="-96.029393"><ele>195.0</ele></trkpt>
<trkpt lat="36.133433" lon="-96.028571"><ele>195.0</ele></trkpt>
<trkpt lat="36.133493" lon="-96.017657"><ele>194.5</ele></trkpt>
<trkpt lat="36.133451" lon="-96.016957"><ele>193.5</ele></trkpt>
<trkpt lat="36.133451" lon="-96.016031"><ele>193.8</ele></trkpt>
<trkpt lat="36.133465" lon="-96.014493"><ele>194.0</ele></trkpt>
<trkpt lat="36.133422" lon="-96.014280"><ele>194.0</ele></trkpt>
<trkpt lat="36.133309" lon="-96.013949"><ele>194.0</ele></trkpt>
<trkpt lat="36.133210" lon="-96.013799"><ele>194.0</ele></trkpt>
<trkpt lat="36.133156" lon="-96.013717"><ele>194.0</ele></trkpt>
<trkpt lat="36.132993" lon="-96.013578"><ele>194.0</ele></trkpt>
<trkpt lat="36.132847" lon="-96.013495"><ele>194.0</ele></trkpt>
<trkpt lat="36.132697" lon="-96.013434"><ele>194.0</ele></trkpt>
<trkpt lat="36.132514" lon="-96.013389"><ele>194.0</ele></trkpt>
<trkpt lat="36.132375" lon="-96.013378"><ele>194.0</ele></trkpt>
<trkpt lat="36.132231" lon="-96.013343"><ele>194.0</ele></trkpt>
<trkpt lat="36.132150" lon="-96.013308"><ele>194.1</ele></trkpt>
<trkpt lat="36.131933" lon="-96.013142"><ele>194.7</ele></trkpt>
<trkpt lat="36.131725" lon="-96.012883"><ele>195.7</ele></trkpt>
<trkpt lat="36.131638" lon="-96.012741"><ele>196.1</ele></trkpt>
<trkpt lat="36.131528" lon="-96.012509"><ele>196.3</ele></trkpt>
<trkpt lat="36.131267" lon="-96.011808"><ele>197.2</ele></trkpt>
<trkpt lat="36.129974" lon="-96.008451"><ele>195.5</ele></trkpt>
<trkpt lat="36.129892" lon="-96.008227"><ele>196.0</ele></trkpt>
<trkpt lat="36.129843" lon="-96.007978"><ele>195.6</ele></trkpt>
<trkpt lat="36.129823" lon="-96.007692"><ele>195.2</ele></trkpt>
<trkpt lat="36.129820" lon="-96.007349"><ele>194.4</ele></trkpt>
<trkpt lat="36.129640" lon="-96.007093"><ele>194.0</ele></trkpt>
<trkpt lat="36.129466" lon="-96.006974"><ele>194.0</ele></trkpt>
<trkpt lat="36.129274" lon="-96.006972"><ele>194.0</ele></trkpt>
<trkpt lat="36.126760" lon="-96.006968"><ele>193.0</ele></trkpt>
<trkpt lat="36.126657" lon="-96.006980"><ele>193.1</ele></trkpt>
<trkpt lat="36.126245" lon="-96.007096"><ele>193.3</ele></trkpt>
<trkpt lat="36.125961" lon="-96.007152"><ele>193.0</ele></trkpt>
<trkpt lat="36.125647" lon="-96.007160"><ele>193.0</ele></trkpt>
<trkpt lat="36.123440" lon="-96.007159"><ele>193.0</ele></trkpt>
<trkpt lat="36.118258" lon="-96.007161"><ele>194.7</ele></trkpt>
<trkpt lat="36.118023" lon="-96.007182"><ele>194.9</ele></trkpt>
<trkpt lat="36.117731" lon="-96.007236"><ele>194.8</ele></trkpt>
<trkpt lat="36.117464" lon="-96.007318"><ele>194.1</ele></trkpt>
<trkpt lat="36.117280" lon="-96.007396"><ele>194.0</ele></trkpt>
<trkpt lat="36.116692" lon="-96.007724"><ele>194.0</ele></trkpt>
<trkpt lat="36.115676" lon="-96.008298"><ele>194.0</ele></trkpt>
<trkpt lat="36.115208" lon="-96.008575"><ele>194.0</ele></trkpt>
<trkpt lat="36.114204" lon="-96.009148"><ele>194.0</ele></trkpt>
<trkpt lat="36.113774" lon="-96.009365"><ele>194.0</ele></trkpt>
<trkpt lat="36.112430" lon="-96.010140"><ele>193.7</ele></trkpt>
<trkpt lat="36.112252" lon="-96.010278"><ele>193.5</ele></trkpt>
<trkpt lat="36.112079" lon="-96.010438"><ele>194.1</ele></trkpt>
<trkpt lat="36.111962" lon="-96.010562"><ele>194.2</ele></trkpt>
<trkpt lat="36.111793" lon="-96.010768"><ele>194.5</ele></trkpt>
<trkpt lat="36.110643" lon="-96.012350"><ele>196.8</ele></trkpt>
<trkpt lat="36.110421" lon="-96.012633"><ele>198.0</ele></trkpt>
<trkpt lat="36.109481" lon="-96.013918"><ele>202.6</ele></trkpt>
<trkpt lat="36.108527" lon="-96.015243"><ele>203.0</ele></trkpt>
<trkpt lat="36.107974" lon="-96.015995"><ele>202.9</ele></trkpt>
<trkpt lat="36.107622" lon="-96.016473"><ele>202.4</ele></trkpt>
<trkpt lat="36.107652" lon="-96.016506"><ele>202.5</ele></trkpt>
</trkseg></trk>
</gpx>