<?xml version="1.0" encoding="UTF-8" standalone="no" ?><gpx xmlns="http://www.topografix.com/GPX/1/1" xmlns:xsi="http://www.w3.org/2001/XMLSchema-instance" creator="GraphHopper" version="1.1" xmlns:gh="https://graphhopper.com/public/schema/gpx/1.1">
<metadata><copyright author="OpenStreetMap contributors"/><link href="http://graphhopper.com"><text>GraphHopper GPX</text></link><time>2026-04-20T05:05:23.487Z</time></metadata>
<trk>
<name>GraphHopper Track</name><desc></desc>
<trkseg><trkpt lat="38.793205" lon="-90.001221"><ele>166.1</ele></trkpt>
<trkpt lat="38.793514" lon="-90.001220"><ele>166.4</ele></trkpt>
<trkpt lat="38.793660" lon="-90.001235"><ele>166.2</ele></trkpt>
<trkpt lat="38.793665" lon="-90.002015"><ele>163.9</ele></trkpt>
<trkpt lat="38.793664" lon="-90.002533"><ele>162.3</ele></trkpt>
<trkpt lat="38.793616" lon="-90.002863"><ele>161.2</ele></trkpt>
<trkpt lat="38.793575" lon="-90.003050"><ele>160.1</ele></trkpt>
<trkpt lat="38.793764" lon="-90.003116"><ele>159.8</ele></trkpt>
<trkpt lat="38.794745" lon="-90.003556"><ele>157.4</ele></trkpt>
<trkpt lat="38.794936" lon="-90.003620"><ele>157.4</ele></trkpt>
<trkpt lat="38.795092" lon="-90.003652"><ele>157.8</ele></trkpt>
<trkpt lat="38.795250" lon="-90.003665"><ele>158.1</ele></trkpt>
<trkpt lat="38.795408" lon="-90.003660"><ele>158.4</ele></trkpt>
<trkpt lat="38.795566" lon="-90.003636"><ele>158.9</ele></trkpt>
<trkpt lat="38.795720" lon="-90.003594"><ele>159.6</ele></trkpt>
<trkpt lat="38.795866" lon="-90.003537"><ele>160.2</ele></trkpt>
<trkpt lat="38.796012" lon="-90.003462"><ele>160.9</ele></trkpt>
<trkpt lat="38.796145" lon="-90.003376"><ele>161.6</ele></trkpt>
<trkpt lat="38.796271" lon="-90.003276"><ele>162.3</ele></trkpt>
<trkpt lat="38.796391" lon="-90.003163"><ele>163.0</ele></trkpt>
<trkpt lat="38.796502" lon="-90.003037"><ele>163.8</ele></trkpt>
<trkpt lat="38.796629" lon="-90.002863"><ele>164.5</ele></trkpt>
<trkpt lat="38.796635" lon="-90.002880"><ele>164.5</ele></trkpt>
<trkpt lat="38.797172" lon="-90.003421"><ele>166.9</ele></trkpt>
<trkpt lat="38.797290" lon="-90.003527"><ele>167.0</ele></trkpt>
<trkpt lat="38.797465" lon="-90.003665"><ele>166.7</ele></trkpt>
<trkpt lat="38.797667" lon="-90.003800"><ele>166.0</ele></trkpt>
<trkpt lat="38.797876" lon="-90.003916"><ele>165.2</ele></trkpt>
<trkpt lat="38.798123" lon="-90.004025"><ele>164.4</ele></trkpt>
<trkpt lat="38.798887" lon="-90.004395"><ele>162.3</ele></trkpt>
<trkpt lat="38.799041" lon="-90.004507"><ele>161.9</ele></trkpt>
<trkpt lat="38.799186" lon="-90.004637"><ele>161.5</ele></trkpt>
<trkpt lat="38.799319" lon="-90.004786"><ele>161.3</ele></trkpt>
<trkpt lat="38.799416" lon="-90.004917"><ele>161.2</ele></trkpt>
<trkpt lat="38.799525" lon="-90.005096"><ele>161.2</ele></trkpt>
<trkpt lat="38.799597" lon="-90.005239"><ele>161.3</ele></trkpt>
<trkpt lat="38.799636" lon="-90.005326"><ele>161.4</ele></trkpt>
<trkpt lat="38.800171" lon="-90.006732"><ele>162.7</ele></trkpt>
<trkpt lat="38.800346" lon="-90.007154"><ele>162.6</ele></trkpt>
<trkpt lat="38.800502" lon="-90.007499"><ele>162.5</ele></trkpt>
<trkpt lat="38.800699" lon="-90.007904"><ele>162.5</ele></trkpt>
<trkpt lat="38.800909" lon="-90.008300"><ele>162.4</ele></trkpt>
<trkpt lat="38.801138" lon="-90.008681"><ele>162.1</ele></trkpt>
<trkpt lat="38.801377" lon="-90.009054"><ele>161.4</ele></trkpt>
<trkpt lat="38.801660" lon="-90.009468"><ele>161.3</ele></trkpt>
<trkpt lat="38.802193" lon="-90.010185"><ele>159.4</ele></trkpt>
<trkpt lat="38.802434" lon="-90.010478"><ele>158.2</ele></trkpt>
<trkpt lat="38.802638" lon="-90.010691"><ele>156.9</ele></trkpt>
<trkpt lat="38.802857" lon="-90.010410"><ele>157.7</ele></trkpt>
<trkpt lat="38.803096" lon="-90.010131"><ele>158.7</ele></trkpt>
<trkpt lat="38.803246" lon="-90.009970"><ele>159.4</ele></trkpt>
<trkpt lat="38.803508" lon="-90.009716"><ele>160.3</ele></trkpt>
<trkpt lat="38.803740" lon="-90.009512"><ele>161.1</ele></trkpt>
<trkpt lat="38.803978" lon="-90.009322"><ele>161.9</ele></trkpt>
<trkpt lat="38.804223" lon="-90.009144"><ele>162.3</ele></trkpt>
<trkpt lat="38.804427" lon="-90.009011"><ele>162.6</ele></trkpt>
<trkpt lat="38.804781" lon="-90.008806"><ele>162.4</ele></trkpt>
<trkpt lat="38.809469" lon="-90.006289"><ele>158.2</ele></trkpt>
<trkpt lat="38.809776" lon="-90.006097"><ele>157.2</ele></trkpt>
<trkpt lat="38.810026" lon="-90.005922"><ele>156.3</ele></trkpt>
<trkpt lat="38.810270" lon="-90.005733"><ele>155.4</ele></trkpt>
<trkpt lat="38.810553" lon="-90.005489"><ele>154.3</ele></trkpt>
<trkpt lat="38.810915" lon="-90.005135"><ele>152.6</ele></trkpt>
<trkpt lat="38.811203" lon="-90.004812"><ele>151.0</ele></trkpt>
<trkpt lat="38.811431" lon="-90.004526"><ele>149.5</ele></trkpt>
<trkpt lat="38.811606" lon="-90.004287"><ele>148.2</ele></trkpt>
<trkpt lat="38.811812" lon="-90.003976"><ele>146.6</ele></trkpt>
<trkpt lat="38.812006" lon="-90.003651"><ele>145.0</ele></trkpt>
<trkpt lat="38.812213" lon="-90.003262"><ele>143.1</ele></trkpt>
<trkpt lat="38.812385" lon="-90.002894"><ele>141.6</ele></trkpt>
<trkpt lat="38.812544" lon="-90.002509"><ele>140.3</ele></trkpt>
<trkpt lat="38.812670" lon="-90.002164"><ele>139.3</ele></trkpt>
<trkpt lat="38.812769" lon="-90.001862"><ele>138.6</ele></trkpt>
<trkpt lat="38.812875" lon="-90.001474"><ele>139.0</ele></trkpt>
<trkpt lat="38.812979" lon="-90.001024"><ele>138.9</ele></trkpt>
<trkpt lat="38.813053" lon="-90.000624"><ele>138.8</ele></trkpt>
<trkpt lat="38.813121" lon="-90.000140"><ele>138.7</ele></trkpt>
<trkpt lat="38.813437" lon="-89.997687"><ele>142.8</ele></trkpt>
<trkpt lat="38.813449" lon="-89.997417"><ele>143.4</ele></trkpt>
<trkpt lat="38.813479" lon="-89.997058"><ele>144.1</ele></trkpt>
<trkpt lat="38.813575" lon="-89.996140"><ele>146.1</ele></trkpt>
<trkpt lat="38.813792" lon="-89.994376"><ele>149.8</ele></trkpt>
<trkpt lat="38.813866" lon="-89.993850"><ele>150.1</ele></trkpt>
<trkpt lat="38.814234" lon="-89.993839"><ele>150.0</ele></trkpt>
<trkpt lat="38.818581" lon="-89.993869"><ele>146.5</ele></trkpt>
<trkpt lat="38.818973" lon="-89.993871"><ele>143.4</ele></trkpt>
<trkpt lat="38.822923" lon="-89.993851"><ele>136.3</ele></trkpt>
<trkpt lat="38.824289" lon="-89.993899"><ele>133.5</ele></trkpt>
<trkpt lat="38.824796" lon="-89.993877"><ele>135.5</ele></trkpt>
<trkpt lat="38.825067" lon="-89.993851"><ele>136.6</ele></trkpt>
<trkpt lat="38.825762" lon="-89.993809"><ele>139.9</ele></trkpt>
<trkpt lat="38.826384" lon="-89.993874"><ele>141.5</ele></trkpt>
<trkpt lat="38.826717" lon="-89.993930"><ele>142.2</ele></trkpt>
<trkpt lat="38.827083" lon="-89.994014"><ele>142.9</ele></trkpt>
<trkpt lat="38.828162" lon="-89.994303"><ele>142.8</ele></trkpt>
<trkpt lat="38.828427" lon="-89.994360"><ele>142.4</ele></trkpt>
<trkpt lat="38.828714" lon="-89.994406"><ele>141.9</ele></trkpt>
<trkpt lat="38.829170" lon="-89.994453"><ele>141.3</ele></trkpt>
<trkpt lat="38.829659" lon="-89.994462"><ele>141.2</ele></trkpt>
<trkpt lat="38.829964" lon="-89.994443"><ele>141.3</ele></trkpt>
<trkpt lat="38.830268" lon="-89.994405"><ele>142.3</ele></trkpt>
<trkpt lat="38.830601" lon="-89.994343"><ele>142.3</ele></trkpt>
<trkpt lat="38.830984" lon="-89.994251"><ele>142.5</ele></trkpt>
<trkpt lat="38.831276" lon="-89.994165"><ele>142.5</ele></trkpt>
<trkpt lat="38.831623" lon="-89.994042"><ele>142.7</ele></trkpt>
<trkpt lat="38.831965" lon="-89.993899"><ele>143.3</ele></trkpt>
<trkpt lat="38.832293" lon="-89.993740"><ele>144.0</ele></trkpt>
<trkpt lat="38.833231" lon="-89.993161"><ele>147.2</ele></trkpt>
<trkpt lat="38.833550" lon="-89.992981"><ele>148.1</ele></trkpt>
<trkpt lat="38.833713" lon="-89.992915"><ele>148.3</ele></trkpt>
<trkpt lat="38.833920" lon="-89.992852"><ele>148.6</ele></trkpt>
<trkpt lat="38.834228" lon="-89.992825"><ele>148.9</ele></trkpt>
<trkpt lat="38.834514" lon="-89.992839"><ele>149.1</ele></trkpt>
<trkpt lat="38.834666" lon="-89.992865"><ele>149.1</ele></trkpt>
<trkpt lat="38.835071" lon="-89.993005"><ele>149.1</ele></trkpt>
<trkpt lat="38.835256" lon="-89.993098"><ele>149.0</ele></trkpt>
<trkpt lat="38.835336" lon="-89.993150"><ele>148.9</ele></trkpt>
<trkpt lat="38.835485" lon="-89.993269"><ele>148.7</ele></trkpt>
<trkpt lat="38.835628" lon="-89.993409"><ele>148.5</ele></trkpt>
<trkpt lat="38.835755" lon="-89.993569"><ele>148.5</ele></trkpt>
<trkpt lat="38.835866" lon="-89.993753"><ele>148.4</ele></trkpt>
<trkpt lat="38.835957" lon="-89.993947"><ele>148.4</ele></trkpt>
<trkpt lat="38.836026" lon="-89.994132"><ele>148.4</ele></trkpt>
<trkpt lat="38.836078" lon="-89.994320"><ele>148.6</ele></trkpt>
<trkpt lat="38.836115" lon="-89.994510"><ele>148.7</ele></trkpt>
<trkpt lat="38.836135" lon="-89.994766"><ele>149.0</ele></trkpt>
<trkpt lat="38.836119" lon="-89.995092"><ele>149.3</ele></trkpt>
<trkpt lat="38.836098" lon="-89.995257"><ele>149.4</ele></trkpt>
<trkpt lat="38.836067" lon="-89.995418"><ele>149.5</ele></trkpt>
<trkpt lat="38.836023" lon="-89.995571"><ele>149.6</ele></trkpt>
<trkpt lat="38.835959" lon="-89.995726"><ele>149.7</ele></trkpt>
<trkpt lat="38.835877" lon="-89.995895"><ele>149.8</ele></trkpt>
<trkpt lat="38.835786" lon="-89.996052"><ele>149.9</ele></trkpt>
<trkpt lat="38.835608" lon="-89.996313"><ele>150.0</ele></trkpt>
<trkpt lat="38.835243" lon="-89.996820"><ele>150.0</ele></trkpt>
<trkpt lat="38.835123" lon="-89.997022"><ele>150.0</ele></trkpt>
<trkpt lat="38.834966" lon="-89.997340"><ele>150.1</ele></trkpt>
<trkpt lat="38.834842" lon="-89.997686"><ele>150.2</ele></trkpt>
<trkpt lat="38.834765" lon="-89.997998"><ele>150.3</ele></trkpt>
<trkpt lat="38.834737" lon="-89.998191"><ele>150.3</ele></trkpt>
<trkpt lat="38.834715" lon="-89.998464"><ele>150.2</ele></trkpt>
<trkpt lat="38.834725" lon="-89.999182"><ele>149.9</ele></trkpt>
<trkpt lat="38.834682" lon="-89.999980"><ele>149.9</ele></trkpt>
<trkpt lat="38.834680" lon="-90.000655"><ele>149.9</ele></trkpt>
<trkpt lat="38.834579" lon="-90.003609"><ele>147.6</ele></trkpt>
<trkpt lat="38.834581" lon="-90.004392"><ele>147.3</ele></trkpt>
<trkpt lat="38.834617" lon="-90.005107"><ele>146.8</ele></trkpt>
<trkpt lat="38.834673" lon="-90.005768"><ele>146.2</ele></trkpt>
<trkpt lat="38.834718" lon="-90.006146"><ele>145.8</ele></trkpt>
<trkpt lat="38.834771" lon="-90.006503"><ele>145.5</ele></trkpt>
<trkpt lat="38.834820" lon="-90.006769"><ele>145.3</ele></trkpt>
<trkpt lat="38.835142" lon="-90.008532"><ele>144.1</ele></trkpt>
<trkpt lat="38.835218" lon="-90.009005"><ele>143.7</ele></trkpt>
<trkpt lat="38.835397" lon="-90.010310"><ele>142.4</ele></trkpt>
<trkpt lat="38.835451" lon="-90.010793"><ele>142.0</ele></trkpt>
<trkpt lat="38.835466" lon="-90.011003"><ele>142.0</ele></trkpt>
<trkpt lat="38.835467" lon="-90.011147"><ele>141.9</ele></trkpt>
<trkpt lat="38.836884" lon="-90.018457"><ele>142.0</ele></trkpt>
<trkpt lat="38.837075" lon="-90.019380"><ele>144.0</ele></trkpt>
<trkpt lat="38.837251" lon="-90.020123"><ele>143.3</ele></trkpt>
<trkpt lat="38.837458" lon="-90.020931"><ele>142.1</ele></trkpt>
<trkpt lat="38.837544" lon="-90.021186"><ele>142.0</ele></trkpt>
<trkpt lat="38.837875" lon="-90.022236"><ele>144.7</ele></trkpt>
<trkpt lat="38.838905" lon="-90.025359"><ele>148.2</ele></trkpt>
<trkpt lat="38.839950" lon="-90.028560"><ele>146.0</ele></trkpt>
<trkpt lat="38.839967" lon="-90.028612"><ele>145.9</ele></trkpt>
<trkpt lat="38.841381" lon="-90.032904"><ele>134.1</ele></trkpt>
<trkpt lat="38.841597" lon="-90.033568"><ele>136.0</ele></trkpt>
<trkpt lat="38.841870" lon="-90.034328"><ele>136.6</ele></trkpt>
<trkpt lat="38.842298" lon="-90.035681"><ele>139.2</ele></trkpt>
<trkpt lat="38.842577" lon="-90.036461"><ele>138.4</ele></trkpt>
<trkpt lat="38.842695" lon="-90.036770"><ele>139.7</ele></trkpt>
<trkpt lat="38.843158" lon="-90.036406"><ele>137.5</ele></trkpt>
<trkpt lat="38.844102" lon="-90.035691"><ele>141.7</ele></trkpt>
<trkpt lat="38.845285" lon="-90.034731"><ele>147.4</ele></trkpt>
<trkpt lat="38.846217" lon="-90.034009"><ele>148.7</ele></trkpt>
<trkpt lat="38.846389" lon="-90.033856"><ele>148.4</ele></trkpt>
<trkpt lat="38.846554" lon="-90.033690"><ele>148.6</ele></trkpt>
<trkpt lat="38.846712" lon="-90.033514"><ele>148.4</ele></trkpt>
<trkpt lat="38.846863" lon="-90.033328"><ele>147.8</ele></trkpt>
<trkpt lat="38.847005" lon="-90.033132"><ele>147.3</ele></trkpt>
<trkpt lat="38.847140" lon="-90.032926"><ele>146.5</ele></trkpt>
<trkpt lat="38.847281" lon="-90.032689"><ele>145.2</ele></trkpt>
<trkpt lat="38.847491" lon="-90.032260"><ele>144.7</ele></trkpt>
<trkpt lat="38.847633" lon="-90.031903"><ele>144.5</ele></trkpt>
<trkpt lat="38.847756" lon="-90.031531"><ele>142.0</ele></trkpt>
<trkpt lat="38.847824" lon="-90.031277"><ele>140.3</ele></trkpt>
<trkpt lat="38.847881" lon="-90.031020"><ele>139.3</ele></trkpt>
<trkpt lat="38.847928" lon="-90.030758"><ele>138.4</ele></trkpt>
<trkpt lat="38.848099" lon="-90.029549"><ele>138.4</ele></trkpt>
<trkpt lat="38.848141" lon="-90.029294"><ele>138.9</ele></trkpt>
<trkpt lat="38.848193" lon="-90.029041"><ele>139.5</ele></trkpt>
<trkpt lat="38.848256" lon="-90.028793"><ele>140.1</ele></trkpt>
<trkpt lat="38.848328" lon="-90.028549"><ele>140.8</ele></trkpt>
<trkpt lat="38.848441" lon="-90.028232"><ele>141.0</ele></trkpt>
<trkpt lat="38.848602" lon="-90.027849"><ele>140.7</ele></trkpt>
<trkpt lat="38.848712" lon="-90.027629"><ele>140.0</ele></trkpt>
<trkpt lat="38.848830" lon="-90.027416"><ele>139.9</ele></trkpt>
<trkpt lat="38.848957" lon="-90.027211"><ele>139.8</ele></trkpt>
<trkpt lat="38.849092" lon="-90.027015"><ele>139.8</ele></trkpt>
<trkpt lat="38.849235" lon="-90.026828"><ele>140.4</ele></trkpt>
<trkpt lat="38.849384" lon="-90.026651"><ele>141.3</ele></trkpt>
<trkpt lat="38.849541" lon="-90.026483"><ele>142.3</ele></trkpt>
<trkpt lat="38.849705" lon="-90.026326"><ele>143.3</ele></trkpt>
<trkpt lat="38.849874" lon="-90.026180"><ele>144.3</ele></trkpt>
<trkpt lat="38.850049" lon="-90.026046"><ele>145.4</ele></trkpt>
<trkpt lat="38.850229" lon="-90.025923"><ele>146.4</ele></trkpt>
<trkpt lat="38.850530" lon="-90.025741"><ele>147.2</ele></trkpt>
<trkpt lat="38.850841" lon="-90.025611"><ele>147.4</ele></trkpt>
<trkpt lat="38.851242" lon="-90.025491"><ele>147.8</ele></trkpt>
<trkpt lat="38.851647" lon="-90.025408"><ele>147.9</ele></trkpt>
<trkpt lat="38.851987" lon="-90.025392"><ele>148.0</ele></trkpt>
<trkpt lat="38.853402" lon="-90.025390"><ele>147.5</ele></trkpt>
<trkpt lat="38.853950" lon="-90.025408"><ele>147.7</ele></trkpt>
<trkpt lat="38.854358" lon="-90.025394"><ele>148.5</ele></trkpt>
<trkpt lat="38.854713" lon="-90.025330"><ele>149.1</ele></trkpt>
<trkpt lat="38.855326" lon="-90.025195"><ele>149.5</ele></trkpt>
<trkpt lat="38.855752" lon="-90.025015"><ele>149.4</ele></trkpt>
<trkpt lat="38.856148" lon="-90.024799"><ele>149.7</ele></trkpt>
<trkpt lat="38.856526" lon="-90.024565"><ele>149.7</ele></trkpt>
<trkpt lat="38.856900" lon="-90.024268"><ele>149.6</ele></trkpt>
<trkpt lat="38.857179" lon="-90.024022"><ele>149.1</ele></trkpt>
<trkpt lat="38.857393" lon="-90.023796"><ele>149.1</ele></trkpt>
<trkpt lat="38.857809" lon="-90.023299"><ele>149.3</ele></trkpt>
<trkpt lat="38.858145" lon="-90.022929"><ele>149.1</ele></trkpt>
<trkpt lat="38.858488" lon="-90.022571"><ele>149.1</ele></trkpt>
<trkpt lat="38.858838" lon="-90.022223"><ele>149.3</ele></trkpt>
<trkpt lat="38.859195" lon="-90.021888"><ele>149.9</ele></trkpt>
<trkpt lat="38.859559" lon="-90.021564"><ele>150.2</ele></trkpt>
<trkpt lat="38.859770" lon="-90.021417"><ele>150.1</ele></trkpt>
<trkpt lat="38.859986" lon="-90.021281"><ele>149.9</ele></trkpt>
<trkpt lat="38.860314" lon="-90.021101"><ele>148.8</ele></trkpt>
<trkpt lat="38.860658" lon="-90.020942"><ele>147.9</ele></trkpt>
<trkpt lat="38.860888" lon="-90.020853"><ele>146.7</ele></trkpt>
<trkpt lat="38.861126" lon="-90.020790"><ele>146.1</ele></trkpt>
<trkpt lat="38.861599" lon="-90.020695"><ele>145.0</ele></trkpt>
<trkpt lat="38.862074" lon="-90.020646"><ele>145.0</ele></trkpt>
<trkpt lat="38.864522" lon="-90.020553"><ele>148.0</ele></trkpt>
<trkpt lat="38.865619" lon="-90.020539"><ele>150.6</ele></trkpt>
<trkpt lat="38.866048" lon="-90.020462"><ele>151.3</ele></trkpt>
<trkpt lat="38.866327" lon="-90.020387"><ele>151.7</ele></trkpt>
<trkpt lat="38.866558" lon="-90.020309"><ele>151.9</ele></trkpt>
<trkpt lat="38.866862" lon="-90.020182"><ele>152.1</ele></trkpt>
<trkpt lat="38.867232" lon="-90.019994"><ele>152.9</ele></trkpt>
<trkpt lat="38.867448" lon="-90.019864"><ele>153.2</ele></trkpt>
<trkpt lat="38.867659" lon="-90.019720"><ele>153.4</ele></trkpt>
<trkpt lat="38.867865" lon="-90.019565"><ele>153.5</ele></trkpt>
<trkpt lat="38.868065" lon="-90.019397"><ele>153.6</ele></trkpt>
<trkpt lat="38.868259" lon="-90.019218"><ele>153.7</ele></trkpt>
<trkpt lat="38.871049" lon="-90.016328"><ele>149.7</ele></trkpt>
<trkpt lat="38.871428" lon="-90.015991"><ele>148.7</ele></trkpt>
<trkpt lat="38.871824" lon="-90.015690"><ele>147.7</ele></trkpt>
<trkpt lat="38.872032" lon="-90.015558"><ele>147.5</ele></trkpt>
<trkpt lat="38.872243" lon="-90.015437"><ele>147.5</ele></trkpt>
<trkpt lat="38.872459" lon="-90.015328"><ele>147.7</ele></trkpt>
<trkpt lat="38.872733" lon="-90.015214"><ele>148.4</ele></trkpt>
<trkpt lat="38.872899" lon="-90.015145"><ele>148.9</ele></trkpt>
<trkpt lat="38.873124" lon="-90.015072"><ele>149.8</ele></trkpt>
<trkpt lat="38.873579" lon="-90.014963"><ele>151.1</ele></trkpt>
<trkpt lat="38.873809" lon="-90.014927"><ele>151.5</ele></trkpt>
<trkpt lat="38.874040" lon="-90.014904"><ele>151.8</ele></trkpt>
<trkpt lat="38.874272" lon="-90.014893"><ele>152.0</ele></trkpt>
<trkpt lat="38.874503" lon="-90.014895"><ele>152.2</ele></trkpt>
<trkpt lat="38.881678" lon="-90.015218"><ele>153.3</ele></trkpt>
<trkpt lat="38.882140" lon="-90.015254"><ele>152.8</ele></trkpt>
<trkpt lat="38.882367" lon="-90.015284"><ele>152.5</ele></trkpt>
<trkpt lat="38.882637" lon="-90.015358"><ele>152.3</ele></trkpt>
<trkpt lat="38.882874" lon="-90.015443"><ele>152.3</ele></trkpt>
<trkpt lat="38.883075" lon="-90.015534"><ele>152.7</ele></trkpt>
<trkpt lat="38.883247" lon="-90.015630"><ele>153.2</ele></trkpt>
<trkpt lat="38.883414" lon="-90.015739"><ele>153.9</ele></trkpt>
<trkpt lat="38.883625" lon="-90.015897"><ele>154.8</ele></trkpt>
<trkpt lat="38.883793" lon="-90.016040"><ele>155.5</ele></trkpt>
<trkpt lat="38.884002" lon="-90.016242"><ele>156.2</ele></trkpt>
<trkpt lat="38.884192" lon="-90.016456"><ele>156.5</ele></trkpt>
<trkpt lat="38.884349" lon="-90.016657"><ele>156.6</ele></trkpt>
<trkpt lat="38.884480" lon="-90.016850"><ele>156.5</ele></trkpt>
<trkpt lat="38.884607" lon="-90.017061"><ele>156.3</ele></trkpt>
<trkpt lat="38.884723" lon="-90.017276"><ele>156.0</ele></trkpt>
<trkpt lat="38.884829" lon="-90.017504"><ele>155.6</ele></trkpt>
<trkpt lat="38.884944" lon="-90.017796"><ele>154.9</ele></trkpt>
<trkpt lat="38.885648" lon="-90.019869"><ele>151.4</ele></trkpt>
<trkpt lat="38.887872" lon="-90.026458"><ele>156.7</ele></trkpt>
<trkpt lat="38.888014" lon="-90.026842"><ele>157.2</ele></trkpt>
<trkpt lat="38.888090" lon="-90.027026"><ele>157.4</ele></trkpt>
<trkpt lat="38.888250" lon="-90.027376"><ele>157.7</ele></trkpt>
<trkpt lat="38.888496" lon="-90.027827"><ele>158.2</ele></trkpt>
<trkpt lat="38.888579" lon="-90.027958"><ele>158.2</ele></trkpt>
<trkpt lat="38.888756" lon="-90.028204"><ele>158.5</ele></trkpt>
<trkpt lat="38.888950" lon="-90.028438"><ele>158.7</ele></trkpt>
<trkpt lat="38.889157" lon="-90.028659"><ele>158.9</ele></trkpt>
<trkpt lat="38.889381" lon="-90.028872"><ele>158.7</ele></trkpt>
<trkpt lat="38.889500" lon="-90.028973"><ele>158.4</ele></trkpt>
<trkpt lat="38.889740" lon="-90.029150"><ele>158.3</ele></trkpt>
<trkpt lat="38.889991" lon="-90.029304"><ele>157.9</ele></trkpt>
<trkpt lat="38.891068" lon="-90.029882"><ele>156.8</ele></trkpt>
<trkpt lat="38.891560" lon="-90.030115"><ele>156.8</ele></trkpt>
<trkpt lat="38.891778" lon="-90.030203"><ele>157.2</ele></trkpt>
<trkpt lat="38.891932" lon="-90.030251"><ele>157.2</ele></trkpt>
<trkpt lat="38.892083" lon="-90.030286"><ele>157.1</ele></trkpt>
<trkpt lat="38.892234" lon="-90.030310"><ele>156.8</ele></trkpt>
<trkpt lat="38.892475" lon="-90.030331"><ele>156.1</ele></trkpt>
<trkpt lat="38.893228" lon="-90.030332"><ele>155.5</ele></trkpt>
<trkpt lat="38.895027" lon="-90.030294"><ele>158.8</ele></trkpt>
<trkpt lat="38.895349" lon="-90.030275"><ele>159.0</ele></trkpt>
<trkpt lat="38.895878" lon="-90.030227"><ele>159.0</ele></trkpt>
<trkpt lat="38.896175" lon="-90.030214"><ele>159.0</ele></trkpt>
<trkpt lat="38.897762" lon="-90.030182"><ele>157.8</ele></trkpt>
<trkpt lat="38.899177" lon="-90.030142"><ele>159.5</ele></trkpt>
<trkpt lat="38.900659" lon="-90.030121"><ele>158.3</ele></trkpt>
<trkpt lat="38.903316" lon="-90.030090"><ele>155.9</ele></trkpt>
<trkpt lat="38.906540" lon="-90.030117"><ele>158.2</ele></trkpt>
<trkpt lat="38.908020" lon="-90.030113"><ele>158.4</ele></trkpt>
<trkpt lat="38.909819" lon="-90.030121"><ele>159.0</ele></trkpt>
<trkpt lat="38.910743" lon="-90.030114"><ele>160.0</ele></trkpt>
<trkpt lat="38.911149" lon="-90.030120"><ele>160.0</ele></trkpt>
<trkpt lat="38.912678" lon="-90.030076"><ele>160.0</ele></trkpt>
<trkpt lat="38.914109" lon="-90.030079"><ele>159.7</ele></trkpt>
<trkpt lat="38.915455" lon="-90.030071"><ele>159.4</ele></trkpt>
<trkpt lat="38.921961" lon="-90.030094"><ele>160.5</ele></trkpt>
<trkpt lat="38.922744" lon="-90.030096"><ele>160.5</ele></trkpt>
<trkpt lat="38.923508" lon="-90.030077"><ele>160.5</ele></trkpt>
<trkpt lat="38.923408" lon="-90.027704"><ele>161.0</ele></trkpt>
<trkpt lat="38.923176" lon="-90.022253"><ele>161.7</ele></trkpt>
<trkpt lat="38.922987" lon="-90.017418"><ele>162.0</ele></trkpt>
<trkpt lat="38.922937" lon="-90.016072"><ele>162.0</ele></trkpt>
<trkpt lat="38.922835" lon="-90.013800"><ele>163.0</ele></trkpt>
<trkpt lat="38.922730" lon="-90.010973"><ele>161.7</ele></trkpt>
<trkpt lat="38.922555" lon="-90.006782"><ele>162.2</ele></trkpt>
<trkpt lat="38.922412" lon="-90.003097"><ele>164.0</ele></trkpt>
<trkpt lat="38.922102" lon="-89.995333"><ele>150.5</ele></trkpt>
<trkpt lat="38.922090" lon="-89.995010"><ele>150.8</ele></trkpt>
<trkpt lat="38.921821" lon="-89.988305"><ele>163.5</ele></trkpt>
<trkpt lat="38.921664" lon="-89.984288"><ele>158.9</ele></trkpt>
<trkpt lat="38.921209" lon="-89.973274"><ele>166.9</ele></trkpt>
<trkpt lat="38.921132" lon="-89.971657"><ele>168.0</ele></trkpt>
<trkpt lat="38.920610" lon="-89.971563"><ele>169.0</ele></trkpt>
<trkpt lat="38.911502" lon="-89.970239"><ele>166.0</ele></trkpt>
<trkpt lat="38.908579" lon="-89.969824"><ele>167.7</ele></trkpt>
<trkpt lat="38.903292" lon="-89.969057"><ele>168.1</ele></trkpt>
<trkpt lat="38.902007" lon="-89.968838"><ele>168.1</ele></trkpt>
<trkpt lat="38.901811" lon="-89.968795"><ele>168.1</ele></trkpt>
<trkpt lat="38.901670" lon="-89.968747"><ele>168.0</ele></trkpt>
<trkpt lat="38.901393" lon="-89.968628"><ele>168.0</ele></trkpt>
<trkpt lat="38.900555" lon="-89.968218"><ele>167.8</ele></trkpt>
<trkpt lat="38.898650" lon="-89.967257"><ele>166.8</ele></trkpt>
<trkpt lat="38.897452" lon="-89.966678"><ele>165.9</ele></trkpt>
<trkpt lat="38.894933" lon="-89.965412"><ele>163.0</ele></trkpt>
<trkpt lat="38.894408" lon="-89.965169"><ele>162.2</ele></trkpt>
<trkpt lat="38.894167" lon="-89.965069"><ele>161.8</ele></trkpt>
<trkpt lat="38.893946" lon="-89.965001"><ele>161.5</ele></trkpt>
<trkpt lat="38.893721" lon="-89.964954"><ele>161.3</ele></trkpt>
<trkpt lat="38.893435" lon="-89.964917"><ele>161.2</ele></trkpt>
<trkpt lat="38.892963" lon="-89.964906"><ele>161.4</ele></trkpt>
<trkpt lat="38.891614" lon="-89.964901"><ele>161.9</ele></trkpt>
<trkpt lat="38.890635" lon="-89.964886"><ele>161.3</ele></trkpt>
<trkpt lat="38.885173" lon="-89.964676"><ele>165.6</ele></trkpt>
<trkpt lat="38.884259" lon="-89.964658"><ele>165.9</ele></trkpt>
<trkpt lat="38.882561" lon="-89.964675"><ele>166.1</ele></trkpt>
<trkpt lat="38.878394" lon="-89.964755"><ele>160.1</ele></trkpt>
<trkpt lat="38.877856" lon="-89.964755"><ele>159.7</ele></trkpt>
<trkpt lat="38.877735" lon="-89.964749"><ele>159.4</ele></trkpt>
<trkpt lat="38.877477" lon="-89.964712"><ele>158.8</ele></trkpt>
<trkpt lat="38.877280" lon="-89.964664"><ele>158.1</ele></trkpt>
<trkpt lat="38.877182" lon="-89.964631"><ele>157.8</ele></trkpt>
<trkpt lat="38.876974" lon="-89.964548"><ele>157.3</ele></trkpt>
<trkpt lat="38.876773" lon="-89.964452"><ele>156.7</ele></trkpt>
<trkpt lat="38.876583" lon="-89.964339"><ele>156.3</ele></trkpt>
<trkpt lat="38.876468" lon="-89.964256"><ele>156.1</ele></trkpt>
<trkpt lat="38.876270" lon="-89.964091"><ele>155.8</ele></trkpt>
<trkpt lat="38.876052" lon="-89.963878"><ele>155.1</ele></trkpt>
<trkpt lat="38.875870" lon="-89.963676"><ele>154.4</ele></trkpt>
<trkpt lat="38.875725" lon="-89.963497"><ele>153.9</ele></trkpt>
<trkpt lat="38.875443" lon="-89.963024"><ele>153.0</ele></trkpt>
<trkpt lat="38.874537" lon="-89.961426"><ele>151.9</ele></trkpt>
<trkpt lat="38.874314" lon="-89.961051"><ele>152.3</ele></trkpt>
<trkpt lat="38.874241" lon="-89.960940"><ele>152.5</ele></trkpt>
<trkpt lat="38.874084" lon="-89.960704"><ele>152.8</ele></trkpt>
<trkpt lat="38.873866" lon="-89.960423"><ele>153.6</ele></trkpt>
<trkpt lat="38.873757" lon="-89.960300"><ele>154.0</ele></trkpt>
<trkpt lat="38.873561" lon="-89.960120"><ele>154.7</ele></trkpt>
<trkpt lat="38.873451" lon="-89.960035"><ele>155.2</ele></trkpt>
<trkpt lat="38.873213" lon="-89.959879"><ele>155.9</ele></trkpt>
<trkpt lat="38.872917" lon="-89.959727"><ele>156.8</ele></trkpt>
<trkpt lat="38.872764" lon="-89.959663"><ele>157.1</ele></trkpt>
<trkpt lat="38.872446" lon="-89.959576"><ele>157.3</ele></trkpt>
<trkpt lat="38.872281" lon="-89.959552"><ele>157.2</ele></trkpt>
<trkpt lat="38.872084" lon="-89.959544"><ele>157.0</ele></trkpt>
<trkpt lat="38.871796" lon="-89.959556"><ele>156.6</ele></trkpt>
<trkpt lat="38.867501" lon="-89.959880"><ele>154.0</ele></trkpt>
<trkpt lat="38.867025" lon="-89.959884"><ele>154.0</ele></trkpt>
<trkpt lat="38.866765" lon="-89.959866"><ele>154.0</ele></trkpt>
<trkpt lat="38.865374" lon="-89.959708"><ele>152.9</ele></trkpt>
<trkpt lat="38.864802" lon="-89.959667"><ele>154.2</ele></trkpt>
<trkpt lat="38.863554" lon="-89.959659"><ele>156.8</ele></trkpt>
<trkpt lat="38.863279" lon="-89.959675"><ele>157.2</ele></trkpt>
<trkpt lat="38.862788" lon="-89.959663"><ele>157.2</ele></trkpt>
<trkpt lat="38.862184" lon="-89.959675"><ele>155.6</ele></trkpt>
<trkpt lat="38.860877" lon="-89.959674"><ele>155.4</ele></trkpt>
<trkpt lat="38.860127" lon="-89.959696"><ele>153.8</ele></trkpt>
<trkpt lat="38.859619" lon="-89.959753"><ele>153.0</ele></trkpt>
<trkpt lat="38.859134" lon="-89.959842"><ele>152.9</ele></trkpt>
<trkpt lat="38.858734" lon="-89.959930"><ele>153.0</ele></trkpt>
<trkpt lat="38.857448" lon="-89.960113"><ele>153.0</ele></trkpt>
<trkpt lat="38.853507" lon="-89.960134"><ele>153.1</ele></trkpt>
<trkpt lat="38.853128" lon="-89.960136"><ele>154.0</ele></trkpt>
<trkpt lat="38.847846" lon="-89.960162"><ele>159.8</ele></trkpt>
<trkpt lat="38.847110" lon="-89.960189"><ele>161.4</ele></trkpt>
<trkpt lat="38.846421" lon="-89.960277"><ele>162.5</ele></trkpt>
<trkpt lat="38.846048" lon="-89.960352"><ele>163.1</ele></trkpt>
<trkpt lat="38.845720" lon="-89.960434"><ele>163.1</ele></trkpt>
<trkpt lat="38.845340" lon="-89.960554"><ele>163.6</ele></trkpt>
<trkpt lat="38.845013" lon="-89.960672"><ele>163.1</ele></trkpt>
<trkpt lat="38.842971" lon="-89.961575"><ele>161.7</ele></trkpt>
<trkpt lat="38.841174" lon="-89.962353"><ele>159.2</ele></trkpt>
<trkpt lat="38.839604" lon="-89.963057"><ele>157.4</ele></trkpt>
<trkpt lat="38.838981" lon="-89.963348"><ele>156.6</ele></trkpt>
<trkpt lat="38.837941" lon="-89.963866"><ele>156.0</ele></trkpt>
<trkpt lat="38.836950" lon="-89.964397"><ele>156.1</ele></trkpt>
<trkpt lat="38.836202" lon="-89.964817"><ele>156.2</ele></trkpt>
<trkpt lat="38.835072" lon="-89.965505"><ele>157.3</ele></trkpt>
<trkpt lat="38.834547" lon="-89.965845"><ele>157.7</ele></trkpt>
<trkpt lat="38.829932" lon="-89.968889"><ele>139.4</ele></trkpt>
<trkpt lat="38.826260" lon="-89.971322"><ele>135.7</ele></trkpt>
<trkpt lat="38.825606" lon="-89.971759"><ele>134.5</ele></trkpt>
<trkpt lat="38.824615" lon="-89.972420"><ele>137.6</ele></trkpt>
<trkpt lat="38.824148" lon="-89.972721"><ele>136.4</ele></trkpt>
<trkpt lat="38.823889" lon="-89.972897"><ele>143.1</ele></trkpt>
<trkpt lat="38.824248" lon="-89.973997"><ele>137.8</ele></trkpt>
<trkpt lat="38.824384" lon="-89.974327"><ele>137.4</ele></trkpt>
<trkpt lat="38.824592" lon="-89.974954"><ele>136.6</ele></trkpt>
<trkpt lat="38.824810" lon="-89.975598"><ele>136.7</ele></trkpt>
<trkpt lat="38.825007" lon="-89.976256"><ele>136.8</ele></trkpt>
<trkpt lat="38.825190" lon="-89.976921"><ele>136.2</ele></trkpt>
<trkpt lat="38.825416" lon="-89.977819"><ele>135.7</ele></trkpt>
<trkpt lat="38.825551" lon="-89.978405"><ele>135.9</ele></trkpt>
<trkpt lat="38.825729" lon="-89.979117"><ele>136.5</ele></trkpt>
<trkpt lat="38.825903" lon="-89.979758"><ele>136.4</ele></trkpt>
<trkpt lat="38.826005" lon="-89.980077"><ele>136.2</ele></trkpt>
<trkpt lat="38.826139" lon="-89.980455"><ele>136.7</ele></trkpt>
<trkpt lat="38.826284" lon="-89.980825"><ele>137.5</ele></trkpt>
<trkpt lat="38.826468" lon="-89.981247"><ele>138.5</ele></trkpt>
<trkpt lat="38.826654" lon="-89.981629"><ele>139.7</ele></trkpt>
<trkpt lat="38.826900" lon="-89.982057"><ele>140.9</ele></trkpt>
<trkpt lat="38.827199" lon="-89.982534"><ele>144.1</ele></trkpt>
<trkpt lat="38.827465" lon="-89.982923"><ele>146.3</ele></trkpt>
<trkpt lat="38.827742" lon="-89.983298"><ele>148.1</ele></trkpt>
<trkpt lat="38.828639" lon="-89.984335"><ele>149.7</ele></trkpt>
<trkpt lat="38.829054" lon="-89.984797"><ele>149.9</ele></trkpt>
<trkpt lat="38.829570" lon="-89.985393"><ele>151.1</ele></trkpt>
<trkpt lat="38.829988" lon="-89.985905"><ele>152.1</ele></trkpt>
<trkpt lat="38.830678" lon="-89.986855"><ele>151.9</ele></trkpt>
<trkpt lat="38.831086" lon="-89.987448"><ele>151.0</ele></trkpt>
<trkpt lat="38.831371" lon="-89.987901"><ele>150.7</ele></trkpt>
<trkpt lat="38.831627" lon="-89.988334"><ele>150.9</ele></trkpt>
<trkpt lat="38.831873" lon="-89.988777"><ele>151.4</ele></trkpt>
<trkpt lat="38.832141" lon="-89.989293"><ele>151.5</ele></trkpt>
<trkpt lat="38.832487" lon="-89.990005"><ele>151.4</ele></trkpt>
<trkpt lat="38.832843" lon="-89.990823"><ele>151.6</ele></trkpt>
<trkpt lat="38.833007" lon="-89.991222"><ele>151.6</ele></trkpt>
<trkpt lat="38.833152" lon="-89.991599"><ele>151.5</ele></trkpt>
<trkpt lat="38.833367" lon="-89.992198"><ele>151.1</ele></trkpt>
<trkpt lat="38.833571" lon="-89.992810"><ele>149.8</ele></trkpt>
<trkpt lat="38.833657" lon="-89.993092"><ele>149.1</ele></trkpt>
<trkpt lat="38.833765" lon="-89.993361"><ele>148.4</ele></trkpt>
<trkpt lat="38.833908" lon="-89.993752"><ele>150.6</ele></trkpt>
<trkpt lat="38.834057" lon="-89.994241"><ele>151.0</ele></trkpt>
<trkpt lat="38.834273" lon="-89.994995"><ele>150.9</ele></trkpt>
<trkpt lat="38.834333" lon="-89.995171"><ele>150.8</ele></trkpt>
<trkpt lat="38.834396" lon="-89.995318"><ele>150.7</ele></trkpt>
<trkpt lat="38.834505" lon="-89.995514"><ele>150.5</ele></trkpt>
<trkpt lat="38.834634" lon="-89.995700"><ele>150.3</ele></trkpt>
<trkpt lat="38.834731" lon="-89.995812"><ele>150.2</ele></trkpt>
<trkpt lat="38.834869" lon="-89.995929"><ele>150.0</ele></trkpt>
<trkpt lat="38.834934" lon="-89.995973"><ele>149.9</ele></trkpt>
<trkpt lat="38.835039" lon="-89.996018"><ele>149.8</ele></trkpt>
<trkpt lat="38.835151" lon="-89.996044"><ele>149.7</ele></trkpt>
<trkpt lat="38.835264" lon="-89.996045"><ele>149.7</ele></trkpt>
<trkpt lat="38.835375" lon="-89.996021"><ele>149.7</ele></trkpt>
<trkpt lat="38.835482" lon="-89.995975"><ele>149.6</ele></trkpt>
<trkpt lat="38.835581" lon="-89.995911"><ele>149.6</ele></trkpt>
<trkpt lat="38.835667" lon="-89.995831"><ele>149.6</ele></trkpt>
<trkpt lat="38.835744" lon="-89.995737"><ele>149.6</ele></trkpt>
<trkpt lat="38.835814" lon="-89.995620"><ele>149.7</ele></trkpt>
<trkpt lat="38.835876" lon="-89.995481"><ele>149.7</ele></trkpt>
<trkpt lat="38.835924" lon="-89.995327"><ele>149.6</ele></trkpt>
<trkpt lat="38.835958" lon="-89.995163"><ele>149.6</ele></trkpt>
<trkpt lat="38.835979" lon="-89.995006"><ele>149.5</ele></trkpt>
<trkpt lat="38.835986" lon="-89.994871"><ele>149.5</ele></trkpt>
<trkpt lat="38.835981" lon="-89.994721"><ele>149.4</ele></trkpt>
<trkpt lat="38.835962" lon="-89.994540"><ele>149.3</ele></trkpt>
<trkpt lat="38.835923" lon="-89.994350"><ele>149.2</ele></trkpt>
<trkpt lat="38.835863" lon="-89.994151"><ele>149.1</ele></trkpt>
<trkpt lat="38.835784" lon="-89.993954"><ele>149.0</ele></trkpt>
<trkpt lat="38.835739" lon="-89.993863"><ele>148.9</ele></trkpt>
<trkpt lat="38.835691" lon="-89.993778"><ele>148.9</ele></trkpt>
<trkpt lat="38.835583" lon="-89.993620"><ele>148.9</ele></trkpt>
<trkpt lat="38.835454" lon="-89.993478"><ele>148.9</ele></trkpt>
<trkpt lat="38.835299" lon="-89.993350"><ele>148.8</ele></trkpt>
<trkpt lat="38.835216" lon="-89.993295"><ele>148.8</ele></trkpt>
<trkpt lat="38.835046" lon="-89.993203"><ele>148.7</ele></trkpt>
<trkpt lat="38.834870" lon="-89.993132"><ele>148.6</ele></trkpt>
<trkpt lat="38.834689" lon="-89.993079"><ele>148.4</ele></trkpt>
<trkpt lat="38.834501" lon="-89.993051"><ele>148.2</ele></trkpt>
<trkpt lat="38.834198" lon="-89.993035"><ele>147.8</ele></trkpt>
<trkpt lat="38.833887" lon="-89.993073"><ele>147.5</ele></trkpt>
<trkpt lat="38.833754" lon="-89.993115"><ele>147.3</ele></trkpt>
<trkpt lat="38.833611" lon="-89.993175"><ele>147.0</ele></trkpt>
<trkpt lat="38.833323" lon="-89.993330"><ele>146.4</ele></trkpt>
<trkpt lat="38.832749" lon="-89.993704"><ele>145.0</ele></trkpt>
<trkpt lat="38.832350" lon="-89.993944"><ele>144.1</ele></trkpt>
<trkpt lat="38.831635" lon="-89.994248"><ele>142.8</ele></trkpt>
<trkpt lat="38.831366" lon="-89.994346"><ele>142.4</ele></trkpt>
<trkpt lat="38.831095" lon="-89.994430"><ele>142.1</ele></trkpt>
<trkpt lat="38.830766" lon="-89.994513"><ele>141.9</ele></trkpt>
<trkpt lat="38.830435" lon="-89.994574"><ele>141.8</ele></trkpt>
<trkpt lat="38.829567" lon="-89.994704"><ele>141.0</ele></trkpt>
<trkpt lat="38.829125" lon="-89.994684"><ele>140.9</ele></trkpt>
<trkpt lat="38.828394" lon="-89.994595"><ele>141.0</ele></trkpt>
<trkpt lat="38.828040" lon="-89.994528"><ele>141.2</ele></trkpt>
<trkpt lat="38.827067" lon="-89.994282"><ele>140.8</ele></trkpt>
<trkpt lat="38.826550" lon="-89.994169"><ele>140.3</ele></trkpt>
<trkpt lat="38.826317" lon="-89.994129"><ele>140.2</ele></trkpt>
<trkpt lat="38.825951" lon="-89.994087"><ele>139.9</ele></trkpt>
<trkpt lat="38.825629" lon="-89.994069"><ele>139.6</ele></trkpt>
<trkpt lat="38.825077" lon="-89.994075"><ele>138.4</ele></trkpt>
<trkpt lat="38.824623" lon="-89.994110"><ele>136.1</ele></trkpt>
<trkpt lat="38.824273" lon="-89.994126"><ele>134.3</ele></trkpt>
<trkpt lat="38.820510" lon="-89.994085"><ele>145.2</ele></trkpt>
<trkpt lat="38.818988" lon="-89.994088"><ele>144.8</ele></trkpt>
<trkpt lat="38.818569" lon="-89.994091"><ele>149.3</ele></trkpt>
<trkpt lat="38.814559" lon="-89.994075"><ele>149.9</ele></trkpt>
<trkpt lat="38.814304" lon="-89.994089"><ele>150.0</ele></trkpt>
<trkpt lat="38.814140" lon="-89.994116"><ele>150.0</ele></trkpt>
<trkpt lat="38.814071" lon="-89.994160"><ele>150.0</ele></trkpt>
<trkpt lat="38.814005" lon="-89.994222"><ele>150.0</ele></trkpt>
<trkpt lat="38.813919" lon="-89.994342"><ele>150.0</ele></trkpt>
<trkpt lat="38.813815" lon="-89.995201"><ele>148.1</ele></trkpt>
<trkpt lat="38.813651" lon="-89.996406"><ele>145.6</ele></trkpt>
<trkpt lat="38.813524" lon="-89.997244"><ele>143.7</ele></trkpt>
<trkpt lat="38.813492" lon="-89.997430"><ele>143.4</ele></trkpt>
<trkpt lat="38.813437" lon="-89.997687"><ele>142.8</ele></trkpt>
<trkpt lat="38.813121" lon="-90.000140"><ele>138.7</ele></trkpt>
<trkpt lat="38.813053" lon="-90.000624"><ele>138.8</ele></trkpt>
<trkpt lat="38.812979" lon="-90.001024"><ele>138.9</ele></trkpt>
<trkpt lat="38.812875" lon="-90.001474"><ele>139.0</ele></trkpt>
<trkpt lat="38.812769" lon="-90.001862"><ele>138.6</ele></trkpt>
<trkpt lat="38.812670" lon="-90.002164"><ele>139.3</ele></trkpt>
<trkpt lat="38.812544" lon="-90.002509"><ele>140.3</ele></trkpt>
<trkpt lat="38.812385" lon="-90.002894"><ele>141.6</ele></trkpt>
<trkpt lat="38.812213" lon="-90.003262"><ele>143.1</ele></trkpt>
<trkpt lat="38.812006" lon="-90.003651"><ele>145.0</ele></trkpt>
<trkpt lat="38.811812" lon="-90.003976"><ele>146.6</ele></trkpt>
<trkpt lat="38.811606" lon="-90.004287"><ele>148.2</ele></trkpt>
<trkpt lat="38.811431" lon="-90.004526"><ele>149.5</ele></trkpt>
<trkpt lat="38.811203" lon="-90.004812"><ele>151.0</ele></trkpt>
<trkpt lat="38.810915" lon="-90.005135"><ele>152.6</ele></trkpt>
<trkpt lat="38.810553" lon="-90.005489"><ele>154.3</ele></trkpt>
<trkpt lat="38.810270" lon="-90.005733"><ele>155.4</ele></trkpt>
<trkpt lat="38.810026" lon="-90.005922"><ele>156.3</ele></trkpt>
<trkpt lat="38.809776" lon="-90.006097"><ele>157.2</ele></trkpt>
<trkpt lat="38.809469" lon="-90.006289"><ele>158.2</ele></trkpt>
<trkpt lat="38.804781" lon="-90.008806"><ele>162.4</ele></trkpt>
<trkpt lat="38.804427" lon="-90.009011"><ele>162.6</ele></trkpt>
<trkpt lat="38.804223" lon="-90.009144"><ele>162.3</ele></trkpt>
<trkpt lat="38.803978" lon="-90.009322"><ele>161.9</ele></trkpt>
<trkpt lat="38.803740" lon="-90.009512"><ele>161.1</ele></trkpt>
<trkpt lat="38.803508" lon="-90.009716"><ele>160.3</ele></trkpt>
<trkpt lat="38.803246" lon="-90.009970"><ele>159.4</ele></trkpt>
<trkpt lat="38.803096" lon="-90.010131"><ele>158.7</ele></trkpt>
<trkpt lat="38.802857" lon="-90.010410"><ele>157.7</ele></trkpt>
<trkpt lat="38.802638" lon="-90.010691"><ele>156.9</ele></trkpt>
<trkpt lat="38.802434" lon="-90.010478"><ele>158.2</ele></trkpt>
<trkpt lat="38.802193" lon="-90.010185"><ele>159.4</ele></trkpt>
<trkpt lat="38.801660" lon="-90.009468"><ele>161.3</ele></trkpt>
<trkpt lat="38.801377" lon="-90.009054"><ele>161.4</ele></trkpt>
<trkpt lat="38.801138" lon="-90.008681"><ele>162.1</ele></trkpt>
<trkpt lat="38.800909" lon="-90.008300"><ele>162.4</ele></trkpt>
<trkpt lat="38.800699" lon="-90.007904"><ele>162.5</ele></trkpt>
<trkpt lat="38.800502" lon="-90.007499"><ele>162.5</ele></trkpt>
<trkpt lat="38.800346" lon="-90.007154"><ele>162.6</ele></trkpt>
<trkpt lat="38.800171" lon="-90.006732"><ele>162.7</ele></trkpt>
<trkpt lat="38.799636" lon="-90.005326"><ele>161.4</ele></trkpt>
<trkpt lat="38.799597" lon="-90.005239"><ele>161.3</ele></trkpt>
<trkpt lat="38.799525" lon="-90.005096"><ele>161.2</ele></trkpt>
<trkpt lat="38.799416" lon="-90.004917"><ele>161.2</ele></trkpt>
<trkpt lat="38.799319" lon="-90.004786"><ele>161.3</ele></trkpt>
<trkpt lat="38.799186" lon="-90.004637"><ele>161.5</ele></trkpt>
<trkpt lat="38.799041" lon="-90.004507"><ele>161.9</ele></trkpt>
<trkpt lat="38.798887" lon="-90.004395"><ele>162.3</ele></trkpt>
<trkpt lat="38.798123" lon="-90.004025"><ele>164.4</ele></trkpt>
<trkpt lat="38.797876" lon="-90.003916"><ele>165.2</ele></trkpt>
<trkpt lat="38.797667" lon="-90.003800"><ele>166.0</ele></trkpt>
<trkpt lat="38.797465" lon="-90.003665"><ele>166.7</ele></trkpt>
<trkpt lat="38.797290" lon="-90.003527"><ele>167.0</ele></trkpt>
<trkpt lat="38.797172" lon="-90.003421"><ele>166.9</ele></trkpt>
<trkpt lat="38.796635" lon="-90.002880"><ele>164.5</ele></trkpt>
<trkpt lat="38.796629" lon="-90.002863"><ele>164.5</ele></trkpt>
<trkpt lat="38.796502" lon="-90.003037"><ele>163.8</ele></trkpt>
<trkpt lat="38.796391" lon="-90.003163"><ele>163.0</ele></trkpt>
<trkpt lat="38.796271" lon="-90.003276"><ele>162.3</ele></trkpt>
<trkpt lat="38.796145" lon="-90.003376"><ele>161.6</ele></trkpt>
<trkpt lat="38.796012" lon="-90.003462"><ele>160.9</ele></trkpt>
<trkpt lat="38.795866" lon="-90.003537"><ele>160.2</ele></trkpt>
<trkpt lat="38.795720" lon="-90.003594"><ele>159.6</ele></trkpt>
<trkpt lat="38.795566" lon="-90.003636"><ele>158.9</ele></trkpt>
<trkpt lat="38.795408" lon="-90.003660"><ele>158.4</ele></trkpt>
<trkpt lat="38.795250" lon="-90.003665"><ele>158.1</ele></trkpt>
<trkpt lat="38.795092" lon="-90.003652"><ele>157.8</ele></trkpt>
<trkpt lat="38.794936" lon="-90.003620"><ele>157.4</ele></trkpt>
<trkpt lat="38.794745" lon="-90.003556"><ele>157.4</ele></trkpt>
<trkpt lat="38.793764" lon="-90.003116"><ele>159.8</ele></trkpt>
<trkpt lat="38.793575" lon="-90.003050"><ele>160.1</ele></trkpt>
<trkpt lat="38.793616" lon="-90.002863"><ele>161.2</ele></trkpt>
<trkpt lat="38.793664" lon="-90.002533"><ele>162.3</ele></trkpt>
<trkpt lat="38.793665" lon="-90.002015"><ele>163.9</ele></trkpt>
<trkpt lat="38.793660" lon="-90.001235"><ele>166.2</ele></trkpt>
<trkpt lat="38.793514" lon="-90.001220"><ele>166.4</ele></trkpt>
<trkpt lat="38.793208" lon="-90.001221"><ele>166.1</ele></trkpt>
</trkseg></trk>
</gpx>