<?xml version="1.0" encoding="UTF-8" standalone="no" ?><gpx xmlns="http://www.topografix.com/GPX/1/1" xmlns:xsi="http://www.w3.org/2001/XMLSchema-instance" creator="GraphHopper" version="1.1" xmlns:gh="https://graphhopper.com/public/schema/gpx/1.1">
<metadata><copyright author="OpenStreetMap contributors"/><link href="http://graphhopper.com"><text>GraphHopper GPX</text></link><time>2026-05-05T17:40:42.228Z</time></metadata>
<trk>
<name>GraphHopper Track</name><desc></desc>
<trkseg><trkpt lat="35.412717" lon="-99.437262"><ele>613.4</ele></trkpt>
<trkpt lat="35.412710" lon="-99.434957"><ele>611.0</ele></trkpt>
<trkpt lat="35.412186" lon="-99.434957"><ele>610.7</ele></trkpt>
<trkpt lat="35.412080" lon="-99.434957"><ele>610.6</ele></trkpt>
<trkpt lat="35.411347" lon="-99.434950"><ele>610.0</ele></trkpt>
<trkpt lat="35.410767" lon="-99.434976"><ele>609.7</ele></trkpt>
<trkpt lat="35.408962" lon="-99.434996"><ele>609.7</ele></trkpt>
<trkpt lat="35.408062" lon="-99.435023"><ele>609.8</ele></trkpt>
<trkpt lat="35.407469" lon="-99.435029"><ele>610.0</ele></trkpt>
<trkpt lat="35.405931" lon="-99.435015"><ele>610.6</ele></trkpt>
<trkpt lat="35.403292" lon="-99.435025"><ele>608.6</ele></trkpt>
<trkpt lat="35.401856" lon="-99.434972"><ele>608.0</ele></trkpt>
<trkpt lat="35.398746" lon="-99.434997"><ele>604.8</ele></trkpt>
<trkpt lat="35.395300" lon="-99.434983"><ele>602.0</ele></trkpt>
<trkpt lat="35.394171" lon="-99.434996"><ele>600.8</ele></trkpt>
<trkpt lat="35.392930" lon="-99.434989"><ele>598.4</ele></trkpt>
<trkpt lat="35.392917" lon="-99.430460"><ele>603.6</ele></trkpt>
<trkpt lat="35.392935" lon="-99.427665"><ele>608.8</ele></trkpt>
<trkpt lat="35.392936" lon="-99.426330"><ele>611.2</ele></trkpt>
<trkpt lat="35.392848" lon="-99.417396"><ele>596.6</ele></trkpt>
<trkpt lat="35.392874" lon="-99.414386"><ele>587.6</ele></trkpt>
<trkpt lat="35.392874" lon="-99.411825"><ele>586.4</ele></trkpt>
<trkpt lat="35.392888" lon="-99.408562"><ele>584.0</ele></trkpt>
<trkpt lat="35.392891" lon="-99.404961"><ele>579.8</ele></trkpt>
<trkpt lat="35.392558" lon="-99.404863"><ele>580.6</ele></trkpt>
<trkpt lat="35.392158" lon="-99.404708"><ele>581.8</ele></trkpt>
<trkpt lat="35.391700" lon="-99.404486"><ele>583.9</ele></trkpt>
<trkpt lat="35.391151" lon="-99.404170"><ele>585.6</ele></trkpt>
<trkpt lat="35.390752" lon="-99.403891"><ele>586.6</ele></trkpt>
<trkpt lat="35.390408" lon="-99.403592"><ele>587.5</ele></trkpt>
<trkpt lat="35.390257" lon="-99.403311"><ele>588.5</ele></trkpt>
<trkpt lat="35.390152" lon="-99.403108"><ele>589.0</ele></trkpt>
<trkpt lat="35.390019" lon="-99.402971"><ele>588.7</ele></trkpt>
<trkpt lat="35.389747" lon="-99.402740"><ele>589.8</ele></trkpt>
<trkpt lat="35.389344" lon="-99.402300"><ele>589.0</ele></trkpt>
<trkpt lat="35.388988" lon="-99.401981"><ele>588.4</ele></trkpt>
<trkpt lat="35.388796" lon="-99.401786"><ele>589.4</ele></trkpt>
<trkpt lat="35.388546" lon="-99.401570"><ele>589.9</ele></trkpt>
<trkpt lat="35.388217" lon="-99.401443"><ele>589.9</ele></trkpt>
<trkpt lat="35.388080" lon="-99.401375"><ele>590.0</ele></trkpt>
<trkpt lat="35.387836" lon="-99.401173"><ele>589.6</ele></trkpt>
<trkpt lat="35.387453" lon="-99.400903"><ele>589.2</ele></trkpt>
<trkpt lat="35.387050" lon="-99.400661"><ele>588.9</ele></trkpt>
<trkpt lat="35.386702" lon="-99.400464"><ele>588.7</ele></trkpt>
<trkpt lat="35.386310" lon="-99.400272"><ele>588.1</ele></trkpt>
<trkpt lat="35.385666" lon="-99.400047"><ele>587.5</ele></trkpt>
<trkpt lat="35.385549" lon="-99.399976"><ele>587.0</ele></trkpt>
<trkpt lat="35.385145" lon="-99.399880"><ele>587.0</ele></trkpt>
<trkpt lat="35.384650" lon="-99.399789"><ele>587.6</ele></trkpt>
<trkpt lat="35.384385" lon="-99.399758"><ele>587.7</ele></trkpt>
<trkpt lat="35.383499" lon="-99.399719"><ele>589.0</ele></trkpt>
<trkpt lat="35.382904" lon="-99.399706"><ele>589.1</ele></trkpt>
<trkpt lat="35.381969" lon="-99.399715"><ele>590.0</ele></trkpt>
<trkpt lat="35.378331" lon="-99.399714"><ele>593.0</ele></trkpt>
<trkpt lat="35.368913" lon="-99.399753"><ele>580.5</ele></trkpt>
<trkpt lat="35.365485" lon="-99.399756"><ele>571.5</ele></trkpt>
<trkpt lat="35.362855" lon="-99.399781"><ele>566.1</ele></trkpt>
<trkpt lat="35.361285" lon="-99.399823"><ele>564.8</ele></trkpt>
<trkpt lat="35.360848" lon="-99.399817"><ele>565.1</ele></trkpt>
<trkpt lat="35.360200" lon="-99.399807"><ele>567.1</ele></trkpt>
<trkpt lat="35.359096" lon="-99.399815"><ele>570.8</ele></trkpt>
<trkpt lat="35.357137" lon="-99.399880"><ele>580.1</ele></trkpt>
<trkpt lat="35.356284" lon="-99.399880"><ele>584.3</ele></trkpt>
<trkpt lat="35.349246" lon="-99.399913"><ele>584.0</ele></trkpt>
<trkpt lat="35.345038" lon="-99.399930"><ele>594.0</ele></trkpt>
<trkpt lat="35.342439" lon="-99.399903"><ele>597.0</ele></trkpt>
<trkpt lat="35.340698" lon="-99.399942"><ele>597.2</ele></trkpt>
<trkpt lat="35.339886" lon="-99.399942"><ele>597.0</ele></trkpt>
<trkpt lat="35.336185" lon="-99.399920"><ele>591.3</ele></trkpt>
<trkpt lat="35.326716" lon="-99.399938"><ele>568.8</ele></trkpt>
<trkpt lat="35.320931" lon="-99.399943"><ele>567.2</ele></trkpt>
<trkpt lat="35.320226" lon="-99.399930"><ele>567.4</ele></trkpt>
<trkpt lat="35.318530" lon="-99.399879"><ele>571.0</ele></trkpt>
<trkpt lat="35.315440" lon="-99.399909"><ele>575.0</ele></trkpt>
<trkpt lat="35.308858" lon="-99.399888"><ele>558.7</ele></trkpt>
<trkpt lat="35.299227" lon="-99.399860"><ele>570.0</ele></trkpt>
<trkpt lat="35.291707" lon="-99.399881"><ele>550.6</ele></trkpt>
<trkpt lat="35.291518" lon="-99.399993"><ele>550.0</ele></trkpt>
<trkpt lat="35.291462" lon="-99.400042"><ele>550.0</ele></trkpt>
<trkpt lat="35.291425" lon="-99.400091"><ele>550.0</ele></trkpt>
<trkpt lat="35.291322" lon="-99.400265"><ele>550.0</ele></trkpt>
<trkpt lat="35.291330" lon="-99.405394"><ele>547.0</ele></trkpt>
<trkpt lat="35.291334" lon="-99.417491"><ele>562.7</ele></trkpt>
<trkpt lat="35.291327" lon="-99.422709"><ele>553.5</ele></trkpt>
<trkpt lat="35.291324" lon="-99.424666"><ele>557.2</ele></trkpt>
<trkpt lat="35.291296" lon="-99.429384"><ele>566.9</ele></trkpt>
<trkpt lat="35.291260" lon="-99.429854"><ele>567.1</ele></trkpt>
<trkpt lat="35.291189" lon="-99.430774"><ele>567.5</ele></trkpt>
<trkpt lat="35.290779" lon="-99.433909"><ele>566.6</ele></trkpt>
<trkpt lat="35.290688" lon="-99.436671"><ele>562.4</ele></trkpt>
<trkpt lat="35.290628" lon="-99.439688"><ele>563.1</ele></trkpt>
<trkpt lat="35.290646" lon="-99.440787"><ele>566.9</ele></trkpt>
<trkpt lat="35.290703" lon="-99.441530"><ele>566.2</ele></trkpt>
<trkpt lat="35.291063" lon="-99.443987"><ele>564.1</ele></trkpt>
<trkpt lat="35.291192" lon="-99.445839"><ele>560.0</ele></trkpt>
<trkpt lat="35.291354" lon="-99.450657"><ele>574.5</ele></trkpt>
<trkpt lat="35.291364" lon="-99.459873"><ele>588.0</ele></trkpt>
<trkpt lat="35.291348" lon="-99.470370"><ele>598.7</ele></trkpt>
<trkpt lat="35.291362" lon="-99.488107"><ele>586.3</ele></trkpt>
<trkpt lat="35.291345" lon="-99.506058"><ele>563.7</ele></trkpt>
<trkpt lat="35.291350" lon="-99.509765"><ele>555.2</ele></trkpt>
<trkpt lat="35.291351" lon="-99.510116"><ele>557.1</ele></trkpt>
<trkpt lat="35.291347" lon="-99.513132"><ele>561.7</ele></trkpt>
<trkpt lat="35.291357" lon="-99.527536"><ele>577.4</ele></trkpt>
<trkpt lat="35.291364" lon="-99.536702"><ele>569.4</ele></trkpt>
<trkpt lat="35.291542" lon="-99.539539"><ele>566.7</ele></trkpt>
<trkpt lat="35.291658" lon="-99.541523"><ele>563.5</ele></trkpt>
<trkpt lat="35.291405" lon="-99.544347"><ele>565.0</ele></trkpt>
<trkpt lat="35.291350" lon="-99.546004"><ele>567.5</ele></trkpt>
<trkpt lat="35.291359" lon="-99.558517"><ele>577.0</ele></trkpt>
<trkpt lat="35.291362" lon="-99.563158"><ele>572.3</ele></trkpt>
<trkpt lat="35.291365" lon="-99.566472"><ele>558.5</ele></trkpt>
<trkpt lat="35.291368" lon="-99.571113"><ele>566.1</ele></trkpt>
<trkpt lat="35.291362" lon="-99.573000"><ele>566.7</ele></trkpt>
<trkpt lat="35.291352" lon="-99.576144"><ele>553.9</ele></trkpt>
<trkpt lat="35.291362" lon="-99.581338"><ele>544.1</ele></trkpt>
<trkpt lat="35.291358" lon="-99.581704"><ele>543.3</ele></trkpt>
<trkpt lat="35.291343" lon="-99.583315"><ele>545.9</ele></trkpt>
<trkpt lat="35.291341" lon="-99.586205"><ele>551.6</ele></trkpt>
<trkpt lat="35.291352" lon="-99.589571"><ele>554.8</ele></trkpt>
<trkpt lat="35.291331" lon="-99.593061"><ele>562.5</ele></trkpt>
<trkpt lat="35.291333" lon="-99.594838"><ele>565.9</ele></trkpt>
<trkpt lat="35.291446" lon="-99.596330"><ele>567.1</ele></trkpt>
<trkpt lat="35.291544" lon="-99.598178"><ele>565.8</ele></trkpt>
<trkpt lat="35.291510" lon="-99.602824"><ele>556.6</ele></trkpt>
<trkpt lat="35.291513" lon="-99.607671"><ele>547.3</ele></trkpt>
<trkpt lat="35.291512" lon="-99.608221"><ele>546.2</ele></trkpt>
<trkpt lat="35.291499" lon="-99.613699"><ele>561.3</ele></trkpt>
<trkpt lat="35.291518" lon="-99.615771"><ele>557.5</ele></trkpt>
<trkpt lat="35.291553" lon="-99.616829"><ele>557.2</ele></trkpt>
<trkpt lat="35.291613" lon="-99.618077"><ele>558.4</ele></trkpt>
<trkpt lat="35.291685" lon="-99.619163"><ele>560.0</ele></trkpt>
<trkpt lat="35.291906" lon="-99.619154"><ele>559.4</ele></trkpt>
<trkpt lat="35.292704" lon="-99.619211"><ele>557.4</ele></trkpt>
<trkpt lat="35.293055" lon="-99.619237"><ele>556.5</ele></trkpt>
<trkpt lat="35.293309" lon="-99.619244"><ele>556.4</ele></trkpt>
<trkpt lat="35.293462" lon="-99.619239"><ele>556.3</ele></trkpt>
<trkpt lat="35.294098" lon="-99.619178"><ele>557.9</ele></trkpt>
<trkpt lat="35.294311" lon="-99.619107"><ele>558.2</ele></trkpt>
<trkpt lat="35.307876" lon="-99.615008"><ele>563.7</ele></trkpt>
<trkpt lat="35.310458" lon="-99.614205"><ele>564.2</ele></trkpt>
<trkpt lat="35.312285" lon="-99.613653"><ele>563.0</ele></trkpt>
<trkpt lat="35.313078" lon="-99.613375"><ele>562.4</ele></trkpt>
<trkpt lat="35.315167" lon="-99.612540"><ele>563.1</ele></trkpt>
<trkpt lat="35.315850" lon="-99.612217"><ele>561.9</ele></trkpt>
<trkpt lat="35.316261" lon="-99.612017"><ele>563.9</ele></trkpt>
<trkpt lat="35.316664" lon="-99.611805"><ele>565.1</ele></trkpt>
<trkpt lat="35.317584" lon="-99.611284"><ele>567.5</ele></trkpt>
<trkpt lat="35.318663" lon="-99.610635"><ele>569.3</ele></trkpt>
<trkpt lat="35.319410" lon="-99.610155"><ele>570.2</ele></trkpt>
<trkpt lat="35.320191" lon="-99.609618"><ele>570.9</ele></trkpt>
<trkpt lat="35.320780" lon="-99.609186"><ele>571.0</ele></trkpt>
<trkpt lat="35.321404" lon="-99.608698"><ele>571.2</ele></trkpt>
<trkpt lat="35.322296" lon="-99.607964"><ele>571.2</ele></trkpt>
<trkpt lat="35.323055" lon="-99.607299"><ele>571.0</ele></trkpt>
<trkpt lat="35.324014" lon="-99.606502"><ele>571.8</ele></trkpt>
<trkpt lat="35.327291" lon="-99.603729"><ele>568.8</ele></trkpt>
<trkpt lat="35.333363" lon="-99.598580"><ele>585.0</ele></trkpt>
<trkpt lat="35.334299" lon="-99.597770"><ele>587.0</ele></trkpt>
<trkpt lat="35.334677" lon="-99.597392"><ele>588.0</ele></trkpt>
<trkpt lat="35.334977" lon="-99.597077"><ele>588.0</ele></trkpt>
<trkpt lat="35.335382" lon="-99.596630"><ele>588.1</ele></trkpt>
<trkpt lat="35.335751" lon="-99.596201"><ele>588.4</ele></trkpt>
<trkpt lat="35.336217" lon="-99.595609"><ele>588.8</ele></trkpt>
<trkpt lat="35.336708" lon="-99.594956"><ele>589.1</ele></trkpt>
<trkpt lat="35.337765" lon="-99.593525"><ele>590.9</ele></trkpt>
<trkpt lat="35.338357" lon="-99.592700"><ele>592.3</ele></trkpt>
<trkpt lat="35.339088" lon="-99.591582"><ele>592.8</ele></trkpt>
<trkpt lat="35.339889" lon="-99.590267"><ele>591.1</ele></trkpt>
<trkpt lat="35.340356" lon="-99.589428"><ele>588.8</ele></trkpt>
<trkpt lat="35.344902" lon="-99.581103"><ele>570.1</ele></trkpt>
<trkpt lat="35.345286" lon="-99.580397"><ele>570.6</ele></trkpt>
<trkpt lat="35.347726" lon="-99.575894"><ele>578.0</ele></trkpt>
<trkpt lat="35.355057" lon="-99.562521"><ele>602.0</ele></trkpt>
<trkpt lat="35.355697" lon="-99.561446"><ele>603.4</ele></trkpt>
<trkpt lat="35.356444" lon="-99.560272"><ele>604.9</ele></trkpt>
<trkpt lat="35.357296" lon="-99.559038"><ele>605.9</ele></trkpt>
<trkpt lat="35.357827" lon="-99.558286"><ele>605.6</ele></trkpt>
<trkpt lat="35.360652" lon="-99.554353"><ele>604.0</ele></trkpt>
<trkpt lat="35.367413" lon="-99.544913"><ele>620.6</ele></trkpt>
<trkpt lat="35.367951" lon="-99.544105"><ele>621.6</ele></trkpt>
<trkpt lat="35.368422" lon="-99.543358"><ele>622.0</ele></trkpt>
<trkpt lat="35.368917" lon="-99.542539"><ele>621.6</ele></trkpt>
<trkpt lat="35.369454" lon="-99.541614"><ele>620.0</ele></trkpt>
<trkpt lat="35.371283" lon="-99.538225"><ele>617.1</ele></trkpt>
<trkpt lat="35.378449" lon="-99.525045"><ele>632.3</ele></trkpt>
<trkpt lat="35.381035" lon="-99.520271"><ele>638.9</ele></trkpt>
<trkpt lat="35.381894" lon="-99.518704"><ele>641.9</ele></trkpt>
<trkpt lat="35.382228" lon="-99.518075"><ele>642.8</ele></trkpt>
<trkpt lat="35.382586" lon="-99.517376"><ele>643.7</ele></trkpt>
<trkpt lat="35.382946" lon="-99.516617"><ele>644.8</ele></trkpt>
<trkpt lat="35.383474" lon="-99.515382"><ele>646.5</ele></trkpt>
<trkpt lat="35.383664" lon="-99.514895"><ele>646.7</ele></trkpt>
<trkpt lat="35.383944" lon="-99.514127"><ele>646.8</ele></trkpt>
<trkpt lat="35.384062" lon="-99.513773"><ele>646.7</ele></trkpt>
<trkpt lat="35.384359" lon="-99.513299"><ele>647.0</ele></trkpt>
<trkpt lat="35.384552" lon="-99.512952"><ele>647.2</ele></trkpt>
<trkpt lat="35.384726" lon="-99.512695"><ele>647.4</ele></trkpt>
<trkpt lat="35.384963" lon="-99.512369"><ele>647.8</ele></trkpt>
<trkpt lat="35.385211" lon="-99.512064"><ele>649.3</ele></trkpt>
<trkpt lat="35.385691" lon="-99.511516"><ele>648.1</ele></trkpt>
<trkpt lat="35.386178" lon="-99.510943"><ele>649.1</ele></trkpt>
<trkpt lat="35.386446" lon="-99.510596"><ele>649.8</ele></trkpt>
<trkpt lat="35.386735" lon="-99.510177"><ele>650.4</ele></trkpt>
<trkpt lat="35.386972" lon="-99.509793"><ele>650.9</ele></trkpt>
<trkpt lat="35.387217" lon="-99.509355"><ele>650.9</ele></trkpt>
<trkpt lat="35.395716" lon="-99.493689"><ele>671.0</ele></trkpt>
<trkpt lat="35.401322" lon="-99.483372"><ele>660.4</ele></trkpt>
<trkpt lat="35.403740" lon="-99.478917"><ele>646.9</ele></trkpt>
<trkpt lat="35.404288" lon="-99.477920"><ele>643.2</ele></trkpt>
<trkpt lat="35.406379" lon="-99.474047"><ele>639.2</ele></trkpt>
<trkpt lat="35.406487" lon="-99.473849"><ele>638.8</ele></trkpt>
<trkpt lat="35.410300" lon="-99.466814"><ele>627.0</ele></trkpt>
<trkpt lat="35.410623" lon="-99.466144"><ele>625.3</ele></trkpt>
<trkpt lat="35.410887" lon="-99.465473"><ele>624.4</ele></trkpt>
<trkpt lat="35.411058" lon="-99.464939"><ele>623.8</ele></trkpt>
<trkpt lat="35.411158" lon="-99.464563"><ele>623.0</ele></trkpt>
<trkpt lat="35.411289" lon="-99.463999"><ele>623.0</ele></trkpt>
<trkpt lat="35.411368" lon="-99.463564"><ele>622.9</ele></trkpt>
<trkpt lat="35.411418" lon="-99.463232"><ele>622.8</ele></trkpt>
<trkpt lat="35.411470" lon="-99.462805"><ele>622.3</ele></trkpt>
<trkpt lat="35.411512" lon="-99.462171"><ele>621.8</ele></trkpt>
<trkpt lat="35.411520" lon="-99.461604"><ele>621.1</ele></trkpt>
<trkpt lat="35.411522" lon="-99.455000"><ele>611.6</ele></trkpt>
<trkpt lat="35.411522" lon="-99.453082"><ele>608.6</ele></trkpt>
<trkpt lat="35.411516" lon="-99.452698"><ele>607.8</ele></trkpt>
<trkpt lat="35.411520" lon="-99.447803"><ele>612.6</ele></trkpt>
<trkpt lat="35.411520" lon="-99.447375"><ele>612.9</ele></trkpt>
<trkpt lat="35.411524" lon="-99.443518"><ele>617.6</ele></trkpt>
<trkpt lat="35.411524" lon="-99.440131"><ele>617.0</ele></trkpt>
<trkpt lat="35.411534" lon="-99.439379"><ele>616.7</ele></trkpt>
<trkpt lat="35.411567" lon="-99.438341"><ele>615.3</ele></trkpt>
<trkpt lat="35.411642" lon="-99.437764"><ele>614.8</ele></trkpt>
<trkpt lat="35.411656" lon="-99.437240"><ele>614.0</ele></trkpt>
<trkpt lat="35.411725" lon="-99.437240"><ele>614.0</ele></trkpt>
</trkseg></trk>
</gpx>