<?xml version="1.0" encoding="UTF-8" standalone="no" ?><gpx xmlns="http://www.topografix.com/GPX/1/1" xmlns:xsi="http://www.w3.org/2001/XMLSchema-instance" creator="GraphHopper" version="1.1" xmlns:gh="https://graphhopper.com/public/schema/gpx/1.1">
<metadata><copyright author="OpenStreetMap contributors"/><link href="http://graphhopper.com"><text>GraphHopper GPX</text></link><time>2026-05-05T04:47:46.217Z</time></metadata>
<trk>
<name>GraphHopper Track</name><desc></desc>
<trkseg><trkpt lat="35.412717" lon="-99.437262"><ele>613.4</ele></trkpt>
<trkpt lat="35.412710" lon="-99.434957"><ele>611.0</ele></trkpt>
<trkpt lat="35.412080" lon="-99.434957"><ele>610.6</ele></trkpt>
<trkpt lat="35.412053" lon="-99.434957"><ele>610.6</ele></trkpt>
<trkpt lat="35.411709" lon="-99.434954"><ele>610.6</ele></trkpt>
<trkpt lat="35.411694" lon="-99.435860"><ele>612.0</ele></trkpt>
<trkpt lat="35.411642" lon="-99.437764"><ele>614.8</ele></trkpt>
<trkpt lat="35.411696" lon="-99.438345"><ele>615.6</ele></trkpt>
<trkpt lat="35.411698" lon="-99.440119"><ele>617.0</ele></trkpt>
<trkpt lat="35.411698" lon="-99.440554"><ele>617.0</ele></trkpt>
<trkpt lat="35.411698" lon="-99.440647"><ele>617.0</ele></trkpt>
<trkpt lat="35.411694" lon="-99.444393"><ele>617.9</ele></trkpt>
<trkpt lat="35.411697" lon="-99.447377"><ele>613.3</ele></trkpt>
<trkpt lat="35.411702" lon="-99.449292"><ele>610.8</ele></trkpt>
<trkpt lat="35.411698" lon="-99.452695"><ele>607.9</ele></trkpt>
<trkpt lat="35.413327" lon="-99.452696"><ele>605.2</ele></trkpt>
<trkpt lat="35.413428" lon="-99.452696"><ele>605.5</ele></trkpt>
<trkpt lat="35.414452" lon="-99.452692"><ele>607.1</ele></trkpt>
<trkpt lat="35.416783" lon="-99.452664"><ele>616.9</ele></trkpt>
<trkpt lat="35.417160" lon="-99.452672"><ele>617.8</ele></trkpt>
<trkpt lat="35.418097" lon="-99.452664"><ele>619.4</ele></trkpt>
<trkpt lat="35.419976" lon="-99.452677"><ele>621.0</ele></trkpt>
<trkpt lat="35.421504" lon="-99.452653"><ele>623.3</ele></trkpt>
<trkpt lat="35.422082" lon="-99.452652"><ele>624.3</ele></trkpt>
<trkpt lat="35.422970" lon="-99.452674"><ele>625.8</ele></trkpt>
<trkpt lat="35.423604" lon="-99.452647"><ele>626.7</ele></trkpt>
<trkpt lat="35.425135" lon="-99.452668"><ele>628.1</ele></trkpt>
<trkpt lat="35.426294" lon="-99.452703"><ele>628.3</ele></trkpt>
<trkpt lat="35.428013" lon="-99.452737"><ele>630.0</ele></trkpt>
<trkpt lat="35.432674" lon="-99.452757"><ele>637.0</ele></trkpt>
<trkpt lat="35.434014" lon="-99.452740"><ele>638.3</ele></trkpt>
<trkpt lat="35.436610" lon="-99.452750"><ele>635.3</ele></trkpt>
<trkpt lat="35.440248" lon="-99.452737"><ele>628.3</ele></trkpt>
<trkpt lat="35.444826" lon="-99.452637"><ele>631.4</ele></trkpt>
<trkpt lat="35.447782" lon="-99.452599"><ele>635.3</ele></trkpt>
<trkpt lat="35.449083" lon="-99.452564"><ele>637.5</ele></trkpt>
<trkpt lat="35.453155" lon="-99.452559"><ele>636.8</ele></trkpt>
<trkpt lat="35.454500" lon="-99.452573"><ele>634.8</ele></trkpt>
<trkpt lat="35.456072" lon="-99.452548"><ele>637.5</ele></trkpt>
<trkpt lat="35.457392" lon="-99.452562"><ele>638.2</ele></trkpt>
<trkpt lat="35.460087" lon="-99.452559"><ele>629.7</ele></trkpt>
<trkpt lat="35.461176" lon="-99.452589"><ele>630.9</ele></trkpt>
<trkpt lat="35.461962" lon="-99.452591"><ele>631.7</ele></trkpt>
<trkpt lat="35.465621" lon="-99.452595"><ele>634.7</ele></trkpt>
<trkpt lat="35.467757" lon="-99.452629"><ele>636.5</ele></trkpt>
<trkpt lat="35.470407" lon="-99.452642"><ele>633.3</ele></trkpt>
<trkpt lat="35.477056" lon="-99.452693"><ele>641.9</ele></trkpt>
<trkpt lat="35.479737" lon="-99.452692"><ele>643.5</ele></trkpt>
<trkpt lat="35.480089" lon="-99.452692"><ele>643.7</ele></trkpt>
<trkpt lat="35.480067" lon="-99.449313"><ele>632.6</ele></trkpt>
<trkpt lat="35.480065" lon="-99.447860"><ele>633.0</ele></trkpt>
<trkpt lat="35.480096" lon="-99.442965"><ele>637.2</ele></trkpt>
<trkpt lat="35.480060" lon="-99.441550"><ele>642.6</ele></trkpt>
<trkpt lat="35.480080" lon="-99.439562"><ele>650.4</ele></trkpt>
<trkpt lat="35.480100" lon="-99.437574"><ele>646.6</ele></trkpt>
<trkpt lat="35.480073" lon="-99.434923"><ele>642.1</ele></trkpt>
<trkpt lat="35.480064" lon="-99.432123"><ele>639.5</ele></trkpt>
<trkpt lat="35.480043" lon="-99.430105"><ele>645.9</ele></trkpt>
<trkpt lat="35.480055" lon="-99.427470"><ele>642.9</ele></trkpt>
<trkpt lat="35.480018" lon="-99.425785"><ele>641.3</ele></trkpt>
<trkpt lat="35.480020" lon="-99.420781"><ele>635.1</ele></trkpt>
<trkpt lat="35.479978" lon="-99.414215"><ele>635.5</ele></trkpt>
<trkpt lat="35.479979" lon="-99.410825"><ele>633.9</ele></trkpt>
<trkpt lat="35.479948" lon="-99.408264"><ele>630.0</ele></trkpt>
<trkpt lat="35.479938" lon="-99.406437"><ele>630.2</ele></trkpt>
<trkpt lat="35.479957" lon="-99.402476"><ele>627.0</ele></trkpt>
<trkpt lat="35.479938" lon="-99.399510"><ele>622.1</ele></trkpt>
<trkpt lat="35.479903" lon="-99.396898"><ele>625.7</ele></trkpt>
<trkpt lat="35.479788" lon="-99.386296"><ele>627.5</ele></trkpt>
<trkpt lat="35.479737" lon="-99.384092"><ele>627.0</ele></trkpt>
<trkpt lat="35.479736" lon="-99.381833"><ele>632.9</ele></trkpt>
<trkpt lat="35.479712" lon="-99.378922"><ele>634.9</ele></trkpt>
<trkpt lat="35.479677" lon="-99.373079"><ele>628.7</ele></trkpt>
<trkpt lat="35.478724" lon="-99.373076"><ele>625.6</ele></trkpt>
<trkpt lat="35.475383" lon="-99.373065"><ele>614.9</ele></trkpt>
<trkpt lat="35.472085" lon="-99.373049"><ele>625.4</ele></trkpt>
<trkpt lat="35.469336" lon="-99.373036"><ele>624.6</ele></trkpt>
<trkpt lat="35.467627" lon="-99.373045"><ele>623.8</ele></trkpt>
<trkpt lat="35.465341" lon="-99.373032"><ele>622.4</ele></trkpt>
<trkpt lat="35.462870" lon="-99.373033"><ele>621.0</ele></trkpt>
<trkpt lat="35.461686" lon="-99.373023"><ele>619.8</ele></trkpt>
<trkpt lat="35.457484" lon="-99.373028"><ele>618.0</ele></trkpt>
<trkpt lat="35.449438" lon="-99.373005"><ele>618.7</ele></trkpt>
<trkpt lat="35.447687" lon="-99.372958"><ele>617.0</ele></trkpt>
<trkpt lat="35.436296" lon="-99.372922"><ele>606.0</ele></trkpt>
<trkpt lat="35.430387" lon="-99.372891"><ele>605.0</ele></trkpt>
<trkpt lat="35.427761" lon="-99.372880"><ele>607.8</ele></trkpt>
<trkpt lat="35.427542" lon="-99.372873"><ele>608.0</ele></trkpt>
<trkpt lat="35.425417" lon="-99.372866"><ele>609.9</ele></trkpt>
<trkpt lat="35.425004" lon="-99.372871"><ele>609.9</ele></trkpt>
<trkpt lat="35.423265" lon="-99.372861"><ele>609.9</ele></trkpt>
<trkpt lat="35.423152" lon="-99.372931"><ele>609.7</ele></trkpt>
<trkpt lat="35.422755" lon="-99.372961"><ele>609.6</ele></trkpt>
<trkpt lat="35.422150" lon="-99.372966"><ele>609.6</ele></trkpt>
<trkpt lat="35.422021" lon="-99.373076"><ele>609.3</ele></trkpt>
<trkpt lat="35.421981" lon="-99.373127"><ele>609.1</ele></trkpt>
<trkpt lat="35.421934" lon="-99.373197"><ele>609.0</ele></trkpt>
<trkpt lat="35.421872" lon="-99.373337"><ele>608.8</ele></trkpt>
<trkpt lat="35.421899" lon="-99.375156"><ele>606.0</ele></trkpt>
<trkpt lat="35.421902" lon="-99.375370"><ele>605.6</ele></trkpt>
<trkpt lat="35.421941" lon="-99.378577"><ele>600.4</ele></trkpt>
<trkpt lat="35.421975" lon="-99.380280"><ele>597.2</ele></trkpt>
<trkpt lat="35.421982" lon="-99.381855"><ele>595.7</ele></trkpt>
<trkpt lat="35.422044" lon="-99.387767"><ele>589.0</ele></trkpt>
<trkpt lat="35.422052" lon="-99.389612"><ele>594.0</ele></trkpt>
<trkpt lat="35.422011" lon="-99.393747"><ele>598.7</ele></trkpt>
<trkpt lat="35.422005" lon="-99.394311"><ele>599.5</ele></trkpt>
<trkpt lat="35.421994" lon="-99.395374"><ele>601.0</ele></trkpt>
<trkpt lat="35.421973" lon="-99.397075"><ele>599.2</ele></trkpt>
<trkpt lat="35.421957" lon="-99.397336"><ele>598.9</ele></trkpt>
<trkpt lat="35.421926" lon="-99.397558"><ele>598.7</ele></trkpt>
<trkpt lat="35.421879" lon="-99.397777"><ele>598.6</ele></trkpt>
<trkpt lat="35.421823" lon="-99.397992"><ele>598.5</ele></trkpt>
<trkpt lat="35.421740" lon="-99.398217"><ele>598.5</ele></trkpt>
<trkpt lat="35.421632" lon="-99.398444"><ele>598.3</ele></trkpt>
<trkpt lat="35.421499" lon="-99.398654"><ele>598.2</ele></trkpt>
<trkpt lat="35.421156" lon="-99.399147"><ele>597.8</ele></trkpt>
<trkpt lat="35.421008" lon="-99.399331"><ele>597.7</ele></trkpt>
<trkpt lat="35.420894" lon="-99.399442"><ele>597.6</ele></trkpt>
<trkpt lat="35.420678" lon="-99.399593"><ele>597.0</ele></trkpt>
<trkpt lat="35.420495" lon="-99.399675"><ele>597.0</ele></trkpt>
<trkpt lat="35.420241" lon="-99.399730"><ele>597.0</ele></trkpt>
<trkpt lat="35.420070" lon="-99.399690"><ele>597.0</ele></trkpt>
<trkpt lat="35.419859" lon="-99.399696"><ele>596.5</ele></trkpt>
<trkpt lat="35.413794" lon="-99.399696"><ele>587.6</ele></trkpt>
<trkpt lat="35.413315" lon="-99.399704"><ele>586.0</ele></trkpt>
<trkpt lat="35.412767" lon="-99.399817"><ele>584.6</ele></trkpt>
<trkpt lat="35.412594" lon="-99.399904"><ele>584.3</ele></trkpt>
<trkpt lat="35.412440" lon="-99.400002"><ele>584.0</ele></trkpt>
<trkpt lat="35.412279" lon="-99.400140"><ele>583.6</ele></trkpt>
<trkpt lat="35.412083" lon="-99.400365"><ele>582.9</ele></trkpt>
<trkpt lat="35.411944" lon="-99.400613"><ele>582.2</ele></trkpt>
<trkpt lat="35.411864" lon="-99.400786"><ele>582.2</ele></trkpt>
<trkpt lat="35.411810" lon="-99.400964"><ele>582.3</ele></trkpt>
<trkpt lat="35.411765" lon="-99.401226"><ele>582.2</ele></trkpt>
<trkpt lat="35.411714" lon="-99.401391"><ele>582.0</ele></trkpt>
<trkpt lat="35.411713" lon="-99.401911"><ele>580.3</ele></trkpt>
<trkpt lat="35.411714" lon="-99.402448"><ele>580.8</ele></trkpt>
<trkpt lat="35.411712" lon="-99.403077"><ele>582.6</ele></trkpt>
<trkpt lat="35.411712" lon="-99.403572"><ele>583.3</ele></trkpt>
<trkpt lat="35.411722" lon="-99.404894"><ele>587.0</ele></trkpt>
<trkpt lat="35.411719" lon="-99.406221"><ele>589.1</ele></trkpt>
<trkpt lat="35.411715" lon="-99.418483"><ele>604.0</ele></trkpt>
<trkpt lat="35.411722" lon="-99.419639"><ele>605.7</ele></trkpt>
<trkpt lat="35.411708" lon="-99.421993"><ele>608.0</ele></trkpt>
<trkpt lat="35.411714" lon="-99.423164"><ele>609.4</ele></trkpt>
<trkpt lat="35.411715" lon="-99.430626"><ele>610.0</ele></trkpt>
<trkpt lat="35.411709" lon="-99.434954"><ele>610.6</ele></trkpt>
<trkpt lat="35.411694" lon="-99.435860"><ele>612.0</ele></trkpt>
<trkpt lat="35.411656" lon="-99.437240"><ele>614.0</ele></trkpt>
<trkpt lat="35.411725" lon="-99.437240"><ele>614.0</ele></trkpt>
</trkseg></trk>
</gpx>