<?xml version="1.0" encoding="UTF-8" standalone="no" ?><gpx xmlns="http://www.topografix.com/GPX/1/1" xmlns:xsi="http://www.w3.org/2001/XMLSchema-instance" creator="GraphHopper" version="1.1" xmlns:gh="https://graphhopper.com/public/schema/gpx/1.1">
<metadata><copyright author="OpenStreetMap contributors"/><link href="http://graphhopper.com"><text>GraphHopper GPX</text></link><time>2026-05-13T01:41:18.489Z</time></metadata>
<trk>
<name>GraphHopper Track</name><desc></desc>
<trkseg><trkpt lat="37.176319" lon="-94.314859"><ele>299.4</ele></trkpt>
<trkpt lat="37.176414" lon="-94.314854"><ele>299.2</ele></trkpt>
<trkpt lat="37.176393" lon="-94.314014"><ele>299.4</ele></trkpt>
<trkpt lat="37.178683" lon="-94.313932"><ele>301.0</ele></trkpt>
<trkpt lat="37.178598" lon="-94.310072"><ele>298.5</ele></trkpt>
<trkpt lat="37.178572" lon="-94.308416"><ele>301.3</ele></trkpt>
<trkpt lat="37.178565" lon="-94.308376"><ele>301.2</ele></trkpt>
<trkpt lat="37.178540" lon="-94.306632"><ele>296.8</ele></trkpt>
<trkpt lat="37.178519" lon="-94.306035"><ele>299.1</ele></trkpt>
<trkpt lat="37.178474" lon="-94.304330"><ele>293.9</ele></trkpt>
<trkpt lat="37.178544" lon="-94.304072"><ele>293.8</ele></trkpt>
<trkpt lat="37.178663" lon="-94.303897"><ele>293.7</ele></trkpt>
<trkpt lat="37.178760" lon="-94.303804"><ele>293.6</ele></trkpt>
<trkpt lat="37.179036" lon="-94.303589"><ele>292.5</ele></trkpt>
<trkpt lat="37.179779" lon="-94.303021"><ele>293.9</ele></trkpt>
<trkpt lat="37.180807" lon="-94.302237"><ele>289.8</ele></trkpt>
<trkpt lat="37.181351" lon="-94.301812"><ele>289.4</ele></trkpt>
<trkpt lat="37.182742" lon="-94.300729"><ele>289.6</ele></trkpt>
<trkpt lat="37.183373" lon="-94.300248"><ele>287.8</ele></trkpt>
<trkpt lat="37.183649" lon="-94.300042"><ele>289.0</ele></trkpt>
<trkpt lat="37.184391" lon="-94.299466"><ele>286.0</ele></trkpt>
<trkpt lat="37.185483" lon="-94.298627"><ele>288.9</ele></trkpt>
<trkpt lat="37.186548" lon="-94.297790"><ele>288.9</ele></trkpt>
<trkpt lat="37.187107" lon="-94.297362"><ele>287.1</ele></trkpt>
<trkpt lat="37.188014" lon="-94.296660"><ele>288.5</ele></trkpt>
<trkpt lat="37.188470" lon="-94.296299"><ele>288.9</ele></trkpt>
<trkpt lat="37.188879" lon="-94.295906"><ele>288.8</ele></trkpt>
<trkpt lat="37.189261" lon="-94.295489"><ele>288.6</ele></trkpt>
<trkpt lat="37.189691" lon="-94.294926"><ele>288.7</ele></trkpt>
<trkpt lat="37.189854" lon="-94.294677"><ele>288.7</ele></trkpt>
<trkpt lat="37.190009" lon="-94.294422"><ele>288.8</ele></trkpt>
<trkpt lat="37.190287" lon="-94.293904"><ele>288.9</ele></trkpt>
<trkpt lat="37.190995" lon="-94.292409"><ele>290.8</ele></trkpt>
<trkpt lat="37.191914" lon="-94.290394"><ele>295.4</ele></trkpt>
<trkpt lat="37.192127" lon="-94.289902"><ele>295.8</ele></trkpt>
<trkpt lat="37.194454" lon="-94.284713"><ele>308.0</ele></trkpt>
<trkpt lat="37.195253" lon="-94.283036"><ele>305.9</ele></trkpt>
<trkpt lat="37.197546" lon="-94.278085"><ele>314.9</ele></trkpt>
<trkpt lat="37.197921" lon="-94.276900"><ele>315.1</ele></trkpt>
<trkpt lat="37.198191" lon="-94.275672"><ele>313.8</ele></trkpt>
<trkpt lat="37.198296" lon="-94.274952"><ele>312.4</ele></trkpt>
<trkpt lat="37.198346" lon="-94.274014"><ele>310.1</ele></trkpt>
<trkpt lat="37.198347" lon="-94.272685"><ele>309.8</ele></trkpt>
<trkpt lat="37.198325" lon="-94.270269"><ele>308.7</ele></trkpt>
<trkpt lat="37.198321" lon="-94.266461"><ele>317.0</ele></trkpt>
<trkpt lat="37.198275" lon="-94.261765"><ele>321.0</ele></trkpt>
<trkpt lat="37.198191" lon="-94.250345"><ele>312.0</ele></trkpt>
<trkpt lat="37.198065" lon="-94.241126"><ele>311.8</ele></trkpt>
<trkpt lat="37.198007" lon="-94.237164"><ele>322.2</ele></trkpt>
<trkpt lat="37.197941" lon="-94.234404"><ele>325.5</ele></trkpt>
<trkpt lat="37.197883" lon="-94.231070"><ele>325.0</ele></trkpt>
<trkpt lat="37.197814" lon="-94.228539"><ele>324.0</ele></trkpt>
<trkpt lat="37.197696" lon="-94.223087"><ele>323.0</ele></trkpt>
<trkpt lat="37.197541" lon="-94.217694"><ele>327.2</ele></trkpt>
<trkpt lat="37.197542" lon="-94.217358"><ele>327.2</ele></trkpt>
<trkpt lat="37.197407" lon="-94.211746"><ele>328.3</ele></trkpt>
<trkpt lat="37.197322" lon="-94.208679"><ele>324.3</ele></trkpt>
<trkpt lat="37.197262" lon="-94.206285"><ele>329.0</ele></trkpt>
<trkpt lat="37.197115" lon="-94.201097"><ele>327.0</ele></trkpt>
<trkpt lat="37.197080" lon="-94.199499"><ele>325.0</ele></trkpt>
<trkpt lat="37.197065" lon="-94.199318"><ele>324.9</ele></trkpt>
<trkpt lat="37.197000" lon="-94.197419"><ele>325.0</ele></trkpt>
<trkpt lat="37.196954" lon="-94.195170"><ele>329.3</ele></trkpt>
<trkpt lat="37.196901" lon="-94.191480"><ele>331.4</ele></trkpt>
<trkpt lat="37.196729" lon="-94.181472"><ele>331.1</ele></trkpt>
<trkpt lat="37.196595" lon="-94.175670"><ele>328.0</ele></trkpt>
<trkpt lat="37.196532" lon="-94.172551"><ele>330.0</ele></trkpt>
<trkpt lat="37.196323" lon="-94.163764"><ele>334.5</ele></trkpt>
<trkpt lat="37.196148" lon="-94.154551"><ele>331.7</ele></trkpt>
<trkpt lat="37.196018" lon="-94.149194"><ele>335.0</ele></trkpt>
<trkpt lat="37.195963" lon="-94.146625"><ele>334.7</ele></trkpt>
<trkpt lat="37.195941" lon="-94.146036"><ele>335.3</ele></trkpt>
<trkpt lat="37.195898" lon="-94.145453"><ele>335.9</ele></trkpt>
<trkpt lat="37.195837" lon="-94.144973"><ele>336.2</ele></trkpt>
<trkpt lat="37.195640" lon="-94.145000"><ele>336.4</ele></trkpt>
<trkpt lat="37.192280" lon="-94.145106"><ele>339.5</ele></trkpt>
<trkpt lat="37.188192" lon="-94.145193"><ele>343.0</ele></trkpt>
<trkpt lat="37.186833" lon="-94.145212"><ele>343.2</ele></trkpt>
<trkpt lat="37.183221" lon="-94.145314"><ele>342.0</ele></trkpt>
<trkpt lat="37.181311" lon="-94.145358"><ele>340.7</ele></trkpt>
<trkpt lat="37.169771" lon="-94.145738"><ele>306.9</ele></trkpt>
<trkpt lat="37.169382" lon="-94.145784"><ele>306.7</ele></trkpt>
<trkpt lat="37.167970" lon="-94.145953"><ele>305.9</ele></trkpt>
<trkpt lat="37.166697" lon="-94.146163"><ele>306.3</ele></trkpt>
<trkpt lat="37.166084" lon="-94.146248"><ele>304.0</ele></trkpt>
<trkpt lat="37.165677" lon="-94.146312"><ele>306.4</ele></trkpt>
<trkpt lat="37.165447" lon="-94.146357"><ele>307.4</ele></trkpt>
<trkpt lat="37.165192" lon="-94.146430"><ele>308.4</ele></trkpt>
<trkpt lat="37.164904" lon="-94.146564"><ele>309.6</ele></trkpt>
<trkpt lat="37.164628" lon="-94.146770"><ele>310.5</ele></trkpt>
<trkpt lat="37.164436" lon="-94.146939"><ele>311.2</ele></trkpt>
<trkpt lat="37.163493" lon="-94.147977"><ele>314.3</ele></trkpt>
<trkpt lat="37.161195" lon="-94.150456"><ele>312.2</ele></trkpt>
<trkpt lat="37.160996" lon="-94.150689"><ele>312.9</ele></trkpt>
<trkpt lat="37.160729" lon="-94.151051"><ele>314.0</ele></trkpt>
<trkpt lat="37.160483" lon="-94.151483"><ele>315.3</ele></trkpt>
<trkpt lat="37.160308" lon="-94.152040"><ele>316.9</ele></trkpt>
<trkpt lat="37.160141" lon="-94.152948"><ele>317.7</ele></trkpt>
<trkpt lat="37.159984" lon="-94.153495"><ele>318.2</ele></trkpt>
<trkpt lat="37.159851" lon="-94.153803"><ele>318.4</ele></trkpt>
<trkpt lat="37.159697" lon="-94.154078"><ele>318.3</ele></trkpt>
<trkpt lat="37.159521" lon="-94.154334"><ele>318.4</ele></trkpt>
<trkpt lat="37.159087" lon="-94.154763"><ele>319.3</ele></trkpt>
<trkpt lat="37.158906" lon="-94.154873"><ele>319.6</ele></trkpt>
<trkpt lat="37.158572" lon="-94.155045"><ele>319.6</ele></trkpt>
<trkpt lat="37.158151" lon="-94.155125"><ele>318.7</ele></trkpt>
<trkpt lat="37.157653" lon="-94.155155"><ele>316.8</ele></trkpt>
<trkpt lat="37.156149" lon="-94.155218"><ele>302.6</ele></trkpt>
<trkpt lat="37.155441" lon="-94.155239"><ele>303.1</ele></trkpt>
<trkpt lat="37.152666" lon="-94.155326"><ele>302.9</ele></trkpt>
<trkpt lat="37.150512" lon="-94.155414"><ele>302.5</ele></trkpt>
<trkpt lat="37.146442" lon="-94.155541"><ele>302.2</ele></trkpt>
<trkpt lat="37.145965" lon="-94.155510"><ele>303.0</ele></trkpt>
<trkpt lat="37.145369" lon="-94.155428"><ele>305.5</ele></trkpt>
<trkpt lat="37.145457" lon="-94.158712"><ele>303.7</ele></trkpt>
<trkpt lat="37.145640" lon="-94.160634"><ele>305.4</ele></trkpt>
<trkpt lat="37.145994" lon="-94.163938"><ele>305.4</ele></trkpt>
<trkpt lat="37.146199" lon="-94.165491"><ele>304.4</ele></trkpt>
<trkpt lat="37.146632" lon="-94.168146"><ele>305.1</ele></trkpt>
<trkpt lat="37.146926" lon="-94.170802"><ele>303.1</ele></trkpt>
<trkpt lat="37.148185" lon="-94.174817"><ele>303.4</ele></trkpt>
<trkpt lat="37.149248" lon="-94.176706"><ele>304.3</ele></trkpt>
<trkpt lat="37.149543" lon="-94.177451"><ele>303.6</ele></trkpt>
<trkpt lat="37.149609" lon="-94.177883"><ele>302.5</ele></trkpt>
<trkpt lat="37.149604" lon="-94.178288"><ele>303.1</ele></trkpt>
<trkpt lat="37.149514" lon="-94.179002"><ele>305.3</ele></trkpt>
<trkpt lat="37.149383" lon="-94.179608"><ele>309.3</ele></trkpt>
<trkpt lat="37.149315" lon="-94.180102"><ele>312.6</ele></trkpt>
<trkpt lat="37.149352" lon="-94.180583"><ele>316.1</ele></trkpt>
<trkpt lat="37.149488" lon="-94.181070"><ele>318.9</ele></trkpt>
<trkpt lat="37.150257" lon="-94.182598"><ele>329.9</ele></trkpt>
<trkpt lat="37.150648" lon="-94.183721"><ele>334.7</ele></trkpt>
<trkpt lat="37.150864" lon="-94.184423"><ele>335.6</ele></trkpt>
<trkpt lat="37.151671" lon="-94.187207"><ele>337.2</ele></trkpt>
<trkpt lat="37.152700" lon="-94.189722"><ele>333.3</ele></trkpt>
<trkpt lat="37.153123" lon="-94.190792"><ele>334.0</ele></trkpt>
<trkpt lat="37.153221" lon="-94.191201"><ele>334.0</ele></trkpt>
<trkpt lat="37.153324" lon="-94.194390"><ele>329.3</ele></trkpt>
<trkpt lat="37.153335" lon="-94.195248"><ele>324.7</ele></trkpt>
<trkpt lat="37.153342" lon="-94.195750"><ele>322.0</ele></trkpt>
<trkpt lat="37.153342" lon="-94.195762"><ele>322.0</ele></trkpt>
<trkpt lat="37.153383" lon="-94.197308"><ele>320.3</ele></trkpt>
<trkpt lat="37.153436" lon="-94.199433"><ele>332.0</ele></trkpt>
<trkpt lat="37.153442" lon="-94.200858"><ele>329.0</ele></trkpt>
<trkpt lat="37.153553" lon="-94.206933"><ele>323.7</ele></trkpt>
<trkpt lat="37.153601" lon="-94.209575"><ele>331.3</ele></trkpt>
<trkpt lat="37.153791" lon="-94.219147"><ele>327.8</ele></trkpt>
<trkpt lat="37.154017" lon="-94.227716"><ele>313.9</ele></trkpt>
<trkpt lat="37.154064" lon="-94.229249"><ele>313.1</ele></trkpt>
<trkpt lat="37.154140" lon="-94.231764"><ele>326.8</ele></trkpt>
<trkpt lat="37.154243" lon="-94.234326"><ele>327.0</ele></trkpt>
<trkpt lat="37.154331" lon="-94.237145"><ele>324.9</ele></trkpt>
<trkpt lat="37.154413" lon="-94.240682"><ele>327.2</ele></trkpt>
<trkpt lat="37.154417" lon="-94.242291"><ele>326.7</ele></trkpt>
<trkpt lat="37.154629" lon="-94.251109"><ele>326.0</ele></trkpt>
<trkpt lat="37.154722" lon="-94.254506"><ele>323.4</ele></trkpt>
<trkpt lat="37.154746" lon="-94.255268"><ele>321.3</ele></trkpt>
<trkpt lat="37.154898" lon="-94.256949"><ele>314.9</ele></trkpt>
<trkpt lat="37.154856" lon="-94.260585"><ele>312.3</ele></trkpt>
<trkpt lat="37.154832" lon="-94.261178"><ele>312.1</ele></trkpt>
<trkpt lat="37.154669" lon="-94.268495"><ele>319.0</ele></trkpt>
<trkpt lat="37.154674" lon="-94.269544"><ele>319.9</ele></trkpt>
<trkpt lat="37.154655" lon="-94.270126"><ele>321.2</ele></trkpt>
<trkpt lat="37.154601" lon="-94.275973"><ele>323.9</ele></trkpt>
<trkpt lat="37.154616" lon="-94.278488"><ele>320.3</ele></trkpt>
<trkpt lat="37.154613" lon="-94.280597"><ele>316.2</ele></trkpt>
<trkpt lat="37.154642" lon="-94.287310"><ele>311.2</ele></trkpt>
<trkpt lat="37.154645" lon="-94.291273"><ele>317.6</ele></trkpt>
<trkpt lat="37.154645" lon="-94.291733"><ele>317.0</ele></trkpt>
<trkpt lat="37.154653" lon="-94.292027"><ele>317.0</ele></trkpt>
<trkpt lat="37.154638" lon="-94.294479"><ele>317.1</ele></trkpt>
<trkpt lat="37.154639" lon="-94.297919"><ele>317.7</ele></trkpt>
<trkpt lat="37.154632" lon="-94.298777"><ele>316.8</ele></trkpt>
<trkpt lat="37.154648" lon="-94.299514"><ele>316.7</ele></trkpt>
<trkpt lat="37.154665" lon="-94.301028"><ele>315.0</ele></trkpt>
<trkpt lat="37.154661" lon="-94.302161"><ele>315.5</ele></trkpt>
<trkpt lat="37.154695" lon="-94.305410"><ele>320.5</ele></trkpt>
<trkpt lat="37.154713" lon="-94.309121"><ele>320.4</ele></trkpt>
<trkpt lat="37.154710" lon="-94.310081"><ele>321.0</ele></trkpt>
<trkpt lat="37.154737" lon="-94.313826"><ele>323.1</ele></trkpt>
<trkpt lat="37.154735" lon="-94.314619"><ele>323.4</ele></trkpt>
<trkpt lat="37.160171" lon="-94.314448"><ele>316.4</ele></trkpt>
<trkpt lat="37.161620" lon="-94.314413"><ele>312.2</ele></trkpt>
<trkpt lat="37.161890" lon="-94.314423"><ele>312.0</ele></trkpt>
<trkpt lat="37.162057" lon="-94.314475"><ele>312.3</ele></trkpt>
<trkpt lat="37.162403" lon="-94.314518"><ele>313.4</ele></trkpt>
<trkpt lat="37.162902" lon="-94.314504"><ele>316.2</ele></trkpt>
<trkpt lat="37.163633" lon="-94.314461"><ele>317.0</ele></trkpt>
<trkpt lat="37.172031" lon="-94.314175"><ele>307.3</ele></trkpt>
<trkpt lat="37.175906" lon="-94.314031"><ele>300.1</ele></trkpt>
<trkpt lat="37.175909" lon="-94.314187"><ele>300.4</ele></trkpt>
</trkseg></trk>
</gpx>